{"type": "FeatureCollection", "crs": {"type": "name", "properties": {"name": "urn:ogc:def:crs:EPSG::32635"}}, "features": [{"type": "Feature", "properties": {"length_m": 919.9, "mode": "farmer", "start": [629504.7, 5220250.75], "custom_start": false, "target_types": "waste", "targets_total": 6, "targets_visited": 1, "outside_share": 0.0114, "row_walls": true, "minutes_at_4kmh": 13.8}, "geometry": {"type": "LineString", "coordinates": [[629504.7, 5220250.75], [629504.75, 5220250.65], [629508.75, 5220250.15], [629578.75, 5220274.15], [629614.75, 5220284.65], [629644.25, 5220292.65], [629647.25, 5220290.15], [629650.75, 5220284.65], [629654.25, 5220280.15], [629656.25, 5220277.65], [629658.75, 5220274.65], [629665.25, 5220266.65], [629667.75, 5220263.65], [629671.75, 5220258.65], [629674.75, 5220255.15], [629677.25, 5220252.15], [629681.25, 5220247.65], [629685.25, 5220242.65], [629686.25, 5220241.15], [629688.25, 5220238.65], [629690.75, 5220235.65], [629691.75, 5220234.15], [629694.25, 5220231.15], [629742.25, 5220173.65], [629748.25, 5220166.15], [629749.25, 5220164.65], [629813.25, 5220099.65], [629853.75, 5220131.15], [629849.75, 5220135.15], [629853.25, 5220130.65], [629847.75, 5220126.15], [629812.75, 5220099.65], [629749.75, 5220166.65], [629724.25, 5220198.15], [629645.25, 5220292.15], [629643.75, 5220292.65], [629542.25, 5220264.15], [629505.75, 5220249.65], [629504.75, 5220250.65], [629504.7, 5220250.75]]}}]}