{"type": "FeatureCollection", "crs": {"type": "name", "properties": {"name": "urn:ogc:def:crs:EPSG::32635"}}, "features": [{"type": "Feature", "properties": {"length_m": 7416.1, "mode": "inspector", "start": [629504.7, 5220250.75], "custom_start": false, "target_types": "gap,waste", "targets_total": 125, "targets_visited": 55, "outside_share": 0.0164, "row_walls": true, "minutes_at_4kmh": 111.2}, "geometry": {"type": "LineString", "coordinates": [[629504.7, 5220250.75], [629504.75, 5220250.65], [629509.75, 5220236.65], [629511.75, 5220235.15], [629513.75, 5220236.65], [629515.25, 5220236.15], [629530.75, 5220215.15], [629535.25, 5220209.15], [629535.75, 5220208.15], [629529.75, 5220217.65], [629524.25, 5220223.15], [629523.75, 5220225.15], [629514.75, 5220236.65], [629513.75, 5220236.65], [629512.75, 5220235.65], [629513.25, 5220229.65], [629526.25, 5220211.65], [629529.75, 5220207.15], [629530.75, 5220205.65], [629530.75, 5220204.65], [629530.25, 5220204.65], [629529.75, 5220204.15], [629529.25, 5220204.65], [629528.75, 5220205.15], [629521.25, 5220215.15], [629521.25, 5220215.65], [629517.75, 5220218.65], [629518.25, 5220218.15], [629523.25, 5220211.65], [629528.75, 5220205.15], [629529.25, 5220204.65], [629529.75, 5220204.15], [629530.25, 5220203.65], [629530.75, 5220204.15], [629533.25, 5220202.15], [629534.25, 5220201.15], [629535.25, 5220199.65], [629535.75, 5220198.15], [629544.75, 5220188.15], [629561.75, 5220165.65], [629598.25, 5220175.65], [629600.25, 5220173.65], [629612.75, 5220157.15], [629619.25, 5220148.65], [629620.25, 5220147.15], [629623.75, 5220142.65], [629628.75, 5220136.15], [629640.25, 5220124.15], [629643.75, 5220116.65], [629647.25, 5220112.15], [629652.25, 5220105.65], [629663.75, 5220091.65], [629664.75, 5220090.65], [629676.25, 5220091.65], [629679.75, 5220087.15], [629692.25, 5220070.65], [629707.75, 5220050.15], [629717.25, 5220037.65], [629737.75, 5220011.65], [629739.75, 5220009.65], [629769.25, 5220017.65], [629780.75, 5220020.65], [629778.75, 5220018.15], [629779.25, 5220014.65], [629791.75, 5219996.15], [629918.25, 5219839.65], [629920.25, 5219837.15], [629921.75, 5219835.15], [629922.75, 5219833.65], [629925.75, 5219830.15], [629927.75, 5219827.65], [629940.75, 5219811.15], [629944.75, 5219806.15], [629948.25, 5219801.65], [629952.25, 5219796.65], [629967.25, 5219780.15], [629977.75, 5219767.15], [629979.75, 5219764.65], [629984.25, 5219759.15], [629988.75, 5219754.15], [629990.25, 5219752.65], [629990.75, 5219752.65], [629991.25, 5219753.15], [629990.25, 5219758.65], [629988.75, 5219760.15], [629998.75, 5219749.15], [629999.25, 5219747.65], [629995.25, 5219742.15], [629973.75, 5219715.15], [630007.75, 5219673.65], [630042.75, 5219639.65], [630067.25, 5219620.15], [630072.25, 5219615.15], [630218.75, 5219492.65], [630258.25, 5219467.15], [630289.25, 5219449.65], [630308.25, 5219430.65], [630307.75, 5219430.15], [630306.25, 5219428.15], [630304.25, 5219425.15], [630302.75, 5219423.15], [630300.75, 5219420.15], [630299.25, 5219418.15], [630298.25, 5219416.65], [630296.75, 5219414.65], [630294.75, 5219411.65], [630293.25, 5219409.65], [630291.25, 5219406.65], [630289.75, 5219404.65], [630287.75, 5219401.65], [630286.25, 5219399.65], [630284.25, 5219396.65], [630282.75, 5219394.65], [630280.75, 5219391.65], [630279.25, 5219389.65], [630277.25, 5219386.65], [630275.75, 5219384.65], [630273.75, 5219381.65], [630272.25, 5219379.65], [630264.75, 5219367.15], [630263.75, 5219365.65], [630239.25, 5219327.15], [630237.25, 5219324.15], [630234.75, 5219321.15], [630234.25, 5219320.65], [630232.75, 5219317.15], [630229.75, 5219312.65], [630224.25, 5219304.15], [630218.25, 5219295.15], [630214.25, 5219290.15], [630220.75, 5219284.65], [630232.75, 5219304.15], [630232.75, 5219304.65], [630233.25, 5219305.15], [630237.25, 5219311.15], [630242.75, 5219319.65], [630249.75, 5219330.65], [630252.75, 5219335.15], [630263.25, 5219351.65], [630270.25, 5219361.65], [630271.75, 5219363.15], [630272.25, 5219363.15], [630272.75, 5219362.65], [630274.25, 5219358.15], [630271.75, 5219355.15], [630269.25, 5219351.15], [630268.25, 5219350.15], [630267.75, 5219348.15], [630263.25, 5219340.65], [630255.25, 5219328.15], [630254.75, 5219326.65], [630253.75, 5219325.65], [630252.75, 5219324.15], [630244.75, 5219311.65], [630234.25, 5219295.15], [630225.75, 5219283.15], [630225.25, 5219281.15], [630227.25, 5219279.15], [630231.25, 5219286.65], [630233.25, 5219289.65], [630247.75, 5219312.65], [630248.75, 5219314.15], [630248.75, 5219314.65], [630250.25, 5219314.65], [630249.25, 5219313.65], [630247.25, 5219310.65], [630239.25, 5219298.15], [630227.25, 5219279.15], [630225.25, 5219281.15], [630226.25, 5219284.15], [630226.75, 5219284.65], [630228.75, 5219287.65], [630252.75, 5219325.15], [630254.25, 5219327.65], [630264.75, 5219344.15], [630269.75, 5219352.15], [630271.75, 5219355.15], [630271.75, 5219355.65], [630274.25, 5219358.15], [630271.75, 5219360.15], [630270.25, 5219356.65], [630258.25, 5219337.65], [630255.25, 5219333.15], [630238.75, 5219308.65], [630238.25, 5219308.15], [630231.75, 5219297.65], [630230.75, 5219296.65], [630230.25, 5219294.65], [630226.25, 5219289.15], [630225.25, 5219288.15], [630224.75, 5219286.15], [630222.25, 5219283.15], [630221.25, 5219282.15], [630220.75, 5219282.15], [630107.25, 5219378.65], [630106.75, 5219379.15], [630106.75, 5219380.65], [630107.25, 5219381.15], [630110.75, 5219385.65], [630112.75, 5219388.15], [630116.25, 5219392.65], [630118.25, 5219395.15], [630119.25, 5219396.65], [630121.25, 5219399.15], [630122.75, 5219401.15], [630122.75, 5219401.65], [630122.25, 5219399.65], [630112.25, 5219387.15], [630107.25, 5219381.15], [630104.75, 5219378.65], [630104.25, 5219378.65], [630103.75, 5219379.15], [630098.75, 5219383.15], [630097.75, 5219384.15], [630091.25, 5219389.65], [630089.75, 5219389.15], [630089.25, 5219389.65], [630089.25, 5219391.15], [630086.75, 5219393.15], [630085.75, 5219392.65], [630084.75, 5219393.65], [630084.75, 5219394.15], [630085.25, 5219394.65], [630083.75, 5219395.65], [630081.75, 5219397.65], [630081.25, 5219397.15], [630080.75, 5219397.15], [630080.25, 5219397.65], [630080.25, 5219398.65], [630079.75, 5219399.15], [630079.25, 5219398.65], [630078.75, 5219398.65], [630078.25, 5219399.15], [630078.25, 5219400.65], [629981.75, 5219481.15], [629981.25, 5219481.65], [629985.75, 5219488.65], [629986.25, 5219489.15], [629991.25, 5219495.15], [629993.25, 5219497.65], [629998.25, 5219503.65], [630000.25, 5219506.15], [630005.25, 5219512.15], [630007.25, 5219514.65], [630009.75, 5219517.65], [630012.75, 5219521.15], [630022.75, 5219533.15], [630030.75, 5219543.65], [630034.25, 5219548.15], [630033.75, 5219550.65], [630029.75, 5219554.65], [629928.25, 5219635.15], [629902.75, 5219660.15], [629975.25, 5219720.15], [629995.75, 5219743.15], [629999.25, 5219747.65], [630000.75, 5219750.15], [630020.25, 5219775.65], [630021.25, 5219773.65], [630022.25, 5219768.65], [630022.25, 5219767.65], [630021.25, 5219778.15], [630020.75, 5219778.65], [630020.75, 5219779.65], [630021.25, 5219780.15], [630022.25, 5219780.15], [630022.75, 5219779.65], [630024.75, 5219771.15], [630024.75, 5219770.15], [630024.25, 5219773.65], [630023.25, 5219784.15], [630024.25, 5219785.15], [630024.75, 5219784.65], [630027.25, 5219774.15], [630027.25, 5219773.15], [630026.75, 5219776.65], [630024.25, 5219788.65], [630032.25, 5219806.65], [630029.75, 5219816.65], [629920.25, 5219954.15], [629780.75, 5220134.15], [629749.75, 5220166.65], [629708.75, 5220210.65], [629697.75, 5220209.15], [629670.25, 5220198.15], [629669.75, 5220197.65], [629670.75, 5220194.65], [629674.25, 5220189.65], [629679.25, 5220183.15], [629682.75, 5220178.65], [629697.75, 5220159.15], [629707.75, 5220148.15], [629708.75, 5220147.15], [629709.75, 5220145.15], [629712.75, 5220139.65], [629716.25, 5220135.15], [629731.25, 5220115.65], [629732.75, 5220113.65], [629732.75, 5220112.65], [629732.25, 5220112.15], [629731.75, 5220112.15], [629730.25, 5220113.65], [629723.25, 5220122.65], [629708.25, 5220142.15], [629706.25, 5220144.65], [629695.25, 5220158.15], [629694.25, 5220159.15], [629688.25, 5220168.15], [629681.75, 5220175.65], [629681.25, 5220176.15], [629674.75, 5220185.65], [629674.75, 5220186.15], [629673.25, 5220187.65], [629671.25, 5220190.15], [629663.75, 5220200.15], [629661.75, 5220203.15], [629660.25, 5220205.15], [629659.25, 5220206.65], [629649.75, 5220219.15], [629648.75, 5220220.65], [629642.25, 5220229.15], [629632.25, 5220242.15], [629628.75, 5220246.65], [629627.75, 5220248.15], [629625.75, 5220250.65], [629608.25, 5220273.15], [629606.75, 5220275.15], [629606.75, 5220275.65], [629604.75, 5220277.65], [629603.25, 5220279.65], [629602.25, 5220281.15], [629643.75, 5220293.65], [629513.75, 5220453.65], [629504.25, 5220435.65], [629495.25, 5220434.15], [629461.75, 5220462.65], [629457.25, 5220469.15], [629453.75, 5220493.15], [629453.25, 5220503.15], [629460.75, 5220505.65], [629466.25, 5220506.65], [629467.75, 5220507.15], [629473.25, 5220508.65], [629485.25, 5220511.65], [629487.75, 5220512.15], [629484.25, 5220511.65], [629478.25, 5220510.15], [629476.75, 5220509.65], [629476.25, 5220509.15], [629472.75, 5220508.65], [629460.25, 5220505.65], [629459.25, 5220505.65], [629458.75, 5220505.15], [629455.25, 5220504.65], [629452.75, 5220503.65], [629452.25, 5220510.15], [629451.75, 5220521.65], [629454.75, 5220521.65], [629455.25, 5220522.15], [629479.25, 5220528.15], [629479.75, 5220528.65], [629481.25, 5220528.65], [629453.25, 5220521.65], [629451.25, 5220521.65], [629451.25, 5220526.15], [629454.75, 5220526.15], [629455.25, 5220526.65], [629477.75, 5220532.15], [629478.75, 5220532.15], [629479.25, 5220532.65], [629481.25, 5220533.15], [629481.75, 5220533.65], [629481.25, 5220533.15], [629453.25, 5220526.15], [629450.75, 5220525.65], [629449.75, 5220490.65], [629436.75, 5220513.15], [629421.75, 5220527.15], [629196.25, 5220693.15], [629192.75, 5220698.15], [629192.75, 5220703.65], [629200.25, 5220708.65], [629205.75, 5220712.65], [629206.25, 5220713.15], [629210.75, 5220718.15], [629209.25, 5220720.65], [629208.75, 5220722.15], [629207.75, 5220724.15], [629205.75, 5220729.15], [629203.25, 5220735.15], [629197.25, 5220750.15], [629195.75, 5220753.65], [629195.25, 5220755.15], [629194.25, 5220757.15], [629190.25, 5220767.15], [629188.75, 5220770.65], [629172.75, 5220810.65], [629171.25, 5220814.15], [629170.75, 5220815.65], [629169.25, 5220818.65], [629166.75, 5220824.65], [629164.75, 5220829.65], [629165.75, 5220831.15], [629164.75, 5220837.15], [629164.25, 5220837.65], [629163.75, 5220839.15], [629162.75, 5220841.15], [629161.25, 5220844.65], [629158.75, 5220850.65], [629156.25, 5220856.65], [629153.75, 5220862.65], [629152.25, 5220866.15], [629149.75, 5220870.65], [629151.25, 5220867.65], [629152.75, 5220864.15], [629155.75, 5220856.65], [629159.75, 5220848.65], [629160.25, 5220848.15], [629160.75, 5220844.65], [629163.25, 5220838.65], [629165.25, 5220833.65], [629165.75, 5220831.15], [629165.25, 5220830.65], [629164.75, 5220829.15], [629180.25, 5220790.65], [629180.75, 5220789.15], [629181.75, 5220787.15], [629183.75, 5220782.15], [629186.25, 5220776.15], [629190.25, 5220766.15], [629192.75, 5220760.15], [629194.75, 5220755.15], [629197.25, 5220749.15], [629205.25, 5220729.15], [629206.75, 5220725.65], [629210.25, 5220718.65], [629210.75, 5220718.15], [629216.25, 5220717.65], [629234.25, 5220728.65], [629234.75, 5220729.15], [629234.25, 5220734.15], [629233.75, 5220734.65], [629233.25, 5220736.15], [629232.25, 5220738.15], [629231.25, 5220741.15], [629231.25, 5220741.65], [629231.75, 5220738.15], [629232.25, 5220736.65], [629233.75, 5220733.15], [629235.25, 5220730.65], [629235.75, 5220730.15], [629249.25, 5220734.65], [629258.75, 5220744.15], [629253.75, 5220749.15], [629253.75, 5220756.15], [629254.25, 5220756.65], [629253.25, 5220762.15], [629252.75, 5220762.65], [629250.75, 5220767.65], [629246.25, 5220778.15], [629244.25, 5220783.15], [629242.75, 5220786.65], [629236.75, 5220801.65], [629234.25, 5220807.65], [629232.25, 5220812.65], [629230.75, 5220816.15], [629228.75, 5220821.15], [629227.25, 5220824.65], [629225.25, 5220829.65], [629222.75, 5220835.65], [629220.75, 5220840.65], [629218.25, 5220846.65], [629216.75, 5220850.15], [629210.75, 5220865.15], [629207.75, 5220872.15], [629205.25, 5220878.15], [629200.75, 5220888.65], [629197.25, 5220896.65], [629196.75, 5220897.15], [629197.25, 5220896.65], [629197.75, 5220895.15], [629198.75, 5220893.15], [629201.25, 5220887.15], [629203.25, 5220882.15], [629204.75, 5220878.65], [629211.75, 5220861.65], [629213.25, 5220857.65], [629212.25, 5220856.65], [629209.25, 5220856.15], [629208.25, 5220857.65], [629205.25, 5220864.65], [629205.25, 5220865.65], [629205.75, 5220862.15], [629206.25, 5220861.65], [629208.75, 5220856.65], [629210.25, 5220856.15], [629213.25, 5220855.65], [629214.75, 5220854.15], [629216.25, 5220850.65], [629218.25, 5220845.65], [629219.75, 5220842.15], [629221.75, 5220837.15], [629224.25, 5220831.15], [629226.25, 5220826.15], [629228.75, 5220820.15], [629231.25, 5220813.65], [629231.75, 5220812.15], [629232.75, 5220810.15], [629234.75, 5220805.15], [629236.25, 5220801.65], [629240.25, 5220791.65], [629241.75, 5220788.15], [629243.75, 5220783.15], [629246.25, 5220777.15], [629249.25, 5220770.15], [629251.25, 5220765.15], [629252.75, 5220762.65], [629253.25, 5220761.65], [629254.25, 5220756.65], [629253.75, 5220755.15], [629253.75, 5220749.15], [629254.25, 5220748.65], [629256.75, 5220742.65], [629245.25, 5220735.15], [629238.25, 5220731.15], [629230.25, 5220726.15], [629223.75, 5220722.65], [629220.75, 5220721.15], [629216.75, 5220718.65], [629213.75, 5220717.65], [629205.75, 5220712.65], [629200.75, 5220710.15], [629200.25, 5220710.15], [629199.75, 5220710.65], [629191.75, 5220730.65], [629189.25, 5220736.65], [629187.25, 5220741.65], [629185.75, 5220745.15], [629183.75, 5220750.15], [629176.25, 5220768.15], [629174.25, 5220773.15], [629171.75, 5220779.15], [629169.75, 5220784.15], [629167.25, 5220790.15], [629165.25, 5220795.15], [629162.75, 5220801.15], [629160.75, 5220806.15], [629158.25, 5220812.15], [629156.25, 5220817.15], [629151.25, 5220829.15], [629149.25, 5220833.15], [629148.75, 5220833.65], [629149.25, 5220833.15], [629151.25, 5220828.15], [629153.75, 5220822.15], [629160.75, 5220804.65], [629162.25, 5220801.15], [629164.25, 5220796.15], [629165.75, 5220792.65], [629167.75, 5220787.65], [629169.25, 5220784.15], [629171.25, 5220779.15], [629172.75, 5220775.65], [629174.75, 5220770.65], [629176.25, 5220767.15], [629178.75, 5220761.15], [629180.25, 5220757.65], [629182.25, 5220752.65], [629184.75, 5220746.65], [629186.75, 5220741.65], [629189.25, 5220735.65], [629191.25, 5220730.65], [629193.75, 5220724.65], [629195.75, 5220719.65], [629197.25, 5220716.15], [629198.75, 5220711.65], [629199.25, 5220710.65], [629198.25, 5220709.65], [629164.25, 5220694.65], [629147.25, 5220732.15], [629141.25, 5220742.15], [629139.25, 5220754.15], [629120.25, 5220803.15], [629118.75, 5220806.65], [629117.25, 5220809.65], [629107.25, 5220799.15], [629109.75, 5220794.65], [629110.25, 5220793.65], [629110.75, 5220793.15], [629111.75, 5220791.65], [629113.25, 5220789.65], [629116.25, 5220785.15], [629117.75, 5220783.15], [629120.75, 5220778.65], [629126.75, 5220771.65], [629127.25, 5220771.15], [629126.75, 5220771.65], [629125.75, 5220773.15], [629124.25, 5220775.15], [629121.25, 5220779.65], [629119.75, 5220781.65], [629117.75, 5220784.65], [629116.25, 5220786.65], [629113.25, 5220791.15], [629112.75, 5220792.15], [629111.75, 5220793.15], [629109.75, 5220796.15], [629107.75, 5220798.65], [629107.75, 5220800.15], [629117.25, 5220809.65], [629117.75, 5220809.15], [629140.25, 5220748.65], [629162.25, 5220693.65], [629145.25, 5220683.15], [629144.75, 5220683.65], [629143.25, 5220685.65], [629142.25, 5220687.15], [629141.25, 5220688.65], [629133.75, 5220700.15], [629132.75, 5220701.65], [629125.25, 5220713.15], [629124.25, 5220714.65], [629116.75, 5220726.15], [629109.75, 5220737.15], [629102.75, 5220747.65], [629095.25, 5220759.15], [629094.75, 5220760.15], [629094.25, 5220760.65], [629092.25, 5220764.15], [629090.25, 5220767.15], [629087.75, 5220770.65], [629086.75, 5220772.15], [629085.75, 5220773.65], [629080.75, 5220781.15], [629081.25, 5220781.65], [629081.75, 5220782.15], [629092.25, 5220787.65], [629094.75, 5220784.15], [629098.25, 5220772.65], [629098.75, 5220771.15], [629100.75, 5220770.15], [629100.25, 5220770.65], [629096.25, 5220780.65], [629094.75, 5220784.15], [629094.75, 5220785.15], [629092.25, 5220787.65], [629081.75, 5220782.15], [629081.25, 5220781.65], [629080.75, 5220781.15], [629092.75, 5220763.15], [629093.75, 5220761.65], [629094.25, 5220760.65], [629094.75, 5220760.15], [629098.25, 5220752.65], [629099.25, 5220751.15], [629106.75, 5220739.65], [629107.75, 5220738.15], [629115.25, 5220726.65], [629128.25, 5220706.65], [629130.25, 5220703.65], [629144.75, 5220683.65], [629145.25, 5220683.15], [629181.25, 5220700.15], [629187.75, 5220701.65], [629190.75, 5220698.15], [629210.25, 5220607.65], [629211.25, 5220606.65], [629214.25, 5220594.65], [629216.25, 5220586.15], [629220.75, 5220563.15], [629221.25, 5220559.65], [629239.25, 5220482.65], [629238.25, 5220477.65], [629234.25, 5220478.15], [629233.75, 5220478.65], [629231.25, 5220480.15], [629220.25, 5220486.15], [629216.25, 5220488.15], [629215.75, 5220488.15], [629217.75, 5220487.65], [629221.25, 5220486.15], [629223.75, 5220484.65], [629229.25, 5220481.65], [629237.75, 5220477.15], [629238.25, 5220478.65], [629239.25, 5220483.15], [629227.25, 5220542.15], [629228.25, 5220542.65], [629272.25, 5220517.65], [629397.75, 5220421.65], [629478.25, 5220368.65], [629500.25, 5220316.65], [629504.75, 5220250.65], [629504.7, 5220250.75]]}}]}