{"type": "FeatureCollection", "crs": {"type": "name", "properties": {"name": "urn:ogc:def:crs:EPSG::32635"}}, "features": [{"type": "Feature", "properties": {"length_m": 5841.1, "mode": "inspector", "start": [629504.7, 5220250.75], "custom_start": false, "target_types": "gap,waste", "targets_total": 36, "targets_visited": 21, "outside_share": 0.0137, "row_walls": true, "minutes_at_4kmh": 87.6}, "geometry": {"type": "LineString", "coordinates": [[629504.7, 5220250.75], [629504.75, 5220250.65], [629508.75, 5220250.15], [629557.75, 5220267.15], [629559.25, 5220263.65], [629569.75, 5220249.65], [629572.25, 5220246.15], [629582.25, 5220233.15], [629585.75, 5220228.65], [629590.75, 5220222.15], [629594.25, 5220217.65], [629597.25, 5220213.65], [629598.25, 5220212.15], [629599.25, 5220211.15], [629604.25, 5220204.65], [629607.25, 5220200.65], [629607.75, 5220199.15], [629609.75, 5220196.65], [629618.25, 5220186.15], [629618.75, 5220184.15], [629598.75, 5220175.65], [629612.75, 5220157.15], [629619.25, 5220148.65], [629620.25, 5220147.15], [629623.75, 5220142.65], [629628.75, 5220136.15], [629640.25, 5220124.15], [629639.25, 5220125.15], [629637.25, 5220127.65], [629633.75, 5220132.15], [629628.75, 5220138.65], [629620.25, 5220148.15], [629619.25, 5220149.65], [629609.75, 5220162.15], [629608.75, 5220163.65], [629598.75, 5220175.65], [629617.25, 5220181.65], [629630.25, 5220187.65], [629629.75, 5220189.15], [629629.25, 5220189.65], [629605.75, 5220221.65], [629602.25, 5220226.65], [629602.25, 5220227.15], [629602.75, 5220225.15], [629619.75, 5220202.15], [629630.75, 5220187.65], [629640.25, 5220188.65], [629641.75, 5220187.15], [629646.75, 5220180.65], [629659.75, 5220163.65], [629677.25, 5220142.15], [629678.75, 5220140.65], [629679.25, 5220138.65], [629685.75, 5220129.65], [629690.75, 5220123.15], [629694.25, 5220118.65], [629699.25, 5220112.15], [629706.75, 5220103.15], [629735.75, 5220064.65], [629750.75, 5220045.15], [629751.75, 5220043.65], [629760.75, 5220031.65], [629769.25, 5220019.65], [629772.75, 5220014.65], [629774.25, 5220012.65], [629774.75, 5220011.15], [629844.75, 5219937.65], [629846.25, 5219938.15], [629846.75, 5219938.65], [629846.25, 5219941.15], [629845.25, 5219943.15], [629839.75, 5219948.15], [629845.75, 5219942.65], [629846.75, 5219939.15], [629846.75, 5219938.65], [629846.25, 5219938.15], [629844.75, 5219932.65], [629918.25, 5219839.65], [629920.25, 5219837.15], [629921.75, 5219835.15], [629922.75, 5219833.65], [629925.75, 5219830.15], [629927.75, 5219827.65], [629940.75, 5219811.15], [629944.75, 5219806.15], [629951.75, 5219798.15], [629975.75, 5219769.65], [629979.75, 5219764.65], [629984.25, 5219759.15], [629988.75, 5219754.15], [629990.25, 5219752.65], [629996.25, 5219751.15], [629998.75, 5219747.15], [629980.75, 5219723.65], [629973.75, 5219715.15], [630007.75, 5219673.65], [630042.75, 5219639.65], [630067.25, 5219620.15], [630072.25, 5219615.15], [630142.25, 5219558.15], [630142.75, 5219558.15], [630143.25, 5219557.65], [630143.25, 5219555.65], [630144.75, 5219554.15], [630149.75, 5219548.65], [630145.25, 5219543.65], [630143.25, 5219541.15], [630140.25, 5219537.65], [630135.25, 5219531.15], [630133.25, 5219528.65], [630131.25, 5219526.15], [630130.75, 5219525.15], [630133.25, 5219529.15], [630136.75, 5219532.65], [630143.25, 5219541.65], [630147.75, 5219546.15], [630151.25, 5219548.15], [630218.75, 5219492.65], [630258.25, 5219467.15], [630289.25, 5219449.65], [630301.25, 5219437.65], [630298.25, 5219434.65], [630295.25, 5219430.15], [630294.75, 5219429.65], [630292.75, 5219426.65], [630291.25, 5219424.65], [630289.25, 5219421.65], [630289.25, 5219421.15], [630287.75, 5219419.65], [630285.75, 5219416.65], [630284.25, 5219414.65], [630282.25, 5219411.65], [630280.75, 5219409.65], [630278.75, 5219406.65], [630277.25, 5219404.65], [630275.25, 5219401.65], [630273.75, 5219399.65], [630272.75, 5219398.15], [630272.25, 5219397.15], [630271.75, 5219396.65], [630270.25, 5219394.65], [630270.25, 5219394.15], [630268.75, 5219392.65], [630267.75, 5219391.15], [630266.25, 5219389.15], [630265.25, 5219387.65], [630258.75, 5219378.65], [630252.25, 5219367.65], [630249.25, 5219363.15], [630236.25, 5219342.65], [630224.25, 5219323.65], [630222.25, 5219320.65], [630206.75, 5219296.15], [630220.75, 5219284.65], [630232.75, 5219304.15], [630232.75, 5219304.65], [630232.25, 5219302.65], [630230.25, 5219299.15], [630227.25, 5219294.65], [630220.75, 5219284.65], [630107.25, 5219378.65], [630106.75, 5219379.15], [630106.75, 5219380.65], [630107.25, 5219381.15], [630110.75, 5219385.65], [630112.75, 5219388.15], [630116.25, 5219392.65], [630118.25, 5219395.15], [630119.25, 5219396.65], [630121.25, 5219399.15], [630122.75, 5219401.15], [630122.75, 5219401.65], [630124.75, 5219403.65], [630126.75, 5219406.15], [630128.75, 5219408.65], [630130.75, 5219411.15], [630130.75, 5219411.65], [630130.25, 5219409.65], [630127.75, 5219406.15], [630124.25, 5219401.65], [630122.25, 5219399.15], [630116.25, 5219392.15], [630112.25, 5219387.15], [630107.25, 5219381.15], [630104.75, 5219378.65], [630104.25, 5219378.65], [630103.75, 5219379.15], [630098.75, 5219383.15], [630097.75, 5219384.15], [630091.25, 5219389.65], [630089.75, 5219389.15], [630089.25, 5219389.65], [630089.25, 5219391.15], [630086.75, 5219393.15], [630085.75, 5219392.65], [630084.75, 5219393.65], [630084.75, 5219394.15], [630085.25, 5219394.65], [630083.75, 5219395.65], [630081.75, 5219397.65], [630081.25, 5219397.15], [630080.75, 5219397.15], [630080.25, 5219397.65], [630080.25, 5219398.65], [630079.75, 5219399.15], [630079.25, 5219398.65], [630078.75, 5219398.65], [630078.25, 5219399.15], [630078.25, 5219400.65], [629981.75, 5219481.15], [629981.25, 5219481.65], [629985.75, 5219488.65], [629986.25, 5219489.15], [629991.25, 5219495.15], [629993.25, 5219497.65], [629998.25, 5219503.65], [630000.25, 5219506.15], [630005.25, 5219512.15], [630007.25, 5219514.65], [630009.75, 5219517.65], [630012.75, 5219521.15], [630022.75, 5219533.15], [630030.75, 5219543.65], [630034.25, 5219548.15], [630034.25, 5219549.65], [629909.75, 5219651.15], [629898.75, 5219660.15], [629893.25, 5219662.65], [629891.25, 5219664.15], [629889.75, 5219665.15], [629857.75, 5219694.65], [629845.25, 5219693.65], [629843.75, 5219692.65], [629839.75, 5219696.65], [629837.75, 5219699.65], [629836.25, 5219701.65], [629835.25, 5219703.15], [629833.75, 5219705.15], [629830.75, 5219709.65], [629829.25, 5219711.65], [629827.25, 5219714.65], [629825.75, 5219716.65], [629823.75, 5219719.65], [629822.25, 5219721.65], [629822.25, 5219722.15], [629822.75, 5219720.15], [629839.75, 5219696.65], [629843.75, 5219692.65], [629854.25, 5219694.65], [629858.75, 5219694.65], [629876.75, 5219677.15], [629892.25, 5219664.65], [629902.75, 5219661.15], [629974.75, 5219719.65], [629995.75, 5219743.15], [630004.75, 5219756.15], [629987.75, 5219779.15], [629979.25, 5219788.65], [629965.75, 5219806.15], [629964.75, 5219806.65], [629958.75, 5219816.15], [629944.75, 5219834.15], [629939.25, 5219840.65], [629938.25, 5219842.15], [629936.25, 5219844.65], [629925.75, 5219858.15], [629920.75, 5219864.65], [629917.25, 5219869.15], [629912.75, 5219874.65], [629909.75, 5219879.15], [629918.75, 5219865.65], [629920.75, 5219863.15], [629927.75, 5219854.15], [629940.25, 5219838.15], [629944.25, 5219833.15], [629951.25, 5219824.15], [629955.25, 5219819.15], [629962.25, 5219810.15], [629964.25, 5219807.65], [629964.75, 5219806.65], [629966.75, 5219804.65], [629978.75, 5219789.15], [629978.75, 5219788.65], [629980.25, 5219787.15], [629994.25, 5219769.15], [629996.25, 5219766.65], [630003.75, 5219757.65], [630005.25, 5219756.65], [630014.75, 5219769.15], [630032.25, 5219806.65], [630029.25, 5219819.65], [629922.75, 5219950.65], [629815.75, 5220096.65], [629822.75, 5220104.65], [629849.75, 5220127.65], [629848.75, 5220129.15], [629848.25, 5220129.65], [629847.75, 5220130.15], [629847.25, 5220130.65], [629846.75, 5220131.65], [629845.75, 5220132.65], [629844.75, 5220134.15], [629845.75, 5220132.65], [629847.25, 5220131.15], [629847.25, 5220130.65], [629847.75, 5220130.15], [629848.25, 5220129.65], [629848.75, 5220129.15], [629849.75, 5220127.65], [629812.75, 5220099.65], [629749.75, 5220166.65], [629724.25, 5220198.15], [629513.75, 5220453.65], [629504.25, 5220435.65], [629495.25, 5220434.15], [629461.75, 5220462.65], [629457.25, 5220469.15], [629453.75, 5220493.15], [629453.25, 5220503.15], [629460.75, 5220505.65], [629466.25, 5220506.65], [629467.75, 5220507.15], [629473.25, 5220508.65], [629479.25, 5220510.15], [629480.75, 5220510.65], [629481.25, 5220511.15], [629484.75, 5220511.65], [629487.75, 5220512.15], [629484.25, 5220511.65], [629460.25, 5220505.65], [629459.25, 5220505.65], [629458.75, 5220505.15], [629455.25, 5220504.65], [629453.25, 5220503.15], [629449.75, 5220490.65], [629436.75, 5220513.15], [629421.75, 5220527.15], [629196.25, 5220693.15], [629192.75, 5220698.15], [629192.75, 5220703.65], [629200.25, 5220708.65], [629233.75, 5220728.15], [629234.25, 5220728.65], [629234.75, 5220729.15], [629234.25, 5220734.15], [629233.75, 5220734.65], [629233.25, 5220736.15], [629232.25, 5220738.15], [629230.25, 5220743.15], [629227.75, 5220749.15], [629217.75, 5220774.15], [629215.25, 5220780.15], [629211.25, 5220790.15], [629209.75, 5220793.65], [629205.75, 5220803.65], [629203.25, 5220809.65], [629197.25, 5220824.65], [629193.75, 5220831.65], [629193.25, 5220832.15], [629193.75, 5220831.65], [629194.75, 5220829.65], [629196.25, 5220826.15], [629198.25, 5220821.15], [629200.75, 5220815.15], [629201.75, 5220811.65], [629202.75, 5220809.65], [629204.75, 5220804.65], [629207.25, 5220798.65], [629211.25, 5220788.65], [629213.75, 5220782.65], [629216.25, 5220776.15], [629216.75, 5220774.65], [629217.75, 5220772.65], [629219.75, 5220767.65], [629221.25, 5220764.15], [629223.25, 5220759.15], [629224.75, 5220755.65], [629230.75, 5220740.65], [629232.25, 5220737.15], [629234.75, 5220730.65], [629234.75, 5220729.15], [629234.25, 5220728.65], [629230.25, 5220726.15], [629223.75, 5220722.65], [629220.75, 5220721.15], [629216.75, 5220718.65], [629213.75, 5220717.65], [629205.75, 5220712.65], [629200.75, 5220710.15], [629193.75, 5220704.15], [629192.25, 5220697.65], [629208.75, 5220609.15], [629211.25, 5220606.65], [629214.25, 5220594.65], [629216.25, 5220586.15], [629218.75, 5220569.65], [629218.25, 5220569.15], [629215.25, 5220569.65], [629218.25, 5220568.15], [629219.75, 5220566.65], [629220.75, 5220563.65], [629234.75, 5220497.15], [629234.75, 5220496.15], [629233.25, 5220494.65], [629232.75, 5220495.15], [629231.25, 5220496.15], [629225.75, 5220499.15], [629219.25, 5220502.65], [629208.25, 5220508.65], [629187.75, 5220519.65], [629181.25, 5220523.15], [629175.75, 5220526.15], [629170.75, 5220529.15], [629170.25, 5220529.65], [629170.75, 5220529.15], [629172.25, 5220528.15], [629178.75, 5220524.65], [629186.25, 5220520.65], [629192.75, 5220517.15], [629201.75, 5220512.15], [629207.25, 5220509.15], [629211.75, 5220506.65], [629218.25, 5220503.15], [629229.25, 5220497.15], [629232.25, 5220495.65], [629233.25, 5220494.65], [629234.75, 5220496.15], [629227.25, 5220542.15], [629228.25, 5220542.65], [629272.25, 5220517.65], [629397.75, 5220421.65], [629478.25, 5220368.65], [629500.25, 5220316.65], [629504.75, 5220250.65], [629504.7, 5220250.75]]}}]}