{"type": "FeatureCollection", "crs": {"type": "name", "properties": {"name": "urn:ogc:def:crs:EPSG::32635"}}, "features": [{"type": "Feature", "geometry": {"type": "Point", "coordinates": [629242.23, 5220943.03]}, "properties": {"type": "gap", "gap_m": 5.1, "vineyard_id": "V02", "row_id": "V02-R05", "reachable": true, "id": "T0001", "x": 629242.23, "y": 5220943.03, "order": null, "visited": false}}, {"type": "Feature", "geometry": {"type": "Point", "coordinates": [629226.75, 5220927.82]}, "properties": {"type": "gap", "gap_m": 5.6, "vineyard_id": "V02", "row_id": "V02-R14", "reachable": true, "id": "T0008", "x": 629226.75, "y": 5220927.82, "order": null, "visited": false}}, {"type": "Feature", "geometry": {"type": "Point", "coordinates": [629236.92, 5220903.74]}, "properties": {"type": "gap", "gap_m": 6.2, "vineyard_id": "V02", "row_id": "V02-R14", "reachable": true, "id": "T0010", "x": 629236.92, "y": 5220903.74, "order": null, "visited": false}}, {"type": "Feature", "geometry": {"type": "Point", "coordinates": [629224.0, 5220927.68]}, "properties": {"type": "gap", "gap_m": 6.5, "vineyard_id": "V02", "row_id": "V02-R16", "reachable": true, "id": "T0013", "x": 629224.0, "y": 5220927.68, "order": null, "visited": false}}, {"type": "Feature", "geometry": {"type": "Point", "coordinates": [629230.07, 5220913.02]}, "properties": {"type": "gap", "gap_m": 11.8, "vineyard_id": "V02", "row_id": "V02-R16", "reachable": true, "id": "T0015", "x": 629230.07, "y": 5220913.02, "order": null, "visited": false}}, {"type": "Feature", "geometry": {"type": "Point", "coordinates": [629220.85, 5220928.49]}, "properties": {"type": "gap", "gap_m": 5.5, "vineyard_id": "V02", "row_id": "V02-R18", "reachable": true, "id": "T0016", "x": 629220.85, "y": 5220928.49, "order": null, "visited": false}}, {"type": "Feature", "geometry": {"type": "Point", "coordinates": [629225.64, 5220917.14]}, "properties": {"type": "gap", "gap_m": 7.7, "vineyard_id": "V02", "row_id": "V02-R18", "reachable": true, "id": "T0017", "x": 629225.64, "y": 5220917.14, "order": null, "visited": false}}, {"type": "Feature", "geometry": {"type": "Point", "coordinates": [629234.94, 5220894.98]}, "properties": {"type": "gap", "gap_m": 9.2, "vineyard_id": "V02", "row_id": "V02-R18", "reachable": true, "id": "T0019", "x": 629234.94, "y": 5220894.98, "order": null, "visited": false}}, {"type": "Feature", "geometry": {"type": "Point", "coordinates": [629244.67, 5220871.82]}, "properties": {"type": "gap", "gap_m": 7.1, "vineyard_id": "V02", "row_id": "V02-R18", "reachable": true, "id": "T0021", "x": 629244.67, "y": 5220871.82, "order": null, "visited": false}}, {"type": "Feature", "geometry": {"type": "Point", "coordinates": [629224.63, 5220913.13]}, "properties": {"type": "gap", "gap_m": 7.5, "vineyard_id": "V02", "row_id": "V02-R19", "reachable": true, "id": "T0023", "x": 629224.63, "y": 5220913.13, "order": null, "visited": false}}, {"type": "Feature", "geometry": {"type": "Point", "coordinates": [629228.97, 5220902.85]}, "properties": {"type": "gap", "gap_m": 12.9, "vineyard_id": "V02", "row_id": "V02-R19", "reachable": true, "id": "T0024", "x": 629228.97, "y": 5220902.85, "order": null, "visited": false}}, {"type": "Feature", "geometry": {"type": "Point", "coordinates": [629241.44, 5220873.3]}, "properties": {"type": "gap", "gap_m": 12.9, "vineyard_id": "V02", "row_id": "V02-R19", "reachable": true, "id": "T0027", "x": 629241.44, "y": 5220873.3, "order": null, "visited": false}}, {"type": "Feature", "geometry": {"type": "Point", "coordinates": [629225.15, 5220905.64]}, "properties": {"type": "gap", "gap_m": 5.5, "vineyard_id": "V02", "row_id": "V02-R20", "reachable": true, "id": "T0030", "x": 629225.15, "y": 5220905.64, "order": null, "visited": false}}, {"type": "Feature", "geometry": {"type": "Point", "coordinates": [629213.06, 5220920.81]}, "properties": {"type": "gap", "gap_m": 5.3, "vineyard_id": "V02", "row_id": "V02-R22", "reachable": true, "id": "T0036", "x": 629213.06, "y": 5220920.81, "order": null, "visited": false}}, {"type": "Feature", "geometry": {"type": "Point", "coordinates": [629207.2, 5220921.64]}, "properties": {"type": "gap", "gap_m": 5.3, "vineyard_id": "V02", "row_id": "V02-R24", "reachable": true, "id": "T0043", "x": 629207.2, "y": 5220921.64, "order": null, "visited": false}}, {"type": "Feature", "geometry": {"type": "Point", "coordinates": [629250.45, 5220817.98]}, "properties": {"type": "gap", "gap_m": 14.6, "vineyard_id": "V02", "row_id": "V02-R24", "reachable": true, "id": "T0044", "x": 629250.45, "y": 5220817.98, "order": null, "visited": false}}, {"type": "Feature", "geometry": {"type": "Point", "coordinates": [629262.74, 5220787.78]}, "properties": {"type": "gap", "gap_m": 6.0, "vineyard_id": "V02", "row_id": "V02-R24", "reachable": true, "id": "T0045", "x": 629262.74, "y": 5220787.78, "order": null, "visited": false}}, {"type": "Feature", "geometry": {"type": "Point", "coordinates": [629229.8, 5220821.36]}, "properties": {"type": "gap", "gap_m": 5.9, "vineyard_id": "V02", "row_id": "V02-R32", "reachable": true, "id": "T0057", "x": 629229.8, "y": 5220821.36, "order": 29, "visited": true}}, {"type": "Feature", "geometry": {"type": "Point", "coordinates": [629240.72, 5220794.61]}, "properties": {"type": "gap", "gap_m": 5.4, "vineyard_id": "V02", "row_id": "V02-R32", "reachable": true, "id": "T0059", "x": 629240.72, "y": 5220794.61, "order": 30, "visited": true}}, {"type": "Feature", "geometry": {"type": "Point", "coordinates": [629192.95, 5220903.94]}, "properties": {"type": "gap", "gap_m": 6.0, "vineyard_id": "V02", "row_id": "V02-R33", "reachable": true, "id": "T0062", "x": 629192.95, "y": 5220903.94, "order": 33, "visited": true}}, {"type": "Feature", "geometry": {"type": "Point", "coordinates": [629196.18, 5220896.5]}, "properties": {"type": "gap", "gap_m": 8.5, "vineyard_id": "V02", "row_id": "V02-R33", "reachable": true, "id": "T0063", "x": 629196.18, "y": 5220896.5, "order": 31, "visited": true}}, {"type": "Feature", "geometry": {"type": "Point", "coordinates": [629211.96, 5220858.24]}, "properties": {"type": "gap", "gap_m": 7.2, "vineyard_id": "V02", "row_id": "V02-R33", "reachable": true, "id": "T0064", "x": 629211.96, "y": 5220858.24, "order": 32, "visited": true}}, {"type": "Feature", "geometry": {"type": "Point", "coordinates": [629190.13, 5220903.58]}, "properties": {"type": "gap", "gap_m": 5.3, "vineyard_id": "V02", "row_id": "V02-R34", "reachable": true, "id": "T0065", "x": 629190.13, "y": 5220903.58, "order": 34, "visited": true}}, {"type": "Feature", "geometry": {"type": "Point", "coordinates": [629205.63, 5220866.46]}, "properties": {"type": "gap", "gap_m": 8.4, "vineyard_id": "V02", "row_id": "V02-R34", "reachable": true, "id": "T0067", "x": 629205.63, "y": 5220866.46, "order": 35, "visited": true}}, {"type": "Feature", "geometry": {"type": "Point", "coordinates": [629243.76, 5220753.44]}, "properties": {"type": "gap", "gap_m": 5.1, "vineyard_id": "V02", "row_id": "V02-R37", "reachable": true, "id": "T0074", "x": 629243.76, "y": 5220753.44, "order": null, "visited": false}}, {"type": "Feature", "geometry": {"type": "Point", "coordinates": [629221.28, 5220781.73]}, "properties": {"type": "gap", "gap_m": 5.5, "vineyard_id": "V02", "row_id": "V02-R42", "reachable": true, "id": "T0083", "x": 629221.28, "y": 5220781.73, "order": 28, "visited": true}}, {"type": "Feature", "geometry": {"type": "Point", "coordinates": [629191.3, 5220848.23]}, "properties": {"type": "gap", "gap_m": 6.4, "vineyard_id": "V02", "row_id": "V02-R43", "reachable": true, "id": "T0084", "x": 629191.3, "y": 5220848.23, "order": 26, "visited": true}}, {"type": "Feature", "geometry": {"type": "Point", "coordinates": [629194.4, 5220840.76]}, "properties": {"type": "gap", "gap_m": 5.7, "vineyard_id": "V02", "row_id": "V02-R43", "reachable": true, "id": "T0085", "x": 629194.4, "y": 5220840.76, "order": 27, "visited": true}}, {"type": "Feature", "geometry": {"type": "Point", "coordinates": [629192.24, 5220839.49]}, "properties": {"type": "gap", "gap_m": 6.5, "vineyard_id": "V02", "row_id": "V02-R44", "reachable": true, "id": "T0088", "x": 629192.24, "y": 5220839.49, "order": 25, "visited": true}}, {"type": "Feature", "geometry": {"type": "Point", "coordinates": [629219.83, 5220771.81]}, "properties": {"type": "gap", "gap_m": 6.4, "vineyard_id": "V02", "row_id": "V02-R44", "reachable": true, "id": "T0089", "x": 629219.83, "y": 5220771.81, "order": 23, "visited": true}}, {"type": "Feature", "geometry": {"type": "Point", "coordinates": [629231.82, 5220742.04]}, "properties": {"type": "gap", "gap_m": 10.2, "vineyard_id": "V02", "row_id": "V02-R44", "reachable": true, "id": "T0090", "x": 629231.82, "y": 5220742.04, "order": 22, "visited": true}}, {"type": "Feature", "geometry": {"type": "Point", "coordinates": [629192.7, 5220831.69]}, "properties": {"type": "gap", "gap_m": 7.3, "vineyard_id": "V02", "row_id": "V02-R45", "reachable": true, "id": "T0092", "x": 629192.7, "y": 5220831.69, "order": 24, "visited": true}}, {"type": "Feature", "geometry": {"type": "Point", "coordinates": [629231.61, 5220735.8]}, "properties": {"type": "gap", "gap_m": 6.0, "vineyard_id": "V02", "row_id": "V02-R45", "reachable": true, "id": "T0100", "x": 629231.61, "y": 5220735.8, "order": 21, "visited": true}}, {"type": "Feature", "geometry": {"type": "Point", "coordinates": [629216.75, 5220759.36]}, "properties": {"type": "gap", "gap_m": 5.3, "vineyard_id": "V02", "row_id": "V02-R47", "reachable": true, "id": "T0103", "x": 629216.75, "y": 5220759.36, "order": 36, "visited": true}}, {"type": "Feature", "geometry": {"type": "Point", "coordinates": [629161.08, 5220887.06]}, "properties": {"type": "gap", "gap_m": 6.9, "vineyard_id": "V02", "row_id": "V02-R48", "reachable": true, "id": "T0104", "x": 629161.08, "y": 5220887.06, "order": 37, "visited": true}}, {"type": "Feature", "geometry": {"type": "Point", "coordinates": [629166.85, 5220873.48]}, "properties": {"type": "gap", "gap_m": 6.9, "vineyard_id": "V02", "row_id": "V02-R48", "reachable": true, "id": "T0105", "x": 629166.85, "y": 5220873.48, "order": 38, "visited": true}}, {"type": "Feature", "geometry": {"type": "Point", "coordinates": [629160.78, 5220880.73]}, "properties": {"type": "gap", "gap_m": 5.2, "vineyard_id": "V02", "row_id": "V02-R49", "reachable": true, "id": "T0107", "x": 629160.78, "y": 5220880.73, "order": null, "visited": true}}, {"type": "Feature", "geometry": {"type": "Point", "coordinates": [629169.25, 5220860.51]}, "properties": {"type": "gap", "gap_m": 13.6, "vineyard_id": "V02", "row_id": "V02-R49", "reachable": true, "id": "T0108", "x": 629169.25, "y": 5220860.51, "order": 39, "visited": true}}, {"type": "Feature", "geometry": {"type": "Point", "coordinates": [629203.93, 5220777.06]}, "properties": {"type": "gap", "gap_m": 5.7, "vineyard_id": "V02", "row_id": "V02-R49", "reachable": true, "id": "T0115", "x": 629203.93, "y": 5220777.06, "order": 40, "visited": true}}, {"type": "Feature", "geometry": {"type": "Point", "coordinates": [629214.18, 5220752.31]}, "properties": {"type": "gap", "gap_m": 6.6, "vineyard_id": "V02", "row_id": "V02-R49", "reachable": true, "id": "T0116", "x": 629214.18, "y": 5220752.31, "order": 20, "visited": true}}, {"type": "Feature", "geometry": {"type": "Point", "coordinates": [629211.02, 5220753.25]}, "properties": {"type": "gap", "gap_m": 5.1, "vineyard_id": "V02", "row_id": "V02-R50", "reachable": true, "id": "T0118", "x": 629211.02, "y": 5220753.25, "order": 41, "visited": true}}, {"type": "Feature", "geometry": {"type": "Point", "coordinates": [629156.42, 5220871.78]}, "properties": {"type": "gap", "gap_m": 6.6, "vineyard_id": "V02", "row_id": "V02-R52", "reachable": true, "id": "T0125", "x": 629156.42, "y": 5220871.78, "order": 15, "visited": true}}, {"type": "Feature", "geometry": {"type": "Point", "coordinates": [629160.29, 5220862.85]}, "properties": {"type": "gap", "gap_m": 5.2, "vineyard_id": "V02", "row_id": "V02-R52", "reachable": true, "id": "T0126", "x": 629160.29, "y": 5220862.85, "order": 16, "visited": true}}, {"type": "Feature", "geometry": {"type": "Point", "coordinates": [629169.35, 5220840.99]}, "properties": {"type": "gap", "gap_m": 9.6, "vineyard_id": "V02", "row_id": "V02-R52", "reachable": true, "id": "T0128", "x": 629169.35, "y": 5220840.99, "order": 17, "visited": true}}, {"type": "Feature", "geometry": {"type": "Point", "coordinates": [629196.28, 5220776.19]}, "properties": {"type": "gap", "gap_m": 5.5, "vineyard_id": "V02", "row_id": "V02-R52", "reachable": true, "id": "T0133", "x": 629196.28, "y": 5220776.19, "order": 18, "visited": true}}, {"type": "Feature", "geometry": {"type": "Point", "coordinates": [629177.31, 5220814.81]}, "properties": {"type": "gap", "gap_m": 5.7, "vineyard_id": "V02", "row_id": "V02-R53", "reachable": true, "id": "T0137", "x": 629177.31, "y": 5220814.81, "order": 10, "visited": true}}, {"type": "Feature", "geometry": {"type": "Point", "coordinates": [629183.85, 5220799.24]}, "properties": {"type": "gap", "gap_m": 5.5, "vineyard_id": "V02", "row_id": "V02-R53", "reachable": true, "id": "T0138", "x": 629183.85, "y": 5220799.24, "order": 9, "visited": true}}, {"type": "Feature", "geometry": {"type": "Point", "coordinates": [629193.96, 5220774.77]}, "properties": {"type": "gap", "gap_m": 5.8, "vineyard_id": "V02", "row_id": "V02-R53", "reachable": true, "id": "T0140", "x": 629193.96, "y": 5220774.77, "order": 8, "visited": true}}, {"type": "Feature", "geometry": {"type": "Point", "coordinates": [629198.82, 5220762.87]}, "properties": {"type": "gap", "gap_m": 5.6, "vineyard_id": "V02", "row_id": "V02-R53", "reachable": true, "id": "T0141", "x": 629198.82, "y": 5220762.87, "order": 19, "visited": true}}, {"type": "Feature", "geometry": {"type": "Point", "coordinates": [629160.92, 5220848.26]}, "properties": {"type": "gap", "gap_m": 16.1, "vineyard_id": "V02", "row_id": "V02-R54", "reachable": true, "id": "T0143", "x": 629160.92, "y": 5220848.26, "order": 12, "visited": true}}, {"type": "Feature", "geometry": {"type": "Point", "coordinates": [629148.78, 5220870.6]}, "properties": {"type": "gap", "gap_m": 11.2, "vineyard_id": "V02", "row_id": "V02-R55", "reachable": true, "id": "T0145", "x": 629148.78, "y": 5220870.6, "order": 14, "visited": true}}, {"type": "Feature", "geometry": {"type": "Point", "coordinates": [629152.51, 5220861.5]}, "properties": {"type": "gap", "gap_m": 7.4, "vineyard_id": "V02", "row_id": "V02-R55", "reachable": true, "id": "T0146", "x": 629152.51, "y": 5220861.5, "order": 13, "visited": true}}, {"type": "Feature", "geometry": {"type": "Point", "coordinates": [629163.93, 5220827.82]}, "properties": {"type": "gap", "gap_m": 5.6, "vineyard_id": "V02", "row_id": "V02-R56", "reachable": true, "id": "T0151", "x": 629163.93, "y": 5220827.82, "order": 11, "visited": true}}, {"type": "Feature", "geometry": {"type": "Point", "coordinates": [629197.15, 5220746.52]}, "properties": {"type": "gap", "gap_m": 5.1, "vineyard_id": "V02", "row_id": "V02-R56", "reachable": true, "id": "T0152", "x": 629197.15, "y": 5220746.52, "order": null, "visited": false}}, {"type": "Feature", "geometry": {"type": "Point", "coordinates": [629143.02, 5220870.75]}, "properties": {"type": "gap", "gap_m": 6.4, "vineyard_id": "V02", "row_id": "V02-R57", "reachable": true, "id": "T0153", "x": 629143.02, "y": 5220870.75, "order": null, "visited": false}}, {"type": "Feature", "geometry": {"type": "Point", "coordinates": [629192.75, 5220737.64]}, "properties": {"type": "gap", "gap_m": 5.5, "vineyard_id": "V02", "row_id": "V02-R60", "reachable": true, "id": "T0162", "x": 629192.75, "y": 5220737.64, "order": 42, "visited": true}}, {"type": "Feature", "geometry": {"type": "Point", "coordinates": [629143.03, 5220851.86]}, "properties": {"type": "gap", "gap_m": 9.0, "vineyard_id": "V02", "row_id": "V02-R61", "reachable": true, "id": "T0165", "x": 629143.03, "y": 5220851.86, "order": null, "visited": false}}, {"type": "Feature", "geometry": {"type": "Point", "coordinates": [629148.1, 5220833.11]}, "properties": {"type": "gap", "gap_m": 9.8, "vineyard_id": "V02", "row_id": "V02-R62", "reachable": true, "id": "T0172", "x": 629148.1, "y": 5220833.11, "order": null, "visited": false}}, {"type": "Feature", "geometry": {"type": "Point", "coordinates": [629146.39, 5220830.0]}, "properties": {"type": "gap", "gap_m": 5.5, "vineyard_id": "V02", "row_id": "V02-R63", "reachable": true, "id": "T0177", "x": 629146.39, "y": 5220830.0, "order": null, "visited": false}}, {"type": "Feature", "geometry": {"type": "Point", "coordinates": [629180.38, 5220747.6]}, "properties": {"type": "gap", "gap_m": 5.0, "vineyard_id": "V02", "row_id": "V02-R63", "reachable": true, "id": "T0179", "x": 629180.38, "y": 5220747.6, "order": null, "visited": true}}, {"type": "Feature", "geometry": {"type": "Point", "coordinates": [629128.15, 5220866.95]}, "properties": {"type": "gap", "gap_m": 6.3, "vineyard_id": "V02", "row_id": "V02-R64", "reachable": true, "id": "T0180", "x": 629128.15, "y": 5220866.95, "order": null, "visited": false}}, {"type": "Feature", "geometry": {"type": "Point", "coordinates": [629137.41, 5220843.85]}, "properties": {"type": "gap", "gap_m": 40.2, "vineyard_id": "V02", "row_id": "V02-R64", "reachable": true, "id": "T0181", "x": 629137.41, "y": 5220843.85, "order": null, "visited": false}}, {"type": "Feature", "geometry": {"type": "Point", "coordinates": [629136.28, 5220841.06]}, "properties": {"type": "gap", "gap_m": 6.1, "vineyard_id": "V02", "row_id": "V02-R65", "reachable": true, "id": "T0185", "x": 629136.28, "y": 5220841.06, "order": 43, "visited": true}}, {"type": "Feature", "geometry": {"type": "Point", "coordinates": [629133.54, 5220834.38]}, "properties": {"type": "gap", "gap_m": 5.4, "vineyard_id": "V02", "row_id": "V02-R68", "reachable": true, "id": "T0192", "x": 629133.54, "y": 5220834.38, "order": 44, "visited": true}}, {"type": "Feature", "geometry": {"type": "Point", "coordinates": [629121.11, 5220857.54]}, "properties": {"type": "gap", "gap_m": 5.1, "vineyard_id": "V02", "row_id": "V02-R69", "reachable": true, "id": "T0196", "x": 629121.11, "y": 5220857.54, "order": null, "visited": true}}, {"type": "Feature", "geometry": {"type": "Point", "coordinates": [629170.28, 5220738.49]}, "properties": {"type": "gap", "gap_m": 6.3, "vineyard_id": "V02", "row_id": "V02-R69", "reachable": true, "id": "T0200", "x": 629170.28, "y": 5220738.49, "order": null, "visited": false}}, {"type": "Feature", "geometry": {"type": "Point", "coordinates": [629139.29, 5220787.0]}, "properties": {"type": "gap", "gap_m": 9.8, "vineyard_id": "V02", "row_id": "V02-R73", "reachable": true, "id": "T0215", "x": 629139.29, "y": 5220787.0, "order": 45, "visited": true}}, {"type": "Feature", "geometry": {"type": "Point", "coordinates": [629129.95, 5220803.17]}, "properties": {"type": "gap", "gap_m": 9.4, "vineyard_id": "V02", "row_id": "V02-R74", "reachable": true, "id": "T0218", "x": 629129.95, "y": 5220803.17, "order": 46, "visited": true}}, {"type": "Feature", "geometry": {"type": "Point", "coordinates": [629146.56, 5220762.71]}, "properties": {"type": "gap", "gap_m": 5.7, "vineyard_id": "V02", "row_id": "V02-R74", "reachable": true, "id": "T0219", "x": 629146.56, "y": 5220762.71, "order": null, "visited": false}}, {"type": "Feature", "geometry": {"type": "Point", "coordinates": [629143.53, 5220756.61]}, "properties": {"type": "gap", "gap_m": 10.8, "vineyard_id": "V02", "row_id": "V02-R78", "reachable": true, "id": "T0221", "x": 629143.53, "y": 5220756.61, "order": null, "visited": false}}, {"type": "Feature", "geometry": {"type": "Point", "coordinates": [629113.28, 5220792.75]}, "properties": {"type": "gap", "gap_m": 15.1, "vineyard_id": "V04", "row_id": "V04-R01", "reachable": true, "id": "T0222", "x": 629113.28, "y": 5220792.75, "order": 47, "visited": true}}, {"type": "Feature", "geometry": {"type": "Point", "coordinates": [629127.93, 5220771.71]}, "properties": {"type": "gap", "gap_m": 13.5, "vineyard_id": "V04", "row_id": "V04-R01", "reachable": true, "id": "T0223", "x": 629127.93, "y": 5220771.71, "order": 48, "visited": true}}, {"type": "Feature", "geometry": {"type": "Point", "coordinates": [629109.62, 5220793.02]}, "properties": {"type": "gap", "gap_m": 12.1, "vineyard_id": "V04", "row_id": "V04-R02", "reachable": true, "id": "T0224", "x": 629109.62, "y": 5220793.02, "order": 49, "visited": true}}, {"type": "Feature", "geometry": {"type": "Point", "coordinates": [629129.7, 5220763.02]}, "properties": {"type": "gap", "gap_m": 24.1, "vineyard_id": "V04", "row_id": "V04-R02", "reachable": true, "id": "T0225", "x": 629129.7, "y": 5220763.02, "order": 50, "visited": true}}, {"type": "Feature", "geometry": {"type": "Point", "coordinates": [629139.79, 5220741.7]}, "properties": {"type": "gap", "gap_m": 11.9, "vineyard_id": "V04", "row_id": "V04-R04", "reachable": true, "id": "T0226", "x": 629139.79, "y": 5220741.7, "order": 51, "visited": true}}, {"type": "Feature", "geometry": {"type": "Point", "coordinates": [629101.01, 5220784.77]}, "properties": {"type": "gap", "gap_m": 5.1, "vineyard_id": "V04", "row_id": "V04-R09", "reachable": true, "id": "T0230", "x": 629101.01, "y": 5220784.77, "order": 52, "visited": true}}, {"type": "Feature", "geometry": {"type": "Point", "coordinates": [629101.5, 5220770.5]}, "properties": {"type": "gap", "gap_m": 10.7, "vineyard_id": "V04", "row_id": "V04-R13", "reachable": true, "id": "T0235", "x": 629101.5, "y": 5220770.5, "order": 54, "visited": true}}, {"type": "Feature", "geometry": {"type": "Point", "coordinates": [629098.19, 5220770.56]}, "properties": {"type": "gap", "gap_m": 10.4, "vineyard_id": "V04", "row_id": "V04-R14", "reachable": true, "id": "T0238", "x": 629098.19, "y": 5220770.56, "order": 53, "visited": true}}, {"type": "Feature", "geometry": {"type": "Point", "coordinates": [629143.74, 5220686.77]}, "properties": {"type": "gap", "gap_m": 6.0, "vineyard_id": "V04", "row_id": "V04-R18", "reachable": true, "id": "T0239", "x": 629143.74, "y": 5220686.77, "order": 55, "visited": true}}, {"type": "Feature", "geometry": {"type": "Point", "coordinates": [629110.15, 5220716.61]}, "properties": {"type": "gap", "gap_m": 5.7, "vineyard_id": "V04", "row_id": "V04-R22", "reachable": true, "id": "T0240", "x": 629110.15, "y": 5220716.61, "order": null, "visited": false}}, {"type": "Feature", "geometry": {"type": "Point", "coordinates": [629093.66, 5220709.07]}, "properties": {"type": "gap", "gap_m": 5.5, "vineyard_id": "V04", "row_id": "V04-R28", "reachable": true, "id": "T0246", "x": 629093.66, "y": 5220709.07, "order": null, "visited": false}}, {"type": "Feature", "geometry": {"type": "Point", "coordinates": [629085.65, 5220715.64]}, "properties": {"type": "gap", "gap_m": 5.7, "vineyard_id": "V04", "row_id": "V04-R29", "reachable": true, "id": "T0248", "x": 629085.65, "y": 5220715.64, "order": null, "visited": false}}, {"type": "Feature", "geometry": {"type": "Point", "coordinates": [629103.5, 5220688.35]}, "properties": {"type": "gap", "gap_m": 6.5, "vineyard_id": "V04", "row_id": "V04-R29", "reachable": true, "id": "T0249", "x": 629103.5, "y": 5220688.35, "order": null, "visited": false}}, {"type": "Feature", "geometry": {"type": "Point", "coordinates": [629101.19, 5220663.99]}, "properties": {"type": "gap", "gap_m": 5.2, "vineyard_id": "V04", "row_id": "V04-R34", "reachable": true, "id": "T0250", "x": 629101.19, "y": 5220663.99, "order": 59, "visited": true}}, {"type": "Feature", "geometry": {"type": "Point", "coordinates": [629097.9, 5220662.8]}, "properties": {"type": "gap", "gap_m": 5.4, "vineyard_id": "V04", "row_id": "V04-R35", "reachable": true, "id": "T0251", "x": 629097.9, "y": 5220662.8, "order": 56, "visited": true}}, {"type": "Feature", "geometry": {"type": "Point", "coordinates": [629021.16, 5220725.02]}, "properties": {"type": "gap", "gap_m": 6.4, "vineyard_id": "V04", "row_id": "V04-R46", "reachable": true, "id": "T0256", "x": 629021.16, "y": 5220725.02, "order": 57, "visited": true}}, {"type": "Feature", "geometry": {"type": "Point", "coordinates": [629040.04, 5220696.29]}, "properties": {"type": "gap", "gap_m": 17.3, "vineyard_id": "V04", "row_id": "V04-R46", "reachable": true, "id": "T0258", "x": 629040.04, "y": 5220696.29, "order": null, "visited": false}}, {"type": "Feature", "geometry": {"type": "Point", "coordinates": [629010.15, 5220720.03]}, "properties": {"type": "gap", "gap_m": 7.3, "vineyard_id": "V04", "row_id": "V04-R50", "reachable": true, "id": "T0267", "x": 629010.15, "y": 5220720.03, "order": 58, "visited": true}}, {"type": "Feature", "geometry": {"type": "Point", "coordinates": [629383.9, 5220630.62]}, "properties": {"type": "gap", "gap_m": 10.5, "vineyard_id": "V05", "row_id": "V05-R06", "reachable": true, "id": "T0270", "x": 629383.9, "y": 5220630.62, "order": null, "visited": false}}, {"type": "Feature", "geometry": {"type": "Point", "coordinates": [629389.97, 5220642.71]}, "properties": {"type": "gap", "gap_m": 8.8, "vineyard_id": "V05", "row_id": "V05-R07", "reachable": true, "id": "T0271", "x": 629389.97, "y": 5220642.71, "order": null, "visited": false}}, {"type": "Feature", "geometry": {"type": "Point", "coordinates": [629385.45, 5220628.11]}, "properties": {"type": "gap", "gap_m": 6.6, "vineyard_id": "V05", "row_id": "V05-R07", "reachable": true, "id": "T0272", "x": 629385.45, "y": 5220628.11, "order": null, "visited": false}}, {"type": "Feature", "geometry": {"type": "Point", "coordinates": [629166.1, 5220597.57]}, "properties": {"type": "gap", "gap_m": 5.4, "vineyard_id": "V06", "row_id": "V06-R12", "reachable": true, "id": "T0279", "x": 629166.1, "y": 5220597.57, "order": 7, "visited": true}}, {"type": "Feature", "geometry": {"type": "Point", "coordinates": [629214.91, 5220568.86]}, "properties": {"type": "gap", "gap_m": 5.8, "vineyard_id": "V06", "row_id": "V06-R13", "reachable": true, "id": "T0281", "x": 629214.91, "y": 5220568.86, "order": 6, "visited": true}}, {"type": "Feature", "geometry": {"type": "Point", "coordinates": [629163.64, 5220578.45]}, "properties": {"type": "gap", "gap_m": 5.5, "vineyard_id": "V06", "row_id": "V06-R20", "reachable": true, "id": "T0287", "x": 629163.64, "y": 5220578.45, "order": 5, "visited": true}}, {"type": "Feature", "geometry": {"type": "Point", "coordinates": [629177.43, 5220571.0]}, "properties": {"type": "gap", "gap_m": 5.0, "vineyard_id": "V06", "row_id": "V06-R20", "reachable": true, "id": "T0288", "x": 629177.43, "y": 5220571.0, "order": 4, "visited": true}}, {"type": "Feature", "geometry": {"type": "Point", "coordinates": [629461.78, 5220551.9]}, "properties": {"type": "gap", "gap_m": 7.7, "vineyard_id": "V08", "row_id": "V08-R02", "reachable": true, "id": "T0291", "x": 629461.78, "y": 5220551.9, "order": null, "visited": false}}, {"type": "Feature", "geometry": {"type": "Point", "coordinates": [629475.97, 5220546.52]}, "properties": {"type": "gap", "gap_m": 5.2, "vineyard_id": "V08", "row_id": "V08-R06", "reachable": true, "id": "T0300", "x": 629475.97, "y": 5220546.52, "order": null, "visited": false}}, {"type": "Feature", "geometry": {"type": "Point", "coordinates": [629487.18, 5220547.35]}, "properties": {"type": "gap", "gap_m": 8.9, "vineyard_id": "V08", "row_id": "V08-R07", "reachable": true, "id": "T0301", "x": 629487.18, "y": 5220547.35, "order": null, "visited": false}}, {"type": "Feature", "geometry": {"type": "Point", "coordinates": [629484.85, 5220544.26]}, "properties": {"type": "gap", "gap_m": 5.0, "vineyard_id": "V08", "row_id": "V08-R08", "reachable": true, "id": "T0303", "x": 629484.85, "y": 5220544.26, "order": null, "visited": false}}, {"type": "Feature", "geometry": {"type": "Point", "coordinates": [629478.34, 5220542.63]}, "properties": {"type": "gap", "gap_m": 7.7, "vineyard_id": "V08", "row_id": "V08-R08", "reachable": true, "id": "T0304", "x": 629478.34, "y": 5220542.63, "order": null, "visited": false}}, {"type": "Feature", "geometry": {"type": "Point", "coordinates": [629479.28, 5220535.94]}, "properties": {"type": "gap", "gap_m": 29.1, "vineyard_id": "V08", "row_id": "V08-R11", "reachable": true, "id": "T0307", "x": 629479.28, "y": 5220535.94, "order": null, "visited": false}}, {"type": "Feature", "geometry": {"type": "Point", "coordinates": [629481.2, 5220534.3]}, "properties": {"type": "gap", "gap_m": 30.8, "vineyard_id": "V08", "row_id": "V08-R12", "reachable": true, "id": "T0309", "x": 629481.2, "y": 5220534.3, "order": 60, "visited": true}}, {"type": "Feature", "geometry": {"type": "Point", "coordinates": [629479.3, 5220531.57]}, "properties": {"type": "gap", "gap_m": 25.8, "vineyard_id": "V08", "row_id": "V08-R13", "reachable": true, "id": "T0311", "x": 629479.3, "y": 5220531.57, "order": 61, "visited": true}}, {"type": "Feature", "geometry": {"type": "Point", "coordinates": [629479.26, 5220529.31]}, "properties": {"type": "gap", "gap_m": 27.2, "vineyard_id": "V08", "row_id": "V08-R14", "reachable": true, "id": "T0312", "x": 629479.26, "y": 5220529.31, "order": 63, "visited": true}}, {"type": "Feature", "geometry": {"type": "Point", "coordinates": [629481.43, 5220527.65]}, "properties": {"type": "gap", "gap_m": 13.6, "vineyard_id": "V08", "row_id": "V08-R15", "reachable": true, "id": "T0313", "x": 629481.43, "y": 5220527.65, "order": 62, "visited": true}}, {"type": "Feature", "geometry": {"type": "Point", "coordinates": [629471.02, 5220525.04]}, "properties": {"type": "gap", "gap_m": 7.0, "vineyard_id": "V08", "row_id": "V08-R15", "reachable": true, "id": "T0314", "x": 629471.02, "y": 5220525.04, "order": 64, "visited": true}}, {"type": "Feature", "geometry": {"type": "Point", "coordinates": [629164.3, 5220541.68]}, "properties": {"type": "gap", "gap_m": 6.8, "vineyard_id": "V09", "row_id": "V09-R03", "reachable": true, "id": "T0316", "x": 629164.3, "y": 5220541.68, "order": null, "visited": false}}, {"type": "Feature", "geometry": {"type": "Point", "coordinates": [629191.25, 5220527.11]}, "properties": {"type": "gap", "gap_m": 7.1, "vineyard_id": "V09", "row_id": "V09-R03", "reachable": true, "id": "T0319", "x": 629191.25, "y": 5220527.11, "order": null, "visited": false}}, {"type": "Feature", "geometry": {"type": "Point", "coordinates": [629197.03, 5220523.84]}, "properties": {"type": "gap", "gap_m": 5.1, "vineyard_id": "V09", "row_id": "V09-R03", "reachable": true, "id": "T0320", "x": 629197.03, "y": 5220523.84, "order": null, "visited": false}}, {"type": "Feature", "geometry": {"type": "Point", "coordinates": [629222.95, 5220509.76]}, "properties": {"type": "gap", "gap_m": 5.0, "vineyard_id": "V09", "row_id": "V09-R03", "reachable": true, "id": "T0321", "x": 629222.95, "y": 5220509.76, "order": null, "visited": false}}, {"type": "Feature", "geometry": {"type": "Point", "coordinates": [629172.97, 5220534.42]}, "properties": {"type": "gap", "gap_m": 5.6, "vineyard_id": "V09", "row_id": "V09-R04", "reachable": true, "id": "T0324", "x": 629172.97, "y": 5220534.42, "order": null, "visited": false}}, {"type": "Feature", "geometry": {"type": "Point", "coordinates": [629181.62, 5220529.77]}, "properties": {"type": "gap", "gap_m": 9.8, "vineyard_id": "V09", "row_id": "V09-R04", "reachable": true, "id": "T0325", "x": 629181.62, "y": 5220529.77, "order": null, "visited": false}}, {"type": "Feature", "geometry": {"type": "Point", "coordinates": [629170.6, 5220530.25]}, "properties": {"type": "gap", "gap_m": 12.6, "vineyard_id": "V09", "row_id": "V09-R10", "reachable": true, "id": "T0329", "x": 629170.6, "y": 5220530.25, "order": null, "visited": false}}, {"type": "Feature", "geometry": {"type": "Point", "coordinates": [629214.48, 5220490.9]}, "properties": {"type": "gap", "gap_m": 6.5, "vineyard_id": "V09", "row_id": "V09-R18", "reachable": true, "id": "T0337", "x": 629214.48, "y": 5220490.9, "order": 1, "visited": true}}, {"type": "Feature", "geometry": {"type": "Point", "coordinates": [629215.77, 5220487.37]}, "properties": {"type": "gap", "gap_m": 10.7, "vineyard_id": "V09", "row_id": "V09-R19", "reachable": true, "id": "T0340", "x": 629215.77, "y": 5220487.37, "order": 2, "visited": true}}, {"type": "Feature", "geometry": {"type": "Point", "coordinates": [629224.83, 5220482.42]}, "properties": {"type": "gap", "gap_m": 6.6, "vineyard_id": "V09", "row_id": "V09-R19", "reachable": true, "id": "T0341", "x": 629224.83, "y": 5220482.42, "order": 3, "visited": true}}, {"type": "Feature", "geometry": {"type": "Point", "coordinates": [629205.3, 5220477.99]}, "properties": {"type": "gap", "gap_m": 5.4, "vineyard_id": "V09", "row_id": "V09-R23", "reachable": true, "id": "T0346", "x": 629205.3, "y": 5220477.99, "order": null, "visited": false}}, {"type": "Feature", "geometry": {"type": "Point", "coordinates": [629216.62, 5220468.73]}, "properties": {"type": "gap", "gap_m": 6.0, "vineyard_id": "V09", "row_id": "V09-R24", "reachable": true, "id": "T0348", "x": 629216.62, "y": 5220468.73, "order": null, "visited": false}}, {"type": "Feature", "geometry": {"type": "Point", "coordinates": [629218.82, 5220464.65]}, "properties": {"type": "gap", "gap_m": 7.4, "vineyard_id": "V09", "row_id": "V09-R25", "reachable": true, "id": "T0350", "x": 629218.82, "y": 5220464.65, "order": null, "visited": false}}, {"type": "Feature", "geometry": {"type": "Point", "coordinates": [629485.79, 5220515.53]}, "properties": {"type": "gap", "gap_m": 6.1, "vineyard_id": "V10", "row_id": "V10-R01", "reachable": true, "id": "T0352", "x": 629485.79, "y": 5220515.53, "order": null, "visited": false}}, {"type": "Feature", "geometry": {"type": "Point", "coordinates": [629487.96, 5220511.37]}, "properties": {"type": "gap", "gap_m": 14.1, "vineyard_id": "V10", "row_id": "V10-R03", "reachable": true, "id": "T0354", "x": 629487.96, "y": 5220511.37, "order": 66, "visited": true}}, {"type": "Feature", "geometry": {"type": "Point", "coordinates": [629476.77, 5220508.51]}, "properties": {"type": "gap", "gap_m": 8.0, "vineyard_id": "V10", "row_id": "V10-R03", "reachable": true, "id": "T0355", "x": 629476.77, "y": 5220508.51, "order": 65, "visited": true}}, {"type": "Feature", "geometry": {"type": "Point", "coordinates": [629491.03, 5220508.47]}, "properties": {"type": "gap", "gap_m": 8.1, "vineyard_id": "V10", "row_id": "V10-R04", "reachable": true, "id": "T0356", "x": 629491.03, "y": 5220508.47, "order": null, "visited": false}}, {"type": "Feature", "geometry": {"type": "Point", "coordinates": [629614.35, 5220239.63]}, "properties": {"type": "gap", "gap_m": 5.2, "vineyard_id": "V12", "row_id": "V12-R21", "reachable": true, "id": "T0378", "x": 629614.35, "y": 5220239.63, "order": null, "visited": false}}, {"type": "Feature", "geometry": {"type": "Point", "coordinates": [629602.17, 5220210.27]}, "properties": {"type": "gap", "gap_m": 10.2, "vineyard_id": "V12", "row_id": "V12-R31", "reachable": true, "id": "T0386", "x": 629602.17, "y": 5220210.27, "order": null, "visited": false}}, {"type": "Feature", "geometry": {"type": "Point", "coordinates": [629597.68, 5220211.5]}, "properties": {"type": "gap", "gap_m": 19.4, "vineyard_id": "V12", "row_id": "V12-R32", "reachable": true, "id": "T0387", "x": 629597.68, "y": 5220211.5, "order": null, "visited": false}}, {"type": "Feature", "geometry": {"type": "Point", "coordinates": [629553.27, 5220251.76]}, "properties": {"type": "gap", "gap_m": 5.0, "vineyard_id": "V12", "row_id": "V12-R38", "reachable": true, "id": "T0390", "x": 629553.27, "y": 5220251.76, "order": null, "visited": false}}, {"type": "Feature", "geometry": {"type": "Point", "coordinates": [629561.22, 5220235.05]}, "properties": {"type": "gap", "gap_m": 9.4, "vineyard_id": "V12", "row_id": "V12-R41", "reachable": true, "id": "T0392", "x": 629561.22, "y": 5220235.05, "order": null, "visited": false}}, {"type": "Feature", "geometry": {"type": "Point", "coordinates": [629588.64, 5220191.98]}, "properties": {"type": "gap", "gap_m": 5.4, "vineyard_id": "V12", "row_id": "V12-R45", "reachable": true, "id": "T0400", "x": 629588.64, "y": 5220191.98, "order": null, "visited": false}}, {"type": "Feature", "geometry": {"type": "Point", "coordinates": [629573.69, 5220198.49]}, "properties": {"type": "gap", "gap_m": 5.4, "vineyard_id": "V12", "row_id": "V12-R48", "reachable": true, "id": "T0405", "x": 629573.69, "y": 5220198.49, "order": null, "visited": false}}, {"type": "Feature", "geometry": {"type": "Point", "coordinates": [629529.3, 5220248.04]}, "properties": {"type": "gap", "gap_m": 6.6, "vineyard_id": "V12", "row_id": "V12-R50", "reachable": true, "id": "T0408", "x": 629529.3, "y": 5220248.04, "order": null, "visited": false}}, {"type": "Feature", "geometry": {"type": "Point", "coordinates": [629555.24, 5220213.58]}, "properties": {"type": "gap", "gap_m": 5.6, "vineyard_id": "V12", "row_id": "V12-R50", "reachable": true, "id": "T0409", "x": 629555.24, "y": 5220213.58, "order": null, "visited": false}}, {"type": "Feature", "geometry": {"type": "Point", "coordinates": [629531.27, 5220240.88]}, "properties": {"type": "gap", "gap_m": 5.2, "vineyard_id": "V12", "row_id": "V12-R51", "reachable": true, "id": "T0411", "x": 629531.27, "y": 5220240.88, "order": 76, "visited": true}}, {"type": "Feature", "geometry": {"type": "Point", "coordinates": [629539.2, 5220230.33]}, "properties": {"type": "gap", "gap_m": 6.5, "vineyard_id": "V12", "row_id": "V12-R51", "reachable": true, "id": "T0412", "x": 629539.2, "y": 5220230.33, "order": 77, "visited": true}}, {"type": "Feature", "geometry": {"type": "Point", "coordinates": [629555.46, 5220208.19]}, "properties": {"type": "gap", "gap_m": 5.2, "vineyard_id": "V12", "row_id": "V12-R51", "reachable": true, "id": "T0417", "x": 629555.46, "y": 5220208.19, "order": 78, "visited": true}}, {"type": "Feature", "geometry": {"type": "Point", "coordinates": [629520.0, 5220246.58]}, "properties": {"type": "gap", "gap_m": 5.3, "vineyard_id": "V12", "row_id": "V12-R53", "reachable": true, "id": "T0421", "x": 629520.0, "y": 5220246.58, "order": 75, "visited": true}}, {"type": "Feature", "geometry": {"type": "Point", "coordinates": [629533.73, 5220228.36]}, "properties": {"type": "gap", "gap_m": 5.6, "vineyard_id": "V12", "row_id": "V12-R53", "reachable": true, "id": "T0424", "x": 629533.73, "y": 5220228.36, "order": 73, "visited": true}}, {"type": "Feature", "geometry": {"type": "Point", "coordinates": [629549.02, 5220208.08]}, "properties": {"type": "gap", "gap_m": 6.7, "vineyard_id": "V12", "row_id": "V12-R53", "reachable": true, "id": "T0425", "x": 629549.02, "y": 5220208.08, "order": 74, "visited": true}}, {"type": "Feature", "geometry": {"type": "Point", "coordinates": [629523.44, 5220237.53]}, "properties": {"type": "gap", "gap_m": 5.0, "vineyard_id": "V12", "row_id": "V12-R54", "reachable": true, "id": "T0427", "x": 629523.44, "y": 5220237.53, "order": null, "visited": true}}, {"type": "Feature", "geometry": {"type": "Point", "coordinates": [629530.16, 5220219.32]}, "properties": {"type": "gap", "gap_m": 8.7, "vineyard_id": "V12", "row_id": "V12-R56", "reachable": true, "id": "T0435", "x": 629530.16, "y": 5220219.32, "order": null, "visited": true}}, {"type": "Feature", "geometry": {"type": "Point", "coordinates": [629518.36, 5220229.79]}, "properties": {"type": "gap", "gap_m": 7.2, "vineyard_id": "V12", "row_id": "V12-R57", "reachable": true, "id": "T0437", "x": 629518.36, "y": 5220229.79, "order": null, "visited": true}}, {"type": "Feature", "geometry": {"type": "Point", "coordinates": [629523.7, 5220222.75]}, "properties": {"type": "gap", "gap_m": 8.8, "vineyard_id": "V12", "row_id": "V12-R57", "reachable": true, "id": "T0438", "x": 629523.7, "y": 5220222.75, "order": 116, "visited": true}}, {"type": "Feature", "geometry": {"type": "Point", "coordinates": [629535.22, 5220207.56]}, "properties": {"type": "gap", "gap_m": 8.4, "vineyard_id": "V12", "row_id": "V12-R57", "reachable": true, "id": "T0440", "x": 629535.22, "y": 5220207.56, "order": 117, "visited": true}}, {"type": "Feature", "geometry": {"type": "Point", "coordinates": [629509.85, 5220236.86]}, "properties": {"type": "gap", "gap_m": 14.4, "vineyard_id": "V12", "row_id": "V12-R58", "reachable": true, "id": "T0442", "x": 629509.85, "y": 5220236.86, "order": 118, "visited": true}}, {"type": "Feature", "geometry": {"type": "Point", "coordinates": [629537.81, 5220199.77]}, "properties": {"type": "gap", "gap_m": 5.0, "vineyard_id": "V12", "row_id": "V12-R58", "reachable": true, "id": "T0445", "x": 629537.81, "y": 5220199.77, "order": 111, "visited": true}}, {"type": "Feature", "geometry": {"type": "Point", "coordinates": [629509.64, 5220232.15]}, "properties": {"type": "gap", "gap_m": 15.9, "vineyard_id": "V13", "row_id": "V13-R01", "reachable": true, "id": "T0446", "x": 629509.64, "y": 5220232.15, "order": null, "visited": false}}, {"type": "Feature", "geometry": {"type": "Point", "coordinates": [629516.92, 5220222.49]}, "properties": {"type": "gap", "gap_m": 5.8, "vineyard_id": "V13", "row_id": "V13-R01", "reachable": true, "id": "T0447", "x": 629516.92, "y": 5220222.49, "order": 115, "visited": true}}, {"type": "Feature", "geometry": {"type": "Point", "coordinates": [629521.79, 5220216.02]}, "properties": {"type": "gap", "gap_m": 9.1, "vineyard_id": "V13", "row_id": "V13-R01", "reachable": true, "id": "T0448", "x": 629521.79, "y": 5220216.02, "order": 113, "visited": true}}, {"type": "Feature", "geometry": {"type": "Point", "coordinates": [629517.1, 5220218.06]}, "properties": {"type": "gap", "gap_m": 10.8, "vineyard_id": "V13", "row_id": "V13-R02", "reachable": true, "id": "T0450", "x": 629517.1, "y": 5220218.06, "order": 114, "visited": true}}, {"type": "Feature", "geometry": {"type": "Point", "coordinates": [629523.22, 5220209.94]}, "properties": {"type": "gap", "gap_m": 5.0, "vineyard_id": "V13", "row_id": "V13-R02", "reachable": true, "id": "T0451", "x": 629523.22, "y": 5220209.94, "order": 112, "visited": true}}, {"type": "Feature", "geometry": {"type": "Point", "coordinates": [629539.4, 5220188.5]}, "properties": {"type": "gap", "gap_m": 12.0, "vineyard_id": "V13", "row_id": "V13-R02", "reachable": true, "id": "T0453", "x": 629539.4, "y": 5220188.5, "order": null, "visited": false}}, {"type": "Feature", "geometry": {"type": "Point", "coordinates": [629507.24, 5220223.24]}, "properties": {"type": "gap", "gap_m": 6.2, "vineyard_id": "V13", "row_id": "V13-R04", "reachable": true, "id": "T0455", "x": 629507.24, "y": 5220223.24, "order": null, "visited": false}}, {"type": "Feature", "geometry": {"type": "Point", "coordinates": [629750.2, 5220161.93]}, "properties": {"type": "gap", "gap_m": 5.6, "vineyard_id": "V14", "row_id": "V14-R01", "reachable": true, "id": "T0457", "x": 629750.2, "y": 5220161.93, "order": 68, "visited": true}}, {"type": "Feature", "geometry": {"type": "Point", "coordinates": [629744.99, 5220160.81]}, "properties": {"type": "gap", "gap_m": 20.3, "vineyard_id": "V14", "row_id": "V14-R02", "reachable": true, "id": "T0458", "x": 629744.99, "y": 5220160.81, "order": null, "visited": false}}, {"type": "Feature", "geometry": {"type": "Point", "coordinates": [629735.66, 5220154.55]}, "properties": {"type": "gap", "gap_m": 6.5, "vineyard_id": "V14", "row_id": "V14-R06", "reachable": true, "id": "T0459", "x": 629735.66, "y": 5220154.55, "order": 67, "visited": true}}, {"type": "Feature", "geometry": {"type": "Point", "coordinates": [629748.47, 5220119.41]}, "properties": {"type": "gap", "gap_m": 5.3, "vineyard_id": "V14", "row_id": "V14-R10", "reachable": true, "id": "T0461", "x": 629748.47, "y": 5220119.41, "order": 69, "visited": true}}, {"type": "Feature", "geometry": {"type": "Point", "coordinates": [629675.24, 5220186.69]}, "properties": {"type": "gap", "gap_m": 19.7, "vineyard_id": "V14", "row_id": "V14-R16", "reachable": true, "id": "T0464", "x": 629675.24, "y": 5220186.69, "order": 72, "visited": true}}, {"type": "Feature", "geometry": {"type": "Point", "coordinates": [629680.42, 5220175.79]}, "properties": {"type": "gap", "gap_m": 10.9, "vineyard_id": "V14", "row_id": "V14-R17", "reachable": true, "id": "T0467", "x": 629680.42, "y": 5220175.79, "order": 71, "visited": true}}, {"type": "Feature", "geometry": {"type": "Point", "coordinates": [629693.55, 5220158.67]}, "properties": {"type": "gap", "gap_m": 8.4, "vineyard_id": "V14", "row_id": "V14-R17", "reachable": true, "id": "T0468", "x": 629693.55, "y": 5220158.67, "order": 70, "visited": true}}, {"type": "Feature", "geometry": {"type": "Point", "coordinates": [629679.64, 5220172.9]}, "properties": {"type": "gap", "gap_m": 13.1, "vineyard_id": "V14", "row_id": "V14-R18", "reachable": true, "id": "T0473", "x": 629679.64, "y": 5220172.9, "order": null, "visited": false}}, {"type": "Feature", "geometry": {"type": "Point", "coordinates": [629679.45, 5220140.94]}, "properties": {"type": "gap", "gap_m": 5.3, "vineyard_id": "V14", "row_id": "V14-R26", "reachable": true, "id": "T0479", "x": 629679.45, "y": 5220140.94, "order": null, "visited": false}}, {"type": "Feature", "geometry": {"type": "Point", "coordinates": [629640.05, 5220124.32]}, "properties": {"type": "gap", "gap_m": 58.0, "vineyard_id": "V14", "row_id": "V14-R42", "reachable": true, "id": "T0483", "x": 629640.05, "y": 5220124.32, "order": 79, "visited": true}}, {"type": "Feature", "geometry": {"type": "Point", "coordinates": [629619.47, 5220124.84]}, "properties": {"type": "gap", "gap_m": 7.6, "vineyard_id": "V14", "row_id": "V14-R48", "reachable": true, "id": "T0485", "x": 629619.47, "y": 5220124.84, "order": 80, "visited": true}}, {"type": "Feature", "geometry": {"type": "Point", "coordinates": [629588.25, 5220132.56]}, "properties": {"type": "gap", "gap_m": 6.3, "vineyard_id": "V14", "row_id": "V14-R55", "reachable": true, "id": "T0493", "x": 629588.25, "y": 5220132.56, "order": 109, "visited": true}}, {"type": "Feature", "geometry": {"type": "Point", "coordinates": [629560.32, 5220164.96]}, "properties": {"type": "gap", "gap_m": 5.9, "vineyard_id": "V14", "row_id": "V14-R56", "reachable": true, "id": "T0494", "x": 629560.32, "y": 5220164.96, "order": 110, "visited": true}}, {"type": "Feature", "geometry": {"type": "Point", "coordinates": [629885.11, 5219971.46]}, "properties": {"type": "gap", "gap_m": 10.9, "vineyard_id": "V16", "row_id": "V16-R01", "reachable": true, "id": "T0498", "x": 629885.11, "y": 5219971.46, "order": null, "visited": false}}, {"type": "Feature", "geometry": {"type": "Point", "coordinates": [629872.31, 5219983.16]}, "properties": {"type": "gap", "gap_m": 6.0, "vineyard_id": "V16", "row_id": "V16-R03", "reachable": true, "id": "T0501", "x": 629872.31, "y": 5219983.16, "order": null, "visited": false}}, {"type": "Feature", "geometry": {"type": "Point", "coordinates": [629885.42, 5219965.72]}, "properties": {"type": "gap", "gap_m": 8.3, "vineyard_id": "V16", "row_id": "V16-R03", "reachable": true, "id": "T0503", "x": 629885.42, "y": 5219965.72, "order": null, "visited": false}}, {"type": "Feature", "geometry": {"type": "Point", "coordinates": [629850.34, 5219996.15]}, "properties": {"type": "gap", "gap_m": 17.8, "vineyard_id": "V16", "row_id": "V16-R05", "reachable": true, "id": "T0512", "x": 629850.34, "y": 5219996.15, "order": null, "visited": false}}, {"type": "Feature", "geometry": {"type": "Point", "coordinates": [629858.84, 5219985.24]}, "properties": {"type": "gap", "gap_m": 8.5, "vineyard_id": "V16", "row_id": "V16-R05", "reachable": true, "id": "T0513", "x": 629858.84, "y": 5219985.24, "order": null, "visited": false}}, {"type": "Feature", "geometry": {"type": "Point", "coordinates": [629864.01, 5219978.84]}, "properties": {"type": "gap", "gap_m": 6.5, "vineyard_id": "V16", "row_id": "V16-R05", "reachable": true, "id": "T0514", "x": 629864.01, "y": 5219978.84, "order": null, "visited": false}}, {"type": "Feature", "geometry": {"type": "Point", "coordinates": [629870.8, 5219969.88]}, "properties": {"type": "gap", "gap_m": 14.3, "vineyard_id": "V16", "row_id": "V16-R05", "reachable": true, "id": "T0515", "x": 629870.8, "y": 5219969.88, "order": null, "visited": false}}, {"type": "Feature", "geometry": {"type": "Point", "coordinates": [629880.72, 5219956.79]}, "properties": {"type": "gap", "gap_m": 9.0, "vineyard_id": "V16", "row_id": "V16-R05", "reachable": true, "id": "T0516", "x": 629880.72, "y": 5219956.79, "order": null, "visited": false}}, {"type": "Feature", "geometry": {"type": "Point", "coordinates": [629814.06, 5220039.46]}, "properties": {"type": "gap", "gap_m": 8.5, "vineyard_id": "V16", "row_id": "V16-R06", "reachable": true, "id": "T0517", "x": 629814.06, "y": 5220039.46, "order": null, "visited": false}}, {"type": "Feature", "geometry": {"type": "Point", "coordinates": [629815.1, 5220032.41]}, "properties": {"type": "gap", "gap_m": 5.1, "vineyard_id": "V16", "row_id": "V16-R11", "reachable": true, "id": "T0519", "x": 629815.1, "y": 5220032.41, "order": null, "visited": false}}, {"type": "Feature", "geometry": {"type": "Point", "coordinates": [629909.17, 5219885.96]}, "properties": {"type": "gap", "gap_m": 6.5, "vineyard_id": "V16", "row_id": "V16-R23", "reachable": true, "id": "T0527", "x": 629909.17, "y": 5219885.96, "order": null, "visited": false}}, {"type": "Feature", "geometry": {"type": "Point", "coordinates": [629915.31, 5219877.87]}, "properties": {"type": "gap", "gap_m": 12.1, "vineyard_id": "V16", "row_id": "V16-R23", "reachable": true, "id": "T0528", "x": 629915.31, "y": 5219877.87, "order": null, "visited": false}}, {"type": "Feature", "geometry": {"type": "Point", "coordinates": [629867.08, 5219939.97]}, "properties": {"type": "gap", "gap_m": 10.2, "vineyard_id": "V16", "row_id": "V16-R24", "reachable": true, "id": "T0530", "x": 629867.08, "y": 5219939.97, "order": null, "visited": false}}, {"type": "Feature", "geometry": {"type": "Point", "coordinates": [629871.13, 5219934.53]}, "properties": {"type": "gap", "gap_m": 5.5, "vineyard_id": "V16", "row_id": "V16-R25", "reachable": true, "id": "T0531", "x": 629871.13, "y": 5219934.53, "order": null, "visited": false}}, {"type": "Feature", "geometry": {"type": "Point", "coordinates": [629888.5, 5219907.41]}, "properties": {"type": "gap", "gap_m": 6.0, "vineyard_id": "V16", "row_id": "V16-R26", "reachable": true, "id": "T0534", "x": 629888.5, "y": 5219907.41, "order": null, "visited": false}}, {"type": "Feature", "geometry": {"type": "Point", "coordinates": [629895.24, 5219898.62]}, "properties": {"type": "gap", "gap_m": 11.9, "vineyard_id": "V16", "row_id": "V16-R26", "reachable": true, "id": "T0535", "x": 629895.24, "y": 5219898.62, "order": null, "visited": false}}, {"type": "Feature", "geometry": {"type": "Point", "coordinates": [629910.5, 5219879.61]}, "properties": {"type": "gap", "gap_m": 23.4, "vineyard_id": "V16", "row_id": "V16-R26", "reachable": true, "id": "T0536", "x": 629910.5, "y": 5219879.61, "order": null, "visited": false}}, {"type": "Feature", "geometry": {"type": "Point", "coordinates": [629867.29, 5219924.83]}, "properties": {"type": "gap", "gap_m": 11.8, "vineyard_id": "V16", "row_id": "V16-R31", "reachable": true, "id": "T0545", "x": 629867.29, "y": 5219924.83, "order": null, "visited": false}}, {"type": "Feature", "geometry": {"type": "Point", "coordinates": [629875.88, 5219913.82]}, "properties": {"type": "gap", "gap_m": 8.0, "vineyard_id": "V16", "row_id": "V16-R31", "reachable": true, "id": "T0546", "x": 629875.88, "y": 5219913.82, "order": null, "visited": false}}, {"type": "Feature", "geometry": {"type": "Point", "coordinates": [629887.88, 5219893.95]}, "properties": {"type": "gap", "gap_m": 5.9, "vineyard_id": "V16", "row_id": "V16-R34", "reachable": true, "id": "T0555", "x": 629887.88, "y": 5219893.95, "order": null, "visited": false}}, {"type": "Feature", "geometry": {"type": "Point", "coordinates": [629789.78, 5220022.33]}, "properties": {"type": "gap", "gap_m": 11.5, "vineyard_id": "V16", "row_id": "V16-R35", "reachable": true, "id": "T0557", "x": 629789.78, "y": 5220022.33, "order": null, "visited": false}}, {"type": "Feature", "geometry": {"type": "Point", "coordinates": [629834.24, 5219954.17]}, "properties": {"type": "gap", "gap_m": 6.7, "vineyard_id": "V16", "row_id": "V16-R40", "reachable": true, "id": "T0562", "x": 629834.24, "y": 5219954.17, "order": null, "visited": false}}, {"type": "Feature", "geometry": {"type": "Point", "coordinates": [629838.81, 5219948.29]}, "properties": {"type": "gap", "gap_m": 6.9, "vineyard_id": "V16", "row_id": "V16-R40", "reachable": true, "id": "T0563", "x": 629838.81, "y": 5219948.29, "order": null, "visited": false}}, {"type": "Feature", "geometry": {"type": "Point", "coordinates": [629781.18, 5220021.1]}, "properties": {"type": "gap", "gap_m": 9.2, "vineyard_id": "V16", "row_id": "V16-R41", "reachable": true, "id": "T0565", "x": 629781.18, "y": 5220021.1, "order": 85, "visited": true}}, {"type": "Feature", "geometry": {"type": "Point", "coordinates": [629788.88, 5220010.64]}, "properties": {"type": "gap", "gap_m": 7.1, "vineyard_id": "V16", "row_id": "V16-R41", "reachable": true, "id": "T0566", "x": 629788.88, "y": 5220010.64, "order": 86, "visited": true}}, {"type": "Feature", "geometry": {"type": "Point", "coordinates": [629794.58, 5220002.91]}, "properties": {"type": "gap", "gap_m": 8.1, "vineyard_id": "V16", "row_id": "V16-R41", "reachable": true, "id": "T0567", "x": 629794.58, "y": 5220002.91, "order": null, "visited": false}}, {"type": "Feature", "geometry": {"type": "Point", "coordinates": [629778.14, 5220020.75]}, "properties": {"type": "gap", "gap_m": 7.7, "vineyard_id": "V16", "row_id": "V16-R42", "reachable": true, "id": "T0568", "x": 629778.14, "y": 5220020.75, "order": 84, "visited": true}}, {"type": "Feature", "geometry": {"type": "Point", "coordinates": [629779.0, 5220014.86]}, "properties": {"type": "gap", "gap_m": 19.6, "vineyard_id": "V16", "row_id": "V16-R43", "reachable": true, "id": "T0571", "x": 629779.0, "y": 5220014.86, "order": 87, "visited": true}}, {"type": "Feature", "geometry": {"type": "Point", "coordinates": [629775.77, 5220014.08]}, "properties": {"type": "gap", "gap_m": 23.2, "vineyard_id": "V16", "row_id": "V16-R45", "reachable": true, "id": "T0572", "x": 629775.77, "y": 5220014.08, "order": 108, "visited": true}}, {"type": "Feature", "geometry": {"type": "Point", "coordinates": [629769.35, 5220017.72]}, "properties": {"type": "gap", "gap_m": 9.7, "vineyard_id": "V16", "row_id": "V16-R46", "reachable": true, "id": "T0573", "x": 629769.35, "y": 5220017.72, "order": 83, "visited": true}}, {"type": "Feature", "geometry": {"type": "Point", "coordinates": [629730.14, 5220028.34]}, "properties": {"type": "gap", "gap_m": 5.9, "vineyard_id": "V16", "row_id": "V16-R55", "reachable": true, "id": "T0575", "x": 629730.14, "y": 5220028.34, "order": null, "visited": false}}, {"type": "Feature", "geometry": {"type": "Point", "coordinates": [629698.46, 5220054.64]}, "properties": {"type": "gap", "gap_m": 5.3, "vineyard_id": "V16", "row_id": "V16-R59", "reachable": true, "id": "T0576", "x": 629698.46, "y": 5220054.64, "order": null, "visited": false}}, {"type": "Feature", "geometry": {"type": "Point", "coordinates": [629694.74, 5220048.38]}, "properties": {"type": "gap", "gap_m": 7.0, "vineyard_id": "V16", "row_id": "V16-R61", "reachable": true, "id": "T0577", "x": 629694.74, "y": 5220048.38, "order": 82, "visited": true}}, {"type": "Feature", "geometry": {"type": "Point", "coordinates": [629692.07, 5220047.82]}, "properties": {"type": "gap", "gap_m": 6.7, "vineyard_id": "V16", "row_id": "V16-R62", "reachable": true, "id": "T0578", "x": 629692.07, "y": 5220047.82, "order": 81, "visited": true}}, {"type": "Feature", "geometry": {"type": "Point", "coordinates": [629983.36, 5219758.43]}, "properties": {"type": "gap", "gap_m": 16.8, "vineyard_id": "V17", "row_id": "V17-R02", "reachable": true, "id": "T0584", "x": 629983.36, "y": 5219758.43, "order": null, "visited": false}}, {"type": "Feature", "geometry": {"type": "Point", "coordinates": [629931.25, 5219821.6]}, "properties": {"type": "gap", "gap_m": 6.1, "vineyard_id": "V17", "row_id": "V17-R03", "reachable": true, "id": "T0585", "x": 629931.25, "y": 5219821.6, "order": 107, "visited": true}}, {"type": "Feature", "geometry": {"type": "Point", "coordinates": [629950.65, 5219797.02]}, "properties": {"type": "gap", "gap_m": 10.7, "vineyard_id": "V17", "row_id": "V17-R03", "reachable": true, "id": "T0588", "x": 629950.65, "y": 5219797.02, "order": null, "visited": false}}, {"type": "Feature", "geometry": {"type": "Point", "coordinates": [630027.91, 5219778.32]}, "properties": {"type": "gap", "gap_m": 5.7, "vineyard_id": "V19", "row_id": "V19-R01", "reachable": true, "id": "T0591", "x": 630027.91, "y": 5219778.32, "order": null, "visited": false}}, {"type": "Feature", "geometry": {"type": "Point", "coordinates": [630024.07, 5219769.87]}, "properties": {"type": "gap", "gap_m": 12.9, "vineyard_id": "V19", "row_id": "V19-R03", "reachable": true, "id": "T0597", "x": 630024.07, "y": 5219769.87, "order": null, "visited": false}}, {"type": "Feature", "geometry": {"type": "Point", "coordinates": [630021.65, 5219767.32]}, "properties": {"type": "gap", "gap_m": 10.6, "vineyard_id": "V19", "row_id": "V19-R04", "reachable": true, "id": "T0601", "x": 630021.65, "y": 5219767.32, "order": null, "visited": false}}, {"type": "Feature", "geometry": {"type": "Point", "coordinates": [630064.47, 5219757.7]}, "properties": {"type": "gap", "gap_m": 6.1, "vineyard_id": "V20", "row_id": "V20-R01", "reachable": true, "id": "T0616", "x": 630064.47, "y": 5219757.7, "order": null, "visited": false}}, {"type": "Feature", "geometry": {"type": "Point", "coordinates": [630066.37, 5219748.34]}, "properties": {"type": "gap", "gap_m": 10.6, "vineyard_id": "V20", "row_id": "V20-R03", "reachable": true, "id": "T0617", "x": 630066.37, "y": 5219748.34, "order": null, "visited": false}}, {"type": "Feature", "geometry": {"type": "Point", "coordinates": [629950.4, 5219666.09]}, "properties": {"type": "gap", "gap_m": 6.9, "vineyard_id": "V24", "row_id": "V24-R04", "reachable": true, "id": "T0624", "x": 629950.4, "y": 5219666.09, "order": null, "visited": false}}, {"type": "Feature", "geometry": {"type": "Point", "coordinates": [630094.29, 5219657.18]}, "properties": {"type": "gap", "gap_m": 6.5, "vineyard_id": "V25", "row_id": "V25-R04", "reachable": true, "id": "T0630", "x": 630094.29, "y": 5219657.18, "order": null, "visited": false}}, {"type": "Feature", "geometry": {"type": "Point", "coordinates": [629875.51, 5219653.5]}, "properties": {"type": "gap", "gap_m": 5.3, "vineyard_id": "V26", "row_id": "V26-R02", "reachable": true, "id": "T0631", "x": 629875.51, "y": 5219653.5, "order": null, "visited": false}}, {"type": "Feature", "geometry": {"type": "Point", "coordinates": [629868.2, 5219642.05]}, "properties": {"type": "gap", "gap_m": 5.5, "vineyard_id": "V26", "row_id": "V26-R03", "reachable": true, "id": "T0633", "x": 629868.2, "y": 5219642.05, "order": null, "visited": false}}, {"type": "Feature", "geometry": {"type": "Point", "coordinates": [629907.18, 5219625.84]}, "properties": {"type": "gap", "gap_m": 10.1, "vineyard_id": "V27", "row_id": "V27-R03", "reachable": true, "id": "T0638", "x": 629907.18, "y": 5219625.84, "order": null, "visited": false}}, {"type": "Feature", "geometry": {"type": "Point", "coordinates": [629995.69, 5219624.7]}, "properties": {"type": "gap", "gap_m": 5.5, "vineyard_id": "V28", "row_id": "V28-R04", "reachable": true, "id": "T0644", "x": 629995.69, "y": 5219624.7, "order": null, "visited": false}}, {"type": "Feature", "geometry": {"type": "Point", "coordinates": [630010.44, 5219630.05]}, "properties": {"type": "gap", "gap_m": 6.8, "vineyard_id": "V28", "row_id": "V28-R07", "reachable": true, "id": "T0649", "x": 630010.44, "y": 5219630.05, "order": null, "visited": false}}, {"type": "Feature", "geometry": {"type": "Point", "coordinates": [630022.53, 5219629.29]}, "properties": {"type": "gap", "gap_m": 5.8, "vineyard_id": "V28", "row_id": "V28-R11", "reachable": true, "id": "T0651", "x": 630022.53, "y": 5219629.29, "order": null, "visited": false}}, {"type": "Feature", "geometry": {"type": "Point", "coordinates": [630022.77, 5219626.4]}, "properties": {"type": "gap", "gap_m": 9.7, "vineyard_id": "V28", "row_id": "V28-R12", "reachable": true, "id": "T0653", "x": 630022.77, "y": 5219626.4, "order": null, "visited": false}}, {"type": "Feature", "geometry": {"type": "Point", "coordinates": [630055.43, 5219592.49]}, "properties": {"type": "gap", "gap_m": 6.1, "vineyard_id": "V29", "row_id": "V29-R04", "reachable": true, "id": "T0654", "x": 630055.43, "y": 5219592.49, "order": null, "visited": false}}, {"type": "Feature", "geometry": {"type": "Point", "coordinates": [630058.75, 5219588.97]}, "properties": {"type": "gap", "gap_m": 7.3, "vineyard_id": "V29", "row_id": "V29-R06", "reachable": true, "id": "T0655", "x": 630058.75, "y": 5219588.97, "order": null, "visited": false}}, {"type": "Feature", "geometry": {"type": "Point", "coordinates": [630064.82, 5219593.23]}, "properties": {"type": "gap", "gap_m": 6.4, "vineyard_id": "V29", "row_id": "V29-R07", "reachable": true, "id": "T0656", "x": 630064.82, "y": 5219593.23, "order": null, "visited": false}}, {"type": "Feature", "geometry": {"type": "Point", "coordinates": [630094.78, 5219565.64]}, "properties": {"type": "gap", "gap_m": 5.7, "vineyard_id": "V31", "row_id": "V31-R08", "reachable": true, "id": "T0664", "x": 630094.78, "y": 5219565.64, "order": null, "visited": false}}, {"type": "Feature", "geometry": {"type": "Point", "coordinates": [630088.96, 5219549.89]}, "properties": {"type": "gap", "gap_m": 5.9, "vineyard_id": "V31", "row_id": "V31-R10", "reachable": true, "id": "T0666", "x": 630088.96, "y": 5219549.89, "order": null, "visited": false}}, {"type": "Feature", "geometry": {"type": "Point", "coordinates": [630114.85, 5219565.57]}, "properties": {"type": "gap", "gap_m": 5.1, "vineyard_id": "V33", "row_id": "V33-R02", "reachable": true, "id": "T0668", "x": 630114.85, "y": 5219565.57, "order": null, "visited": false}}, {"type": "Feature", "geometry": {"type": "Point", "coordinates": [630108.43, 5219519.12]}, "properties": {"type": "gap", "gap_m": 5.2, "vineyard_id": "V33", "row_id": "V33-R11", "reachable": true, "id": "T0670", "x": 630108.43, "y": 5219519.12, "order": null, "visited": false}}, {"type": "Feature", "geometry": {"type": "Point", "coordinates": [630122.14, 5219533.53]}, "properties": {"type": "gap", "gap_m": 7.2, "vineyard_id": "V33", "row_id": "V33-R12", "reachable": true, "id": "T0671", "x": 630122.14, "y": 5219533.53, "order": null, "visited": false}}, {"type": "Feature", "geometry": {"type": "Point", "coordinates": [630131.28, 5219524.61]}, "properties": {"type": "gap", "gap_m": 5.3, "vineyard_id": "V33", "row_id": "V33-R16", "reachable": true, "id": "T0678", "x": 630131.28, "y": 5219524.61, "order": null, "visited": false}}, {"type": "Feature", "geometry": {"type": "Point", "coordinates": [630147.56, 5219539.92]}, "properties": {"type": "gap", "gap_m": 5.5, "vineyard_id": "V33", "row_id": "V33-R17", "reachable": true, "id": "T0679", "x": 630147.56, "y": 5219539.92, "order": null, "visited": false}}, {"type": "Feature", "geometry": {"type": "Point", "coordinates": [630132.45, 5219521.14]}, "properties": {"type": "gap", "gap_m": 5.0, "vineyard_id": "V33", "row_id": "V33-R17", "reachable": true, "id": "T0680", "x": 630132.45, "y": 5219521.14, "order": null, "visited": false}}, {"type": "Feature", "geometry": {"type": "Point", "coordinates": [630137.41, 5219522.44]}, "properties": {"type": "gap", "gap_m": 13.7, "vineyard_id": "V33", "row_id": "V33-R18", "reachable": true, "id": "T0682", "x": 630137.41, "y": 5219522.44, "order": null, "visited": false}}, {"type": "Feature", "geometry": {"type": "Point", "coordinates": [630130.5, 5219513.84]}, "properties": {"type": "gap", "gap_m": 7.1, "vineyard_id": "V33", "row_id": "V33-R18", "reachable": true, "id": "T0683", "x": 630130.5, "y": 5219513.84, "order": null, "visited": false}}, {"type": "Feature", "geometry": {"type": "Point", "coordinates": [630152.73, 5219497.13]}, "properties": {"type": "gap", "gap_m": 10.1, "vineyard_id": "V33", "row_id": "V33-R31", "reachable": true, "id": "T0698", "x": 630152.73, "y": 5219497.13, "order": null, "visited": false}}, {"type": "Feature", "geometry": {"type": "Point", "coordinates": [630135.65, 5219422.31]}, "properties": {"type": "gap", "gap_m": 10.3, "vineyard_id": "V36", "row_id": "V36-R03", "reachable": true, "id": "T0703", "x": 630135.65, "y": 5219422.31, "order": null, "visited": false}}, {"type": "Feature", "geometry": {"type": "Point", "coordinates": [630130.01, 5219411.87]}, "properties": {"type": "gap", "gap_m": 6.4, "vineyard_id": "V36", "row_id": "V36-R04", "reachable": true, "id": "T0709", "x": 630130.01, "y": 5219411.87, "order": null, "visited": false}}, {"type": "Feature", "geometry": {"type": "Point", "coordinates": [630122.17, 5219401.97]}, "properties": {"type": "gap", "gap_m": 16.7, "vineyard_id": "V36", "row_id": "V36-R04", "reachable": true, "id": "T0710", "x": 630122.17, "y": 5219401.97, "order": null, "visited": false}}, {"type": "Feature", "geometry": {"type": "Point", "coordinates": [630112.26, 5219389.18]}, "properties": {"type": "gap", "gap_m": 9.0, "vineyard_id": "V36", "row_id": "V36-R04", "reachable": true, "id": "T0711", "x": 630112.26, "y": 5219389.18, "order": null, "visited": false}}, {"type": "Feature", "geometry": {"type": "Point", "coordinates": [630347.28, 5219468.63]}, "properties": {"type": "gap", "gap_m": 5.6, "vineyard_id": "V37", "row_id": "V37-R01", "reachable": true, "id": "T0716", "x": 630347.28, "y": 5219468.63, "order": null, "visited": false}}, {"type": "Feature", "geometry": {"type": "Point", "coordinates": [630356.38, 5219425.76]}, "properties": {"type": "gap", "gap_m": 8.3, "vineyard_id": "V37", "row_id": "V37-R02", "reachable": true, "id": "T0718", "x": 630356.38, "y": 5219425.76, "order": null, "visited": false}}, {"type": "Feature", "geometry": {"type": "Point", "coordinates": [630333.33, 5219447.47]}, "properties": {"type": "gap", "gap_m": 8.1, "vineyard_id": "V37", "row_id": "V37-R06", "reachable": true, "id": "T0722", "x": 630333.33, "y": 5219447.47, "order": null, "visited": false}}, {"type": "Feature", "geometry": {"type": "Point", "coordinates": [630336.26, 5219443.42]}, "properties": {"type": "gap", "gap_m": 5.4, "vineyard_id": "V37", "row_id": "V37-R10", "reachable": true, "id": "T0732", "x": 630336.26, "y": 5219443.42, "order": null, "visited": false}}, {"type": "Feature", "geometry": {"type": "Point", "coordinates": [630322.79, 5219432.14]}, "properties": {"type": "gap", "gap_m": 5.9, "vineyard_id": "V37", "row_id": "V37-R10", "reachable": true, "id": "T0735", "x": 630322.79, "y": 5219432.14, "order": null, "visited": false}}, {"type": "Feature", "geometry": {"type": "Point", "coordinates": [630343.62, 5219429.38]}, "properties": {"type": "gap", "gap_m": 6.8, "vineyard_id": "V37", "row_id": "V37-R11", "reachable": true, "id": "T0736", "x": 630343.62, "y": 5219429.38, "order": null, "visited": false}}, {"type": "Feature", "geometry": {"type": "Point", "coordinates": [630365.3, 5219395.78]}, "properties": {"type": "gap", "gap_m": 5.6, "vineyard_id": "V37", "row_id": "V37-R13", "reachable": true, "id": "T0738", "x": 630365.3, "y": 5219395.78, "order": null, "visited": false}}, {"type": "Feature", "geometry": {"type": "Point", "coordinates": [630341.13, 5219415.45]}, "properties": {"type": "gap", "gap_m": 5.4, "vineyard_id": "V37", "row_id": "V37-R15", "reachable": true, "id": "T0742", "x": 630341.13, "y": 5219415.45, "order": null, "visited": false}}, {"type": "Feature", "geometry": {"type": "Point", "coordinates": [630347.77, 5219407.8]}, "properties": {"type": "gap", "gap_m": 7.1, "vineyard_id": "V37", "row_id": "V37-R15", "reachable": true, "id": "T0743", "x": 630347.77, "y": 5219407.8, "order": null, "visited": false}}, {"type": "Feature", "geometry": {"type": "Point", "coordinates": [630159.27, 5219400.42]}, "properties": {"type": "gap", "gap_m": 5.0, "vineyard_id": "V39", "row_id": "V39-R04", "reachable": true, "id": "T0752", "x": 630159.27, "y": 5219400.42, "order": null, "visited": false}}, {"type": "Feature", "geometry": {"type": "Point", "coordinates": [630160.53, 5219384.73]}, "properties": {"type": "gap", "gap_m": 6.9, "vineyard_id": "V39", "row_id": "V39-R07", "reachable": true, "id": "T0755", "x": 630160.53, "y": 5219384.73, "order": null, "visited": false}}, {"type": "Feature", "geometry": {"type": "Point", "coordinates": [630278.05, 5219420.37]}, "properties": {"type": "gap", "gap_m": 8.7, "vineyard_id": "V41", "row_id": "V41-R03", "reachable": true, "id": "T0758", "x": 630278.05, "y": 5219420.37, "order": null, "visited": false}}, {"type": "Feature", "geometry": {"type": "Point", "coordinates": [630287.86, 5219424.7]}, "properties": {"type": "gap", "gap_m": 8.0, "vineyard_id": "V41", "row_id": "V41-R05", "reachable": true, "id": "T0759", "x": 630287.86, "y": 5219424.7, "order": null, "visited": false}}, {"type": "Feature", "geometry": {"type": "Point", "coordinates": [630289.95, 5219420.98]}, "properties": {"type": "gap", "gap_m": 12.6, "vineyard_id": "V41", "row_id": "V41-R06", "reachable": true, "id": "T0761", "x": 630289.95, "y": 5219420.98, "order": null, "visited": false}}, {"type": "Feature", "geometry": {"type": "Point", "coordinates": [630305.87, 5219389.15]}, "properties": {"type": "gap", "gap_m": 11.4, "vineyard_id": "V41", "row_id": "V41-R19", "reachable": true, "id": "T0764", "x": 630305.87, "y": 5219389.15, "order": null, "visited": false}}, {"type": "Feature", "geometry": {"type": "Point", "coordinates": [630313.8, 5219357.58]}, "properties": {"type": "gap", "gap_m": 8.8, "vineyard_id": "V41", "row_id": "V41-R31", "reachable": true, "id": "T0769", "x": 630313.8, "y": 5219357.58, "order": null, "visited": false}}, {"type": "Feature", "geometry": {"type": "Point", "coordinates": [630320.75, 5219364.52]}, "properties": {"type": "gap", "gap_m": 12.4, "vineyard_id": "V41", "row_id": "V41-R32", "reachable": true, "id": "T0770", "x": 630320.75, "y": 5219364.52, "order": null, "visited": false}}, {"type": "Feature", "geometry": {"type": "Point", "coordinates": [630248.24, 5219370.38]}, "properties": {"type": "gap", "gap_m": 5.7, "vineyard_id": "V42", "row_id": "V42-R01", "reachable": true, "id": "T0772", "x": 630248.24, "y": 5219370.38, "order": null, "visited": false}}, {"type": "Feature", "geometry": {"type": "Point", "coordinates": [630250.14, 5219368.01]}, "properties": {"type": "gap", "gap_m": 7.2, "vineyard_id": "V42", "row_id": "V42-R02", "reachable": true, "id": "T0776", "x": 630250.14, "y": 5219368.01, "order": null, "visited": false}}, {"type": "Feature", "geometry": {"type": "Point", "coordinates": [630229.92, 5219330.77]}, "properties": {"type": "gap", "gap_m": 7.5, "vineyard_id": "V42", "row_id": "V42-R03", "reachable": true, "id": "T0779", "x": 630229.92, "y": 5219330.77, "order": null, "visited": false}}, {"type": "Feature", "geometry": {"type": "Point", "coordinates": [630249.4, 5219355.66]}, "properties": {"type": "gap", "gap_m": 5.3, "vineyard_id": "V42", "row_id": "V42-R04", "reachable": true, "id": "T0783", "x": 630249.4, "y": 5219355.66, "order": null, "visited": false}}, {"type": "Feature", "geometry": {"type": "Point", "coordinates": [630229.82, 5219325.23]}, "properties": {"type": "gap", "gap_m": 13.6, "vineyard_id": "V42", "row_id": "V42-R04", "reachable": true, "id": "T0784", "x": 630229.82, "y": 5219325.23, "order": null, "visited": false}}, {"type": "Feature", "geometry": {"type": "Point", "coordinates": [630230.43, 5219321.3]}, "properties": {"type": "gap", "gap_m": 20.3, "vineyard_id": "V42", "row_id": "V42-R05", "reachable": true, "id": "T0790", "x": 630230.43, "y": 5219321.3, "order": null, "visited": false}}, {"type": "Feature", "geometry": {"type": "Point", "coordinates": [630221.61, 5219307.27]}, "properties": {"type": "gap", "gap_m": 10.3, "vineyard_id": "V42", "row_id": "V42-R05", "reachable": true, "id": "T0791", "x": 630221.61, "y": 5219307.27, "order": null, "visited": false}}, {"type": "Feature", "geometry": {"type": "Point", "coordinates": [630233.66, 5219321.29]}, "properties": {"type": "gap", "gap_m": 8.6, "vineyard_id": "V42", "row_id": "V42-R06", "reachable": true, "id": "T0795", "x": 630233.66, "y": 5219321.29, "order": 89, "visited": true}}, {"type": "Feature", "geometry": {"type": "Point", "coordinates": [630227.21, 5219311.23]}, "properties": {"type": "gap", "gap_m": 7.4, "vineyard_id": "V42", "row_id": "V42-R06", "reachable": true, "id": "T0796", "x": 630227.21, "y": 5219311.23, "order": 91, "visited": true}}, {"type": "Feature", "geometry": {"type": "Point", "coordinates": [630222.57, 5219304.02]}, "properties": {"type": "gap", "gap_m": 8.2, "vineyard_id": "V42", "row_id": "V42-R06", "reachable": true, "id": "T0797", "x": 630222.57, "y": 5219304.02, "order": 92, "visited": true}}, {"type": "Feature", "geometry": {"type": "Point", "coordinates": [630259.48, 5219357.02]}, "properties": {"type": "gap", "gap_m": 9.1, "vineyard_id": "V42", "row_id": "V42-R07", "reachable": true, "id": "T0799", "x": 630259.48, "y": 5219357.02, "order": null, "visited": true}}, {"type": "Feature", "geometry": {"type": "Point", "coordinates": [630237.65, 5219322.88]}, "properties": {"type": "gap", "gap_m": 5.9, "vineyard_id": "V42", "row_id": "V42-R07", "reachable": true, "id": "T0801", "x": 630237.65, "y": 5219322.88, "order": 88, "visited": true}}, {"type": "Feature", "geometry": {"type": "Point", "coordinates": [630230.01, 5219311.09]}, "properties": {"type": "gap", "gap_m": 10.7, "vineyard_id": "V42", "row_id": "V42-R07", "reachable": true, "id": "T0802", "x": 630230.01, "y": 5219311.09, "order": 90, "visited": true}}, {"type": "Feature", "geometry": {"type": "Point", "coordinates": [630223.41, 5219300.9]}, "properties": {"type": "gap", "gap_m": 5.2, "vineyard_id": "V42", "row_id": "V42-R07", "reachable": true, "id": "T0803", "x": 630223.41, "y": 5219300.9, "order": null, "visited": true}}, {"type": "Feature", "geometry": {"type": "Point", "coordinates": [630264.93, 5219356.27]}, "properties": {"type": "gap", "gap_m": 5.6, "vineyard_id": "V42", "row_id": "V42-R09", "reachable": true, "id": "T0807", "x": 630264.93, "y": 5219356.27, "order": null, "visited": true}}, {"type": "Feature", "geometry": {"type": "Point", "coordinates": [630248.86, 5219331.0]}, "properties": {"type": "gap", "gap_m": 10.9, "vineyard_id": "V42", "row_id": "V42-R09", "reachable": true, "id": "T0809", "x": 630248.86, "y": 5219331.0, "order": null, "visited": true}}, {"type": "Feature", "geometry": {"type": "Point", "coordinates": [630232.29, 5219305.41]}, "properties": {"type": "gap", "gap_m": 35.3, "vineyard_id": "V42", "row_id": "V42-R09", "reachable": true, "id": "T0811", "x": 630232.29, "y": 5219305.41, "order": 93, "visited": true}}, {"type": "Feature", "geometry": {"type": "Point", "coordinates": [630266.36, 5219353.68]}, "properties": {"type": "gap", "gap_m": 7.5, "vineyard_id": "V42", "row_id": "V42-R10", "reachable": true, "id": "T0812", "x": 630266.36, "y": 5219353.68, "order": null, "visited": true}}, {"type": "Feature", "geometry": {"type": "Point", "coordinates": [630258.45, 5219341.27]}, "properties": {"type": "gap", "gap_m": 5.2, "vineyard_id": "V42", "row_id": "V42-R10", "reachable": true, "id": "T0813", "x": 630258.45, "y": 5219341.27, "order": 96, "visited": true}}, {"type": "Feature", "geometry": {"type": "Point", "coordinates": [630254.88, 5219335.66]}, "properties": {"type": "gap", "gap_m": 6.9, "vineyard_id": "V42", "row_id": "V42-R10", "reachable": true, "id": "T0814", "x": 630254.88, "y": 5219335.66, "order": 95, "visited": true}}, {"type": "Feature", "geometry": {"type": "Point", "coordinates": [630244.72, 5219319.89]}, "properties": {"type": "gap", "gap_m": 7.7, "vineyard_id": "V42", "row_id": "V42-R10", "reachable": true, "id": "T0815", "x": 630244.72, "y": 5219319.89, "order": 94, "visited": true}}, {"type": "Feature", "geometry": {"type": "Point", "coordinates": [630237.56, 5219308.74]}, "properties": {"type": "gap", "gap_m": 16.4, "vineyard_id": "V42", "row_id": "V42-R10", "reachable": true, "id": "T0816", "x": 630237.56, "y": 5219308.74, "order": 101, "visited": true}}, {"type": "Feature", "geometry": {"type": "Point", "coordinates": [630230.23, 5219297.32]}, "properties": {"type": "gap", "gap_m": 9.2, "vineyard_id": "V42", "row_id": "V42-R10", "reachable": true, "id": "T0817", "x": 630230.23, "y": 5219297.32, "order": 102, "visited": true}}, {"type": "Feature", "geometry": {"type": "Point", "coordinates": [630224.76, 5219288.8]}, "properties": {"type": "gap", "gap_m": 8.1, "vineyard_id": "V42", "row_id": "V42-R10", "reachable": true, "id": "T0818", "x": 630224.76, "y": 5219288.8, "order": null, "visited": true}}, {"type": "Feature", "geometry": {"type": "Point", "coordinates": [630267.81, 5219350.88]}, "properties": {"type": "gap", "gap_m": 11.2, "vineyard_id": "V42", "row_id": "V42-R11", "reachable": true, "id": "T0819", "x": 630267.81, "y": 5219350.88, "order": null, "visited": true}}, {"type": "Feature", "geometry": {"type": "Point", "coordinates": [630267.45, 5219345.18]}, "properties": {"type": "gap", "gap_m": 10.0, "vineyard_id": "V42", "row_id": "V42-R12", "reachable": true, "id": "T0822", "x": 630267.45, "y": 5219345.18, "order": null, "visited": true}}, {"type": "Feature", "geometry": {"type": "Point", "coordinates": [630255.08, 5219325.86]}, "properties": {"type": "gap", "gap_m": 13.0, "vineyard_id": "V42", "row_id": "V42-R12", "reachable": true, "id": "T0823", "x": 630255.08, "y": 5219325.86, "order": null, "visited": true}}, {"type": "Feature", "geometry": {"type": "Point", "coordinates": [630248.19, 5219315.06]}, "properties": {"type": "gap", "gap_m": 9.6, "vineyard_id": "V42", "row_id": "V42-R12", "reachable": true, "id": "T0824", "x": 630248.19, "y": 5219315.06, "order": 99, "visited": true}}, {"type": "Feature", "geometry": {"type": "Point", "coordinates": [630251.11, 5219314.76]}, "properties": {"type": "gap", "gap_m": 8.8, "vineyard_id": "V42", "row_id": "V42-R13", "reachable": true, "id": "T0832", "x": 630251.11, "y": 5219314.76, "order": 100, "visited": true}}, {"type": "Feature", "geometry": {"type": "Point", "coordinates": [630245.81, 5219306.46]}, "properties": {"type": "gap", "gap_m": 7.0, "vineyard_id": "V42", "row_id": "V42-R13", "reachable": true, "id": "T0833", "x": 630245.81, "y": 5219306.46, "order": 98, "visited": true}}, {"type": "Feature", "geometry": {"type": "Point", "coordinates": [630237.78, 5219293.88]}, "properties": {"type": "gap", "gap_m": 13.7, "vineyard_id": "V42", "row_id": "V42-R13", "reachable": true, "id": "T0834", "x": 630237.78, "y": 5219293.88, "order": null, "visited": true}}, {"type": "Feature", "geometry": {"type": "Point", "coordinates": [630231.22, 5219283.6]}, "properties": {"type": "gap", "gap_m": 7.4, "vineyard_id": "V42", "row_id": "V42-R13", "reachable": true, "id": "T0835", "x": 630231.22, "y": 5219283.6, "order": 97, "visited": true}}, {"type": "Feature", "geometry": {"type": "Point", "coordinates": [630299.09, 5219319.28]}, "properties": {"type": "gap", "gap_m": 5.1, "vineyard_id": "V44", "row_id": "V44-R10", "reachable": true, "id": "T0837", "x": 630299.09, "y": 5219319.28, "order": null, "visited": false}}, {"type": "Feature", "geometry": {"type": "Point", "coordinates": [630264.38, 5219265.71]}, "properties": {"type": "gap", "gap_m": 5.5, "vineyard_id": "V44", "row_id": "V44-R11", "reachable": true, "id": "T0839", "x": 630264.38, "y": 5219265.71, "order": null, "visited": false}}, {"type": "Feature", "geometry": {"type": "Point", "coordinates": [630286.78, 5219295.59]}, "properties": {"type": "gap", "gap_m": 6.2, "vineyard_id": "V44", "row_id": "V44-R12", "reachable": true, "id": "T0843", "x": 630286.78, "y": 5219295.59, "order": null, "visited": false}}, {"type": "Feature", "geometry": {"type": "Point", "coordinates": [630281.97, 5219288.22]}, "properties": {"type": "gap", "gap_m": 5.9, "vineyard_id": "V44", "row_id": "V44-R12", "reachable": true, "id": "T0844", "x": 630281.97, "y": 5219288.22, "order": null, "visited": false}}, {"type": "Feature", "geometry": {"type": "Point", "coordinates": [630200.66, 5219268.74]}, "properties": {"type": "gap", "gap_m": 7.0, "vineyard_id": "V45", "row_id": "V45-R10", "reachable": true, "id": "T0853", "x": 630200.66, "y": 5219268.74, "order": null, "visited": false}}, {"type": "Feature", "geometry": {"type": "Point", "coordinates": [630177.75, 5219283.29]}, "properties": {"type": "gap", "gap_m": 5.9, "vineyard_id": "V45", "row_id": "V45-R11", "reachable": true, "id": "T0855", "x": 630177.75, "y": 5219283.29, "order": null, "visited": false}}, {"type": "Feature", "geometry": {"type": "Point", "coordinates": [630198.67, 5219266.93]}, "properties": {"type": "gap", "gap_m": 8.5, "vineyard_id": "V45", "row_id": "V45-R11", "reachable": true, "id": "T0857", "x": 630198.67, "y": 5219266.93, "order": null, "visited": false}}, {"type": "Feature", "geometry": {"type": "Point", "coordinates": [630211.45, 5219256.93]}, "properties": {"type": "gap", "gap_m": 5.4, "vineyard_id": "V45", "row_id": "V45-R11", "reachable": true, "id": "T0858", "x": 630211.45, "y": 5219256.93, "order": null, "visited": false}}, {"type": "Feature", "geometry": {"type": "Point", "coordinates": [630192.33, 5219268.35]}, "properties": {"type": "gap", "gap_m": 5.2, "vineyard_id": "V45", "row_id": "V45-R12", "reachable": true, "id": "T0859", "x": 630192.33, "y": 5219268.35, "order": null, "visited": false}}, {"type": "Feature", "geometry": {"type": "Point", "coordinates": [630189.84, 5219266.78]}, "properties": {"type": "gap", "gap_m": 5.4, "vineyard_id": "V45", "row_id": "V45-R13", "reachable": true, "id": "T0862", "x": 630189.84, "y": 5219266.78, "order": null, "visited": false}}, {"type": "Feature", "geometry": {"type": "Point", "coordinates": [630178.0, 5219265.34]}, "properties": {"type": "gap", "gap_m": 12.9, "vineyard_id": "V45", "row_id": "V45-R16", "reachable": true, "id": "T0865", "x": 630178.0, "y": 5219265.34, "order": null, "visited": true}}, {"type": "Feature", "geometry": {"type": "Point", "coordinates": [630188.93, 5219256.81]}, "properties": {"type": "gap", "gap_m": 7.6, "vineyard_id": "V45", "row_id": "V45-R16", "reachable": true, "id": "T0866", "x": 630188.93, "y": 5219256.81, "order": null, "visited": true}}, {"type": "Feature", "geometry": {"type": "Point", "coordinates": [630202.43, 5219246.27]}, "properties": {"type": "gap", "gap_m": 5.0, "vineyard_id": "V45", "row_id": "V45-R16", "reachable": true, "id": "T0869", "x": 630202.43, "y": 5219246.27, "order": 104, "visited": true}}, {"type": "Feature", "geometry": {"type": "Point", "coordinates": [630213.91, 5219237.3]}, "properties": {"type": "gap", "gap_m": 5.3, "vineyard_id": "V45", "row_id": "V45-R16", "reachable": true, "id": "T0871", "x": 630213.91, "y": 5219237.3, "order": 103, "visited": true}}, {"type": "Feature", "geometry": {"type": "Point", "coordinates": [630167.53, 5219270.39]}, "properties": {"type": "gap", "gap_m": 7.9, "vineyard_id": "V45", "row_id": "V45-R17", "reachable": true, "id": "T0872", "x": 630167.53, "y": 5219270.39, "order": 106, "visited": true}}, {"type": "Feature", "geometry": {"type": "Point", "coordinates": [630173.35, 5219265.69]}, "properties": {"type": "gap", "gap_m": 5.8, "vineyard_id": "V45", "row_id": "V45-R17", "reachable": true, "id": "T0873", "x": 630173.35, "y": 5219265.69, "order": 105, "visited": true}}, {"type": "Feature", "geometry": {"type": "Point", "coordinates": [630185.13, 5219256.45]}, "properties": {"type": "gap", "gap_m": 8.2, "vineyard_id": "V45", "row_id": "V45-R17", "reachable": true, "id": "T0876", "x": 630185.13, "y": 5219256.45, "order": null, "visited": false}}, {"type": "Feature", "geometry": {"type": "Point", "coordinates": [630187.4, 5219251.23]}, "properties": {"type": "gap", "gap_m": 6.6, "vineyard_id": "V45", "row_id": "V45-R18", "reachable": true, "id": "T0880", "x": 630187.4, "y": 5219251.23, "order": null, "visited": false}}, {"type": "Feature", "geometry": {"type": "Point", "coordinates": [630160.07, 5219269.31]}, "properties": {"type": "gap", "gap_m": 5.2, "vineyard_id": "V45", "row_id": "V45-R19", "reachable": true, "id": "T0883", "x": 630160.07, "y": 5219269.31, "order": null, "visited": false}}, {"type": "Feature", "geometry": {"type": "Point", "coordinates": [630216.37, 5219224.79]}, "properties": {"type": "gap", "gap_m": 5.6, "vineyard_id": "V45", "row_id": "V45-R19", "reachable": true, "id": "T0885", "x": 630216.37, "y": 5219224.79, "order": null, "visited": false}}, {"type": "Feature", "geometry": {"type": "Point", "coordinates": [630168.69, 5219258.66]}, "properties": {"type": "gap", "gap_m": 10.8, "vineyard_id": "V45", "row_id": "V45-R20", "reachable": true, "id": "T0886", "x": 630168.69, "y": 5219258.66, "order": null, "visited": false}}, {"type": "Feature", "geometry": {"type": "Point", "coordinates": [630173.99, 5219247.67]}, "properties": {"type": "gap", "gap_m": 9.7, "vineyard_id": "V45", "row_id": "V45-R22", "reachable": true, "id": "T0891", "x": 630173.99, "y": 5219247.67, "order": null, "visited": false}}, {"type": "Feature", "geometry": {"type": "Point", "coordinates": [630180.39, 5219242.67]}, "properties": {"type": "gap", "gap_m": 5.6, "vineyard_id": "V45", "row_id": "V45-R22", "reachable": true, "id": "T0892", "x": 630180.39, "y": 5219242.67, "order": null, "visited": false}}, {"type": "Feature", "geometry": {"type": "Point", "coordinates": [630196.7, 5219229.94]}, "properties": {"type": "gap", "gap_m": 10.2, "vineyard_id": "V45", "row_id": "V45-R22", "reachable": true, "id": "T0894", "x": 630196.7, "y": 5219229.94, "order": null, "visited": false}}, {"type": "Feature", "geometry": {"type": "Point", "coordinates": [630166.64, 5219250.9]}, "properties": {"type": "gap", "gap_m": 8.4, "vineyard_id": "V45", "row_id": "V45-R23", "reachable": true, "id": "T0895", "x": 630166.64, "y": 5219250.9, "order": null, "visited": false}}, {"type": "Feature", "geometry": {"type": "Point", "coordinates": [630184.3, 5219233.05]}, "properties": {"type": "gap", "gap_m": 5.7, "vineyard_id": "V45", "row_id": "V45-R24", "reachable": true, "id": "T0898", "x": 630184.3, "y": 5219233.05, "order": null, "visited": false}}, {"type": "Feature", "geometry": {"type": "Point", "coordinates": [629533.62, 5220443.4]}, "properties": {"type": "waste", "vineyard_id": "", "row_id": "", "reachable": true, "id": "W002", "x": 629533.62, "y": 5220443.4, "order": null, "visited": false}}, {"type": "Feature", "geometry": {"type": "Point", "coordinates": [629588.85, 5220304.12]}, "properties": {"type": "waste", "vineyard_id": "", "row_id": "", "reachable": true, "id": "W003", "x": 629588.85, "y": 5220304.12, "order": null, "visited": false}}, {"type": "Feature", "geometry": {"type": "Point", "coordinates": [629786.58, 5220162.2]}, "properties": {"type": "waste", "vineyard_id": "", "row_id": "", "reachable": true, "id": "W004", "x": 629786.58, "y": 5220162.2, "order": null, "visited": false}}, {"type": "Feature", "geometry": {"type": "Point", "coordinates": [629849.69, 5220135.33]}, "properties": {"type": "waste", "vineyard_id": "V15", "row_id": "", "reachable": true, "id": "W005", "x": 629849.69, "y": 5220135.33, "order": null, "visited": false}}, {"type": "Feature", "geometry": {"type": "Point", "coordinates": [629837.83, 5220046.28]}, "properties": {"type": "waste", "vineyard_id": "V16", "row_id": "", "reachable": true, "id": "W006", "x": 629837.83, "y": 5220046.28, "order": null, "visited": false}}, {"type": "Feature", "geometry": {"type": "Point", "coordinates": [629876.47, 5220047.1]}, "properties": {"type": "waste", "vineyard_id": "", "row_id": "", "reachable": true, "id": "W008", "x": 629876.47, "y": 5220047.1, "order": null, "visited": false}}]}