{"type": "FeatureCollection", "crs": {"type": "name", "properties": {"name": "urn:ogc:def:crs:EPSG::32635"}}, "features": [{"type": "Feature", "geometry": {"type": "Point", "coordinates": [629194.4, 5220840.76]}, "properties": {"type": "gap", "gap_m": 5.7, "vineyard_id": "V02", "row_id": "V02-R42", "reachable": true, "id": "T0086", "x": 629194.4, "y": 5220840.76, "order": 8, "visited": true}}, {"type": "Feature", "geometry": {"type": "Point", "coordinates": [629135.94, 5220847.55]}, "properties": {"type": "gap", "gap_m": 48.1, "vineyard_id": "V02", "row_id": "V02-R62", "reachable": true, "id": "T0182", "x": 629135.94, "y": 5220847.55, "order": null, "visited": false}}, {"type": "Feature", "geometry": {"type": "Point", "coordinates": [629197.03, 5220523.84]}, "properties": {"type": "gap", "gap_m": 5.1, "vineyard_id": "V10", "row_id": "V10-R03", "reachable": true, "id": "T0321", "x": 629197.03, "y": 5220523.84, "order": null, "visited": false}}, {"type": "Feature", "geometry": {"type": "Point", "coordinates": [629170.6, 5220530.25]}, "properties": {"type": "gap", "gap_m": 12.6, "vineyard_id": "V10", "row_id": "V10-R10", "reachable": true, "id": "T0329", "x": 629170.6, "y": 5220530.25, "order": 7, "visited": true}}, {"type": "Feature", "geometry": {"type": "Point", "coordinates": [629602.83, 5220227.54]}, "properties": {"type": "gap", "gap_m": 3.4, "vineyard_id": "V14", "row_id": "V14-R27", "reachable": true, "id": "T0386", "x": 629602.83, "y": 5220227.54, "order": 6, "visited": true}}, {"type": "Feature", "geometry": {"type": "Point", "coordinates": [629572.06, 5220220.5]}, "properties": {"type": "gap", "gap_m": 59.5, "vineyard_id": "V14", "row_id": "V14-R41", "reachable": true, "id": "T0394", "x": 629572.06, "y": 5220220.5, "order": 5, "visited": true}}, {"type": "Feature", "geometry": {"type": "Point", "coordinates": [629910.5, 5219879.61]}, "properties": {"type": "gap", "gap_m": 23.4, "vineyard_id": "V18", "row_id": "V18-R07", "reachable": true, "id": "T0542", "x": 629910.5, "y": 5219879.61, "order": null, "visited": false}}, {"type": "Feature", "geometry": {"type": "Point", "coordinates": [629943.64, 5219827.34]}, "properties": {"type": "gap", "gap_m": 3.0, "vineyard_id": "V18", "row_id": "V18-R09", "reachable": true, "id": "T0553", "x": 629943.64, "y": 5219827.34, "order": null, "visited": false}}, {"type": "Feature", "geometry": {"type": "Point", "coordinates": [629822.65, 5219722.88]}, "properties": {"type": "gap", "gap_m": 3.4, "vineyard_id": "V23", "row_id": "V23-R01", "reachable": true, "id": "T0597", "x": 629822.65, "y": 5219722.88, "order": 4, "visited": true}}, {"type": "Feature", "geometry": {"type": "Point", "coordinates": [629836.91, 5219702.51]}, "properties": {"type": "gap", "gap_m": 4.9, "vineyard_id": "V23", "row_id": "V23-R01", "reachable": true, "id": "T0598", "x": 629836.91, "y": 5219702.51, "order": 3, "visited": true}}, {"type": "Feature", "geometry": {"type": "Point", "coordinates": [630218.5, 5219682.18]}, "properties": {"type": "gap", "gap_m": 9.7, "vineyard_id": "V24", "row_id": "V24-R05", "reachable": true, "id": "T0602", "x": 630218.5, "y": 5219682.18, "order": null, "visited": false}}, {"type": "Feature", "geometry": {"type": "Point", "coordinates": [630356.38, 5219425.76]}, "properties": {"type": "gap", "gap_m": 8.3, "vineyard_id": "V36", "row_id": "V36-R05", "reachable": true, "id": "T0674", "x": 630356.38, "y": 5219425.76, "order": null, "visited": false}}, {"type": "Feature", "geometry": {"type": "Point", "coordinates": [630341.13, 5219415.45]}, "properties": {"type": "gap", "gap_m": 5.4, "vineyard_id": "V36", "row_id": "V36-R15", "reachable": true, "id": "T0688", "x": 630341.13, "y": 5219415.45, "order": null, "visited": false}}, {"type": "Feature", "geometry": {"type": "Point", "coordinates": [630237.66, 5219327.52]}, "properties": {"type": "gap", "gap_m": 3.5, "vineyard_id": "V42", "row_id": "V42-R06", "reachable": true, "id": "T0738", "x": 630237.66, "y": 5219327.52, "order": null, "visited": false}}, {"type": "Feature", "geometry": {"type": "Point", "coordinates": [630232.29, 5219305.41]}, "properties": {"type": "gap", "gap_m": 35.3, "vineyard_id": "V42", "row_id": "V42-R09", "reachable": true, "id": "T0753", "x": 630232.29, "y": 5219305.41, "order": 2, "visited": true}}, {"type": "Feature", "geometry": {"type": "Point", "coordinates": [630206.21, 5219257.4]}, "properties": {"type": "gap", "gap_m": 3.6, "vineyard_id": "V46", "row_id": "V46-R12", "reachable": true, "id": "T0800", "x": 630206.21, "y": 5219257.4, "order": null, "visited": false}}, {"type": "Feature", "geometry": {"type": "Point", "coordinates": [630178.0, 5219265.34]}, "properties": {"type": "gap", "gap_m": 12.9, "vineyard_id": "V46", "row_id": "V46-R16", "reachable": true, "id": "T0805", "x": 630178.0, "y": 5219265.34, "order": 1, "visited": true}}]}