{"type": "FeatureCollection", "crs": {"type": "name", "properties": {"name": "urn:ogc:def:crs:EPSG::32635"}}, "features": [{"type": "Feature", "geometry": {"type": "Point", "coordinates": [629230.07, 5220913.02]}, "properties": {"type": "gap", "gap_m": 11.8, "vineyard_id": "V02", "row_id": "V02-R16", "reachable": true, "id": "T0015", "x": 629230.07, "y": 5220913.02, "order": null, "visited": false}}, {"type": "Feature", "geometry": {"type": "Point", "coordinates": [629234.94, 5220894.98]}, "properties": {"type": "gap", "gap_m": 9.2, "vineyard_id": "V02", "row_id": "V02-R18", "reachable": true, "id": "T0019", "x": 629234.94, "y": 5220894.98, "order": null, "visited": false}}, {"type": "Feature", "geometry": {"type": "Point", "coordinates": [629219.11, 5220926.38]}, "properties": {"type": "gap", "gap_m": 8.3, "vineyard_id": "V02", "row_id": "V02-R19", "reachable": true, "id": "T0023", "x": 629219.11, "y": 5220926.38, "order": null, "visited": false}}, {"type": "Feature", "geometry": {"type": "Point", "coordinates": [629228.97, 5220902.85]}, "properties": {"type": "gap", "gap_m": 12.9, "vineyard_id": "V02", "row_id": "V02-R19", "reachable": true, "id": "T0025", "x": 629228.97, "y": 5220902.85, "order": null, "visited": false}}, {"type": "Feature", "geometry": {"type": "Point", "coordinates": [629241.44, 5220873.3]}, "properties": {"type": "gap", "gap_m": 12.9, "vineyard_id": "V02", "row_id": "V02-R19", "reachable": true, "id": "T0028", "x": 629241.44, "y": 5220873.3, "order": null, "visited": false}}, {"type": "Feature", "geometry": {"type": "Point", "coordinates": [629250.45, 5220817.98]}, "properties": {"type": "gap", "gap_m": 14.6, "vineyard_id": "V02", "row_id": "V02-R24", "reachable": true, "id": "T0045", "x": 629250.45, "y": 5220817.98, "order": null, "visited": false}}, {"type": "Feature", "geometry": {"type": "Point", "coordinates": [629196.18, 5220896.5]}, "properties": {"type": "gap", "gap_m": 8.5, "vineyard_id": "V02", "row_id": "V02-R33", "reachable": true, "id": "T0064", "x": 629196.18, "y": 5220896.5, "order": 37, "visited": true}}, {"type": "Feature", "geometry": {"type": "Point", "coordinates": [629205.63, 5220866.46]}, "properties": {"type": "gap", "gap_m": 8.4, "vineyard_id": "V02", "row_id": "V02-R34", "reachable": true, "id": "T0068", "x": 629205.63, "y": 5220866.46, "order": 38, "visited": true}}, {"type": "Feature", "geometry": {"type": "Point", "coordinates": [629234.8, 5220741.32]}, "properties": {"type": "gap", "gap_m": 12.4, "vineyard_id": "V02", "row_id": "V02-R42", "reachable": true, "id": "T0089", "x": 629234.8, "y": 5220741.32, "order": null, "visited": false}}, {"type": "Feature", "geometry": {"type": "Point", "coordinates": [629231.82, 5220742.04]}, "properties": {"type": "gap", "gap_m": 10.2, "vineyard_id": "V02", "row_id": "V02-R43", "reachable": true, "id": "T0092", "x": 629231.82, "y": 5220742.04, "order": 36, "visited": true}}, {"type": "Feature", "geometry": {"type": "Point", "coordinates": [629168.18, 5220863.08]}, "properties": {"type": "gap", "gap_m": 8.0, "vineyard_id": "V02", "row_id": "V02-R48", "reachable": true, "id": "T0110", "x": 629168.18, "y": 5220863.08, "order": null, "visited": false}}, {"type": "Feature", "geometry": {"type": "Point", "coordinates": [629169.35, 5220840.99]}, "properties": {"type": "gap", "gap_m": 9.6, "vineyard_id": "V02", "row_id": "V02-R51", "reachable": true, "id": "T0130", "x": 629169.35, "y": 5220840.99, "order": null, "visited": false}}, {"type": "Feature", "geometry": {"type": "Point", "coordinates": [629160.92, 5220848.26]}, "properties": {"type": "gap", "gap_m": 16.1, "vineyard_id": "V02", "row_id": "V02-R53", "reachable": true, "id": "T0145", "x": 629160.92, "y": 5220848.26, "order": 35, "visited": true}}, {"type": "Feature", "geometry": {"type": "Point", "coordinates": [629148.78, 5220870.6]}, "properties": {"type": "gap", "gap_m": 11.2, "vineyard_id": "V02", "row_id": "V02-R54", "reachable": true, "id": "T0147", "x": 629148.78, "y": 5220870.6, "order": 34, "visited": true}}, {"type": "Feature", "geometry": {"type": "Point", "coordinates": [629143.03, 5220851.86]}, "properties": {"type": "gap", "gap_m": 9.0, "vineyard_id": "V02", "row_id": "V02-R59", "reachable": true, "id": "T0167", "x": 629143.03, "y": 5220851.86, "order": null, "visited": false}}, {"type": "Feature", "geometry": {"type": "Point", "coordinates": [629148.1, 5220833.11]}, "properties": {"type": "gap", "gap_m": 9.8, "vineyard_id": "V02", "row_id": "V02-R60", "reachable": true, "id": "T0174", "x": 629148.1, "y": 5220833.11, "order": 39, "visited": true}}, {"type": "Feature", "geometry": {"type": "Point", "coordinates": [629135.94, 5220847.55]}, "properties": {"type": "gap", "gap_m": 48.1, "vineyard_id": "V02", "row_id": "V02-R62", "reachable": true, "id": "T0182", "x": 629135.94, "y": 5220847.55, "order": null, "visited": false}}, {"type": "Feature", "geometry": {"type": "Point", "coordinates": [629139.29, 5220787.0]}, "properties": {"type": "gap", "gap_m": 9.8, "vineyard_id": "V02", "row_id": "V02-R71", "reachable": true, "id": "T0216", "x": 629139.29, "y": 5220787.0, "order": null, "visited": false}}, {"type": "Feature", "geometry": {"type": "Point", "coordinates": [629129.95, 5220803.17]}, "properties": {"type": "gap", "gap_m": 9.4, "vineyard_id": "V02", "row_id": "V02-R72", "reachable": true, "id": "T0219", "x": 629129.95, "y": 5220803.17, "order": null, "visited": false}}, {"type": "Feature", "geometry": {"type": "Point", "coordinates": [629143.53, 5220756.61]}, "properties": {"type": "gap", "gap_m": 10.8, "vineyard_id": "V02", "row_id": "V02-R76", "reachable": true, "id": "T0222", "x": 629143.53, "y": 5220756.61, "order": null, "visited": false}}, {"type": "Feature", "geometry": {"type": "Point", "coordinates": [629142.13, 5220752.94]}, "properties": {"type": "gap", "gap_m": 18.8, "vineyard_id": "V02", "row_id": "V02-R78", "reachable": true, "id": "T0223", "x": 629142.13, "y": 5220752.94, "order": null, "visited": false}}, {"type": "Feature", "geometry": {"type": "Point", "coordinates": [629113.28, 5220792.75]}, "properties": {"type": "gap", "gap_m": 15.1, "vineyard_id": "V04", "row_id": "V04-R01", "reachable": true, "id": "T0224", "x": 629113.28, "y": 5220792.75, "order": 43, "visited": true}}, {"type": "Feature", "geometry": {"type": "Point", "coordinates": [629127.93, 5220771.71]}, "properties": {"type": "gap", "gap_m": 13.5, "vineyard_id": "V04", "row_id": "V04-R01", "reachable": true, "id": "T0225", "x": 629127.93, "y": 5220771.71, "order": 42, "visited": true}}, {"type": "Feature", "geometry": {"type": "Point", "coordinates": [629109.62, 5220793.02]}, "properties": {"type": "gap", "gap_m": 12.1, "vineyard_id": "V04", "row_id": "V04-R03", "reachable": true, "id": "T0226", "x": 629109.62, "y": 5220793.02, "order": 41, "visited": true}}, {"type": "Feature", "geometry": {"type": "Point", "coordinates": [629139.79, 5220741.7]}, "properties": {"type": "gap", "gap_m": 11.9, "vineyard_id": "V04", "row_id": "V04-R05", "reachable": true, "id": "T0227", "x": 629139.79, "y": 5220741.7, "order": 40, "visited": true}}, {"type": "Feature", "geometry": {"type": "Point", "coordinates": [629101.5, 5220770.5]}, "properties": {"type": "gap", "gap_m": 10.7, "vineyard_id": "V04", "row_id": "V04-R14", "reachable": true, "id": "T0236", "x": 629101.5, "y": 5220770.5, "order": 45, "visited": true}}, {"type": "Feature", "geometry": {"type": "Point", "coordinates": [629098.19, 5220770.56]}, "properties": {"type": "gap", "gap_m": 10.4, "vineyard_id": "V04", "row_id": "V04-R15", "reachable": true, "id": "T0239", "x": 629098.19, "y": 5220770.56, "order": 44, "visited": true}}, {"type": "Feature", "geometry": {"type": "Point", "coordinates": [629040.04, 5220696.29]}, "properties": {"type": "gap", "gap_m": 17.3, "vineyard_id": "V04", "row_id": "V04-R47", "reachable": true, "id": "T0259", "x": 629040.04, "y": 5220696.29, "order": null, "visited": false}}, {"type": "Feature", "geometry": {"type": "Point", "coordinates": [629383.9, 5220630.62]}, "properties": {"type": "gap", "gap_m": 10.5, "vineyard_id": "V06", "row_id": "V06-R06", "reachable": true, "id": "T0271", "x": 629383.9, "y": 5220630.62, "order": null, "visited": false}}, {"type": "Feature", "geometry": {"type": "Point", "coordinates": [629389.97, 5220642.71]}, "properties": {"type": "gap", "gap_m": 8.8, "vineyard_id": "V06", "row_id": "V06-R07", "reachable": true, "id": "T0272", "x": 629389.97, "y": 5220642.71, "order": null, "visited": false}}, {"type": "Feature", "geometry": {"type": "Point", "coordinates": [629393.92, 5220640.68]}, "properties": {"type": "gap", "gap_m": 10.0, "vineyard_id": "V06", "row_id": "V06-R08", "reachable": true, "id": "T0275", "x": 629393.92, "y": 5220640.68, "order": null, "visited": false}}, {"type": "Feature", "geometry": {"type": "Point", "coordinates": [629487.18, 5220547.35]}, "properties": {"type": "gap", "gap_m": 8.9, "vineyard_id": "V09", "row_id": "V09-R07", "reachable": true, "id": "T0303", "x": 629487.18, "y": 5220547.35, "order": null, "visited": false}}, {"type": "Feature", "geometry": {"type": "Point", "coordinates": [629479.28, 5220535.94]}, "properties": {"type": "gap", "gap_m": 29.1, "vineyard_id": "V09", "row_id": "V09-R11", "reachable": true, "id": "T0309", "x": 629479.28, "y": 5220535.94, "order": null, "visited": false}}, {"type": "Feature", "geometry": {"type": "Point", "coordinates": [629481.2, 5220534.3]}, "properties": {"type": "gap", "gap_m": 30.8, "vineyard_id": "V09", "row_id": "V09-R12", "reachable": true, "id": "T0310", "x": 629481.2, "y": 5220534.3, "order": 33, "visited": true}}, {"type": "Feature", "geometry": {"type": "Point", "coordinates": [629479.3, 5220531.57]}, "properties": {"type": "gap", "gap_m": 25.8, "vineyard_id": "V09", "row_id": "V09-R13", "reachable": true, "id": "T0312", "x": 629479.3, "y": 5220531.57, "order": 32, "visited": true}}, {"type": "Feature", "geometry": {"type": "Point", "coordinates": [629479.26, 5220529.31]}, "properties": {"type": "gap", "gap_m": 27.2, "vineyard_id": "V09", "row_id": "V09-R14", "reachable": true, "id": "T0313", "x": 629479.26, "y": 5220529.31, "order": 30, "visited": true}}, {"type": "Feature", "geometry": {"type": "Point", "coordinates": [629481.43, 5220527.65]}, "properties": {"type": "gap", "gap_m": 13.6, "vineyard_id": "V09", "row_id": "V09-R15", "reachable": true, "id": "T0314", "x": 629481.43, "y": 5220527.65, "order": 31, "visited": true}}, {"type": "Feature", "geometry": {"type": "Point", "coordinates": [629181.62, 5220529.77]}, "properties": {"type": "gap", "gap_m": 9.8, "vineyard_id": "V10", "row_id": "V10-R04", "reachable": true, "id": "T0325", "x": 629181.62, "y": 5220529.77, "order": null, "visited": false}}, {"type": "Feature", "geometry": {"type": "Point", "coordinates": [629170.6, 5220530.25]}, "properties": {"type": "gap", "gap_m": 12.6, "vineyard_id": "V10", "row_id": "V10-R10", "reachable": true, "id": "T0329", "x": 629170.6, "y": 5220530.25, "order": null, "visited": false}}, {"type": "Feature", "geometry": {"type": "Point", "coordinates": [629215.77, 5220487.37]}, "properties": {"type": "gap", "gap_m": 10.7, "vineyard_id": "V10", "row_id": "V10-R19", "reachable": true, "id": "T0341", "x": 629215.77, "y": 5220487.37, "order": 46, "visited": true}}, {"type": "Feature", "geometry": {"type": "Point", "coordinates": [629487.96, 5220511.37]}, "properties": {"type": "gap", "gap_m": 14.1, "vineyard_id": "V11", "row_id": "V11-R03", "reachable": true, "id": "T0349", "x": 629487.96, "y": 5220511.37, "order": 28, "visited": true}}, {"type": "Feature", "geometry": {"type": "Point", "coordinates": [629476.77, 5220508.51]}, "properties": {"type": "gap", "gap_m": 8.0, "vineyard_id": "V11", "row_id": "V11-R03", "reachable": true, "id": "T0350", "x": 629476.77, "y": 5220508.51, "order": 29, "visited": true}}, {"type": "Feature", "geometry": {"type": "Point", "coordinates": [629491.03, 5220508.47]}, "properties": {"type": "gap", "gap_m": 8.1, "vineyard_id": "V11", "row_id": "V11-R04", "reachable": true, "id": "T0351", "x": 629491.03, "y": 5220508.47, "order": null, "visited": false}}, {"type": "Feature", "geometry": {"type": "Point", "coordinates": [629509.64, 5220232.15]}, "properties": {"type": "gap", "gap_m": 15.9, "vineyard_id": "V13", "row_id": "V13-R01", "reachable": true, "id": "T0354", "x": 629509.64, "y": 5220232.15, "order": null, "visited": false}}, {"type": "Feature", "geometry": {"type": "Point", "coordinates": [629521.79, 5220216.02]}, "properties": {"type": "gap", "gap_m": 9.1, "vineyard_id": "V13", "row_id": "V13-R01", "reachable": true, "id": "T0356", "x": 629521.79, "y": 5220216.02, "order": 4, "visited": true}}, {"type": "Feature", "geometry": {"type": "Point", "coordinates": [629517.1, 5220218.06]}, "properties": {"type": "gap", "gap_m": 10.8, "vineyard_id": "V13", "row_id": "V13-R02", "reachable": true, "id": "T0358", "x": 629517.1, "y": 5220218.06, "order": 5, "visited": true}}, {"type": "Feature", "geometry": {"type": "Point", "coordinates": [629602.17, 5220210.27]}, "properties": {"type": "gap", "gap_m": 10.2, "vineyard_id": "V14", "row_id": "V14-R31", "reachable": true, "id": "T0389", "x": 629602.17, "y": 5220210.27, "order": null, "visited": false}}, {"type": "Feature", "geometry": {"type": "Point", "coordinates": [629597.68, 5220211.5]}, "properties": {"type": "gap", "gap_m": 19.4, "vineyard_id": "V14", "row_id": "V14-R32", "reachable": true, "id": "T0390", "x": 629597.68, "y": 5220211.5, "order": null, "visited": false}}, {"type": "Feature", "geometry": {"type": "Point", "coordinates": [629572.06, 5220220.5]}, "properties": {"type": "gap", "gap_m": 59.5, "vineyard_id": "V14", "row_id": "V14-R41", "reachable": true, "id": "T0394", "x": 629572.06, "y": 5220220.5, "order": null, "visited": false}}, {"type": "Feature", "geometry": {"type": "Point", "coordinates": [629530.16, 5220219.32]}, "properties": {"type": "gap", "gap_m": 8.7, "vineyard_id": "V14", "row_id": "V14-R54", "reachable": true, "id": "T0435", "x": 629530.16, "y": 5220219.32, "order": null, "visited": true}}, {"type": "Feature", "geometry": {"type": "Point", "coordinates": [629523.7, 5220222.75]}, "properties": {"type": "gap", "gap_m": 8.8, "vineyard_id": "V14", "row_id": "V14-R55", "reachable": true, "id": "T0438", "x": 629523.7, "y": 5220222.75, "order": 3, "visited": true}}, {"type": "Feature", "geometry": {"type": "Point", "coordinates": [629535.22, 5220207.56]}, "properties": {"type": "gap", "gap_m": 8.4, "vineyard_id": "V14", "row_id": "V14-R55", "reachable": true, "id": "T0440", "x": 629535.22, "y": 5220207.56, "order": 2, "visited": true}}, {"type": "Feature", "geometry": {"type": "Point", "coordinates": [629509.85, 5220236.86]}, "properties": {"type": "gap", "gap_m": 14.4, "vineyard_id": "V14", "row_id": "V14-R56", "reachable": true, "id": "T0442", "x": 629509.85, "y": 5220236.86, "order": 1, "visited": true}}, {"type": "Feature", "geometry": {"type": "Point", "coordinates": [629545.99, 5220188.92]}, "properties": {"type": "gap", "gap_m": 32.2, "vineyard_id": "V14", "row_id": "V14-R56", "reachable": true, "id": "T0445", "x": 629545.99, "y": 5220188.92, "order": 6, "visited": true}}, {"type": "Feature", "geometry": {"type": "Point", "coordinates": [629744.99, 5220160.81]}, "properties": {"type": "gap", "gap_m": 20.3, "vineyard_id": "V15", "row_id": "V15-R02", "reachable": true, "id": "T0448", "x": 629744.99, "y": 5220160.81, "order": null, "visited": false}}, {"type": "Feature", "geometry": {"type": "Point", "coordinates": [629675.24, 5220186.69]}, "properties": {"type": "gap", "gap_m": 19.7, "vineyard_id": "V15", "row_id": "V15-R16", "reachable": true, "id": "T0455", "x": 629675.24, "y": 5220186.69, "order": 27, "visited": true}}, {"type": "Feature", "geometry": {"type": "Point", "coordinates": [629680.42, 5220175.79]}, "properties": {"type": "gap", "gap_m": 10.9, "vineyard_id": "V15", "row_id": "V15-R17", "reachable": true, "id": "T0458", "x": 629680.42, "y": 5220175.79, "order": 26, "visited": true}}, {"type": "Feature", "geometry": {"type": "Point", "coordinates": [629693.55, 5220158.67]}, "properties": {"type": "gap", "gap_m": 8.4, "vineyard_id": "V15", "row_id": "V15-R17", "reachable": true, "id": "T0459", "x": 629693.55, "y": 5220158.67, "order": 25, "visited": true}}, {"type": "Feature", "geometry": {"type": "Point", "coordinates": [629679.64, 5220172.9]}, "properties": {"type": "gap", "gap_m": 13.1, "vineyard_id": "V15", "row_id": "V15-R18", "reachable": true, "id": "T0464", "x": 629679.64, "y": 5220172.9, "order": null, "visited": false}}, {"type": "Feature", "geometry": {"type": "Point", "coordinates": [629640.05, 5220124.32]}, "properties": {"type": "gap", "gap_m": 58.0, "vineyard_id": "V15", "row_id": "V15-R43", "reachable": true, "id": "T0473", "x": 629640.05, "y": 5220124.32, "order": 7, "visited": true}}, {"type": "Feature", "geometry": {"type": "Point", "coordinates": [629885.11, 5219971.46]}, "properties": {"type": "gap", "gap_m": 10.9, "vineyard_id": "V17", "row_id": "V17-R01", "reachable": true, "id": "T0487", "x": 629885.11, "y": 5219971.46, "order": null, "visited": false}}, {"type": "Feature", "geometry": {"type": "Point", "coordinates": [629885.42, 5219965.72]}, "properties": {"type": "gap", "gap_m": 8.3, "vineyard_id": "V17", "row_id": "V17-R03", "reachable": true, "id": "T0492", "x": 629885.42, "y": 5219965.72, "order": null, "visited": false}}, {"type": "Feature", "geometry": {"type": "Point", "coordinates": [629850.34, 5219996.15]}, "properties": {"type": "gap", "gap_m": 17.8, "vineyard_id": "V17", "row_id": "V17-R05", "reachable": true, "id": "T0501", "x": 629850.34, "y": 5219996.15, "order": null, "visited": false}}, {"type": "Feature", "geometry": {"type": "Point", "coordinates": [629858.84, 5219985.24]}, "properties": {"type": "gap", "gap_m": 8.5, "vineyard_id": "V17", "row_id": "V17-R05", "reachable": true, "id": "T0502", "x": 629858.84, "y": 5219985.24, "order": null, "visited": false}}, {"type": "Feature", "geometry": {"type": "Point", "coordinates": [629870.8, 5219969.88]}, "properties": {"type": "gap", "gap_m": 14.3, "vineyard_id": "V17", "row_id": "V17-R05", "reachable": true, "id": "T0504", "x": 629870.8, "y": 5219969.88, "order": null, "visited": false}}, {"type": "Feature", "geometry": {"type": "Point", "coordinates": [629880.72, 5219956.79]}, "properties": {"type": "gap", "gap_m": 9.0, "vineyard_id": "V17", "row_id": "V17-R05", "reachable": true, "id": "T0505", "x": 629880.72, "y": 5219956.79, "order": null, "visited": false}}, {"type": "Feature", "geometry": {"type": "Point", "coordinates": [629814.06, 5220039.46]}, "properties": {"type": "gap", "gap_m": 8.5, "vineyard_id": "V17", "row_id": "V17-R06", "reachable": true, "id": "T0506", "x": 629814.06, "y": 5220039.46, "order": null, "visited": false}}, {"type": "Feature", "geometry": {"type": "Point", "coordinates": [629789.78, 5220022.33]}, "properties": {"type": "gap", "gap_m": 11.5, "vineyard_id": "V17", "row_id": "V17-R17", "reachable": true, "id": "T0512", "x": 629789.78, "y": 5220022.33, "order": null, "visited": false}}, {"type": "Feature", "geometry": {"type": "Point", "coordinates": [629781.18, 5220021.1]}, "properties": {"type": "gap", "gap_m": 9.2, "vineyard_id": "V17", "row_id": "V17-R21", "reachable": true, "id": "T0520", "x": 629781.18, "y": 5220021.1, "order": 9, "visited": true}}, {"type": "Feature", "geometry": {"type": "Point", "coordinates": [629794.58, 5220002.91]}, "properties": {"type": "gap", "gap_m": 8.1, "vineyard_id": "V17", "row_id": "V17-R21", "reachable": true, "id": "T0522", "x": 629794.58, "y": 5220002.91, "order": null, "visited": false}}, {"type": "Feature", "geometry": {"type": "Point", "coordinates": [629779.0, 5220014.86]}, "properties": {"type": "gap", "gap_m": 19.6, "vineyard_id": "V17", "row_id": "V17-R23", "reachable": true, "id": "T0526", "x": 629779.0, "y": 5220014.86, "order": null, "visited": true}}, {"type": "Feature", "geometry": {"type": "Point", "coordinates": [629775.77, 5220014.08]}, "properties": {"type": "gap", "gap_m": 23.2, "vineyard_id": "V17", "row_id": "V17-R25", "reachable": true, "id": "T0527", "x": 629775.77, "y": 5220014.08, "order": null, "visited": false}}, {"type": "Feature", "geometry": {"type": "Point", "coordinates": [629769.35, 5220017.72]}, "properties": {"type": "gap", "gap_m": 9.7, "vineyard_id": "V17", "row_id": "V17-R26", "reachable": true, "id": "T0528", "x": 629769.35, "y": 5220017.72, "order": 8, "visited": true}}, {"type": "Feature", "geometry": {"type": "Point", "coordinates": [629915.31, 5219877.87]}, "properties": {"type": "gap", "gap_m": 12.1, "vineyard_id": "V18", "row_id": "V18-R06", "reachable": true, "id": "T0540", "x": 629915.31, "y": 5219877.87, "order": null, "visited": false}}, {"type": "Feature", "geometry": {"type": "Point", "coordinates": [629910.5, 5219879.61]}, "properties": {"type": "gap", "gap_m": 23.4, "vineyard_id": "V18", "row_id": "V18-R07", "reachable": true, "id": "T0542", "x": 629910.5, "y": 5219879.61, "order": null, "visited": false}}, {"type": "Feature", "geometry": {"type": "Point", "coordinates": [629967.17, 5219792.96]}, "properties": {"type": "gap", "gap_m": 10.4, "vineyard_id": "V18", "row_id": "V18-R10", "reachable": true, "id": "T0556", "x": 629967.17, "y": 5219792.96, "order": null, "visited": false}}, {"type": "Feature", "geometry": {"type": "Point", "coordinates": [629983.36, 5219758.43]}, "properties": {"type": "gap", "gap_m": 16.8, "vineyard_id": "V19", "row_id": "V19-R02", "reachable": true, "id": "T0559", "x": 629983.36, "y": 5219758.43, "order": 10, "visited": true}}, {"type": "Feature", "geometry": {"type": "Point", "coordinates": [629950.65, 5219797.02]}, "properties": {"type": "gap", "gap_m": 10.7, "vineyard_id": "V19", "row_id": "V19-R03", "reachable": true, "id": "T0563", "x": 629950.65, "y": 5219797.02, "order": null, "visited": true}}, {"type": "Feature", "geometry": {"type": "Point", "coordinates": [630026.71, 5219772.4]}, "properties": {"type": "gap", "gap_m": 9.9, "vineyard_id": "V21", "row_id": "V21-R02", "reachable": true, "id": "T0571", "x": 630026.71, "y": 5219772.4, "order": 24, "visited": true}}, {"type": "Feature", "geometry": {"type": "Point", "coordinates": [630024.07, 5219769.87]}, "properties": {"type": "gap", "gap_m": 12.9, "vineyard_id": "V21", "row_id": "V21-R03", "reachable": true, "id": "T0574", "x": 630024.07, "y": 5219769.87, "order": 23, "visited": true}}, {"type": "Feature", "geometry": {"type": "Point", "coordinates": [630021.65, 5219767.32]}, "properties": {"type": "gap", "gap_m": 10.6, "vineyard_id": "V21", "row_id": "V21-R04", "reachable": true, "id": "T0578", "x": 630021.65, "y": 5219767.32, "order": 22, "visited": true}}, {"type": "Feature", "geometry": {"type": "Point", "coordinates": [629988.95, 5219760.13]}, "properties": {"type": "gap", "gap_m": 26.4, "vineyard_id": "V21", "row_id": "V21-R11", "reachable": true, "id": "T0594", "x": 629988.95, "y": 5219760.13, "order": 11, "visited": true}}, {"type": "Feature", "geometry": {"type": "Point", "coordinates": [630218.5, 5219682.18]}, "properties": {"type": "gap", "gap_m": 9.7, "vineyard_id": "V24", "row_id": "V24-R05", "reachable": true, "id": "T0602", "x": 630218.5, "y": 5219682.18, "order": null, "visited": false}}, {"type": "Feature", "geometry": {"type": "Point", "coordinates": [630022.77, 5219626.4]}, "properties": {"type": "gap", "gap_m": 9.7, "vineyard_id": "V28", "row_id": "V28-R11", "reachable": true, "id": "T0624", "x": 630022.77, "y": 5219626.4, "order": null, "visited": false}}, {"type": "Feature", "geometry": {"type": "Point", "coordinates": [630137.41, 5219522.44]}, "properties": {"type": "gap", "gap_m": 13.7, "vineyard_id": "V33", "row_id": "V33-R09", "reachable": true, "id": "T0642", "x": 630137.41, "y": 5219522.44, "order": null, "visited": false}}, {"type": "Feature", "geometry": {"type": "Point", "coordinates": [630135.65, 5219422.31]}, "properties": {"type": "gap", "gap_m": 10.3, "vineyard_id": "V35", "row_id": "V35-R03", "reachable": true, "id": "T0657", "x": 630135.65, "y": 5219422.31, "order": null, "visited": false}}, {"type": "Feature", "geometry": {"type": "Point", "coordinates": [630122.17, 5219401.97]}, "properties": {"type": "gap", "gap_m": 16.7, "vineyard_id": "V35", "row_id": "V35-R04", "reachable": true, "id": "T0663", "x": 630122.17, "y": 5219401.97, "order": 21, "visited": true}}, {"type": "Feature", "geometry": {"type": "Point", "coordinates": [630112.26, 5219389.18]}, "properties": {"type": "gap", "gap_m": 9.0, "vineyard_id": "V35", "row_id": "V35-R04", "reachable": true, "id": "T0664", "x": 630112.26, "y": 5219389.18, "order": null, "visited": true}}, {"type": "Feature", "geometry": {"type": "Point", "coordinates": [630333.33, 5219447.47]}, "properties": {"type": "gap", "gap_m": 8.1, "vineyard_id": "V36", "row_id": "V36-R04", "reachable": true, "id": "T0672", "x": 630333.33, "y": 5219447.47, "order": null, "visited": false}}, {"type": "Feature", "geometry": {"type": "Point", "coordinates": [630356.38, 5219425.76]}, "properties": {"type": "gap", "gap_m": 8.3, "vineyard_id": "V36", "row_id": "V36-R05", "reachable": true, "id": "T0674", "x": 630356.38, "y": 5219425.76, "order": null, "visited": false}}, {"type": "Feature", "geometry": {"type": "Point", "coordinates": [630278.05, 5219420.37]}, "properties": {"type": "gap", "gap_m": 8.7, "vineyard_id": "V41", "row_id": "V41-R03", "reachable": true, "id": "T0703", "x": 630278.05, "y": 5219420.37, "order": null, "visited": false}}, {"type": "Feature", "geometry": {"type": "Point", "coordinates": [630287.86, 5219424.7]}, "properties": {"type": "gap", "gap_m": 8.0, "vineyard_id": "V41", "row_id": "V41-R04", "reachable": true, "id": "T0704", "x": 630287.86, "y": 5219424.7, "order": null, "visited": false}}, {"type": "Feature", "geometry": {"type": "Point", "coordinates": [630289.95, 5219420.98]}, "properties": {"type": "gap", "gap_m": 12.6, "vineyard_id": "V41", "row_id": "V41-R05", "reachable": true, "id": "T0706", "x": 630289.95, "y": 5219420.98, "order": null, "visited": false}}, {"type": "Feature", "geometry": {"type": "Point", "coordinates": [630305.87, 5219389.15]}, "properties": {"type": "gap", "gap_m": 11.4, "vineyard_id": "V41", "row_id": "V41-R17", "reachable": true, "id": "T0708", "x": 630305.87, "y": 5219389.15, "order": null, "visited": false}}, {"type": "Feature", "geometry": {"type": "Point", "coordinates": [630313.8, 5219357.58]}, "properties": {"type": "gap", "gap_m": 8.8, "vineyard_id": "V41", "row_id": "V41-R23", "reachable": true, "id": "T0713", "x": 630313.8, "y": 5219357.58, "order": null, "visited": false}}, {"type": "Feature", "geometry": {"type": "Point", "coordinates": [630321.67, 5219365.89]}, "properties": {"type": "gap", "gap_m": 9.1, "vineyard_id": "V41", "row_id": "V41-R24", "reachable": true, "id": "T0714", "x": 630321.67, "y": 5219365.89, "order": null, "visited": false}}, {"type": "Feature", "geometry": {"type": "Point", "coordinates": [630229.82, 5219325.23]}, "properties": {"type": "gap", "gap_m": 13.6, "vineyard_id": "V42", "row_id": "V42-R04", "reachable": true, "id": "T0728", "x": 630229.82, "y": 5219325.23, "order": null, "visited": false}}, {"type": "Feature", "geometry": {"type": "Point", "coordinates": [630230.43, 5219321.3]}, "properties": {"type": "gap", "gap_m": 20.3, "vineyard_id": "V42", "row_id": "V42-R05", "reachable": true, "id": "T0734", "x": 630230.43, "y": 5219321.3, "order": null, "visited": false}}, {"type": "Feature", "geometry": {"type": "Point", "coordinates": [630221.61, 5219307.27]}, "properties": {"type": "gap", "gap_m": 10.3, "vineyard_id": "V42", "row_id": "V42-R05", "reachable": true, "id": "T0735", "x": 630221.61, "y": 5219307.27, "order": null, "visited": false}}, {"type": "Feature", "geometry": {"type": "Point", "coordinates": [630233.66, 5219321.29]}, "properties": {"type": "gap", "gap_m": 8.6, "vineyard_id": "V42", "row_id": "V42-R06", "reachable": true, "id": "T0739", "x": 630233.66, "y": 5219321.29, "order": 12, "visited": true}}, {"type": "Feature", "geometry": {"type": "Point", "coordinates": [630259.48, 5219357.02]}, "properties": {"type": "gap", "gap_m": 9.1, "vineyard_id": "V42", "row_id": "V42-R07", "reachable": true, "id": "T0741", "x": 630259.48, "y": 5219357.02, "order": null, "visited": true}}, {"type": "Feature", "geometry": {"type": "Point", "coordinates": [630230.01, 5219311.09]}, "properties": {"type": "gap", "gap_m": 10.7, "vineyard_id": "V42", "row_id": "V42-R07", "reachable": true, "id": "T0744", "x": 630230.01, "y": 5219311.09, "order": null, "visited": true}}, {"type": "Feature", "geometry": {"type": "Point", "coordinates": [630248.86, 5219331.0]}, "properties": {"type": "gap", "gap_m": 10.9, "vineyard_id": "V42", "row_id": "V42-R09", "reachable": true, "id": "T0751", "x": 630248.86, "y": 5219331.0, "order": null, "visited": true}}, {"type": "Feature", "geometry": {"type": "Point", "coordinates": [630232.29, 5219305.41]}, "properties": {"type": "gap", "gap_m": 35.3, "vineyard_id": "V42", "row_id": "V42-R09", "reachable": true, "id": "T0753", "x": 630232.29, "y": 5219305.41, "order": 13, "visited": true}}, {"type": "Feature", "geometry": {"type": "Point", "coordinates": [630237.56, 5219308.74]}, "properties": {"type": "gap", "gap_m": 16.4, "vineyard_id": "V42", "row_id": "V42-R10", "reachable": true, "id": "T0758", "x": 630237.56, "y": 5219308.74, "order": 18, "visited": true}}, {"type": "Feature", "geometry": {"type": "Point", "coordinates": [630230.23, 5219297.32]}, "properties": {"type": "gap", "gap_m": 9.2, "vineyard_id": "V42", "row_id": "V42-R10", "reachable": true, "id": "T0759", "x": 630230.23, "y": 5219297.32, "order": 19, "visited": true}}, {"type": "Feature", "geometry": {"type": "Point", "coordinates": [630224.76, 5219288.8]}, "properties": {"type": "gap", "gap_m": 8.1, "vineyard_id": "V42", "row_id": "V42-R10", "reachable": true, "id": "T0760", "x": 630224.76, "y": 5219288.8, "order": 20, "visited": true}}, {"type": "Feature", "geometry": {"type": "Point", "coordinates": [630267.81, 5219350.88]}, "properties": {"type": "gap", "gap_m": 11.2, "vineyard_id": "V42", "row_id": "V42-R11", "reachable": true, "id": "T0761", "x": 630267.81, "y": 5219350.88, "order": 14, "visited": true}}, {"type": "Feature", "geometry": {"type": "Point", "coordinates": [630267.45, 5219345.18]}, "properties": {"type": "gap", "gap_m": 10.0, "vineyard_id": "V42", "row_id": "V42-R12", "reachable": true, "id": "T0764", "x": 630267.45, "y": 5219345.18, "order": null, "visited": true}}, {"type": "Feature", "geometry": {"type": "Point", "coordinates": [630255.08, 5219325.86]}, "properties": {"type": "gap", "gap_m": 13.0, "vineyard_id": "V42", "row_id": "V42-R12", "reachable": true, "id": "T0765", "x": 630255.08, "y": 5219325.86, "order": 15, "visited": true}}, {"type": "Feature", "geometry": {"type": "Point", "coordinates": [630248.19, 5219315.06]}, "properties": {"type": "gap", "gap_m": 9.6, "vineyard_id": "V42", "row_id": "V42-R12", "reachable": true, "id": "T0766", "x": 630248.19, "y": 5219315.06, "order": 16, "visited": true}}, {"type": "Feature", "geometry": {"type": "Point", "coordinates": [630251.11, 5219314.76]}, "properties": {"type": "gap", "gap_m": 8.8, "vineyard_id": "V42", "row_id": "V42-R13", "reachable": true, "id": "T0774", "x": 630251.11, "y": 5219314.76, "order": 17, "visited": true}}, {"type": "Feature", "geometry": {"type": "Point", "coordinates": [630237.78, 5219293.88]}, "properties": {"type": "gap", "gap_m": 13.7, "vineyard_id": "V42", "row_id": "V42-R13", "reachable": true, "id": "T0776", "x": 630237.78, "y": 5219293.88, "order": null, "visited": true}}, {"type": "Feature", "geometry": {"type": "Point", "coordinates": [630198.67, 5219266.93]}, "properties": {"type": "gap", "gap_m": 8.5, "vineyard_id": "V46", "row_id": "V46-R11", "reachable": true, "id": "T0797", "x": 630198.67, "y": 5219266.93, "order": null, "visited": false}}, {"type": "Feature", "geometry": {"type": "Point", "coordinates": [630178.0, 5219265.34]}, "properties": {"type": "gap", "gap_m": 12.9, "vineyard_id": "V46", "row_id": "V46-R16", "reachable": true, "id": "T0805", "x": 630178.0, "y": 5219265.34, "order": null, "visited": false}}, {"type": "Feature", "geometry": {"type": "Point", "coordinates": [630185.13, 5219256.45]}, "properties": {"type": "gap", "gap_m": 8.2, "vineyard_id": "V46", "row_id": "V46-R17", "reachable": true, "id": "T0816", "x": 630185.13, "y": 5219256.45, "order": null, "visited": false}}, {"type": "Feature", "geometry": {"type": "Point", "coordinates": [630168.69, 5219258.66]}, "properties": {"type": "gap", "gap_m": 10.8, "vineyard_id": "V46", "row_id": "V46-R20", "reachable": true, "id": "T0826", "x": 630168.69, "y": 5219258.66, "order": null, "visited": false}}, {"type": "Feature", "geometry": {"type": "Point", "coordinates": [630173.99, 5219247.67]}, "properties": {"type": "gap", "gap_m": 9.7, "vineyard_id": "V46", "row_id": "V46-R22", "reachable": true, "id": "T0831", "x": 630173.99, "y": 5219247.67, "order": null, "visited": false}}, {"type": "Feature", "geometry": {"type": "Point", "coordinates": [630196.7, 5219229.94]}, "properties": {"type": "gap", "gap_m": 10.2, "vineyard_id": "V46", "row_id": "V46-R22", "reachable": true, "id": "T0834", "x": 630196.7, "y": 5219229.94, "order": null, "visited": false}}, {"type": "Feature", "geometry": {"type": "Point", "coordinates": [629533.62, 5220443.4]}, "properties": {"type": "waste", "vineyard_id": "", "row_id": "", "reachable": true, "id": "W002", "x": 629533.62, "y": 5220443.4, "order": null, "visited": false}}, {"type": "Feature", "geometry": {"type": "Point", "coordinates": [629588.85, 5220304.12]}, "properties": {"type": "waste", "vineyard_id": "", "row_id": "", "reachable": true, "id": "W003", "x": 629588.85, "y": 5220304.12, "order": null, "visited": false}}, {"type": "Feature", "geometry": {"type": "Point", "coordinates": [629786.58, 5220162.2]}, "properties": {"type": "waste", "vineyard_id": "", "row_id": "", "reachable": true, "id": "W004", "x": 629786.58, "y": 5220162.2, "order": null, "visited": false}}, {"type": "Feature", "geometry": {"type": "Point", "coordinates": [629849.69, 5220135.33]}, "properties": {"type": "waste", "vineyard_id": "", "row_id": "", "reachable": true, "id": "W005", "x": 629849.69, "y": 5220135.33, "order": null, "visited": false}}, {"type": "Feature", "geometry": {"type": "Point", "coordinates": [629837.83, 5220046.28]}, "properties": {"type": "waste", "vineyard_id": "V17", "row_id": "", "reachable": true, "id": "W006", "x": 629837.83, "y": 5220046.28, "order": null, "visited": false}}, {"type": "Feature", "geometry": {"type": "Point", "coordinates": [629876.47, 5220047.1]}, "properties": {"type": "waste", "vineyard_id": "", "row_id": "", "reachable": true, "id": "W008", "x": 629876.47, "y": 5220047.1, "order": null, "visited": false}}]}