{"type": "FeatureCollection", "crs": {"type": "name", "properties": {"name": "urn:ogc:def:crs:EPSG::32635"}}, "features": [{"type": "Feature", "properties": {"length_m": 7529.5, "mode": "inspector", "start": [629504.7, 5220250.75], "custom_start": false, "target_types": "gap,waste", "targets_total": 79, "targets_visited": 46, "outside_share": 0.0165, "row_walls": true, "minutes_at_4kmh": 112.9}, "geometry": {"type": "LineString", "coordinates": [[629504.7, 5220250.75], [629504.75, 5220250.65], [629509.75, 5220236.65], [629510.25, 5220232.65], [629511.25, 5220231.65], [629529.75, 5220207.15], [629530.75, 5220205.65], [629530.75, 5220204.65], [629530.25, 5220204.65], [629529.75, 5220204.15], [629529.25, 5220204.65], [629528.75, 5220205.15], [629518.25, 5220218.15], [629517.75, 5220218.65], [629518.25, 5220218.15], [629523.25, 5220211.65], [629528.75, 5220205.15], [629529.25, 5220204.65], [629529.75, 5220204.15], [629530.25, 5220203.65], [629530.75, 5220204.15], [629533.25, 5220202.15], [629534.25, 5220201.15], [629535.25, 5220199.65], [629535.75, 5220198.15], [629544.75, 5220188.15], [629561.75, 5220165.65], [629601.25, 5220178.65], [629600.25, 5220181.65], [629599.75, 5220182.15], [629590.25, 5220194.65], [629585.75, 5220200.65], [629584.75, 5220202.15], [629580.25, 5220209.65], [629578.25, 5220212.15], [629576.25, 5220214.65], [629574.25, 5220217.15], [629572.25, 5220219.65], [629571.75, 5220220.65], [629584.75, 5220200.65], [629589.25, 5220196.15], [629589.75, 5220193.65], [629600.75, 5220180.65], [629602.25, 5220178.65], [629618.75, 5220184.15], [629617.75, 5220187.65], [629617.25, 5220188.15], [629610.75, 5220196.65], [629609.75, 5220198.15], [629607.75, 5220200.65], [629606.25, 5220202.65], [629605.25, 5220204.15], [629599.25, 5220211.15], [629598.25, 5220212.15], [629599.25, 5220211.15], [629604.25, 5220204.65], [629607.25, 5220200.65], [629607.75, 5220199.15], [629609.75, 5220196.65], [629618.25, 5220186.15], [629619.75, 5220184.15], [629621.75, 5220185.15], [629620.75, 5220188.65], [629619.75, 5220189.65], [629616.25, 5220194.15], [629604.25, 5220209.15], [629602.75, 5220210.65], [629604.25, 5220209.15], [629606.25, 5220206.65], [629607.75, 5220204.65], [629610.75, 5220200.15], [629621.25, 5220186.65], [629621.75, 5220185.15], [629598.75, 5220175.65], [629612.75, 5220157.15], [629619.25, 5220148.65], [629620.25, 5220147.15], [629623.75, 5220142.65], [629628.75, 5220136.15], [629640.25, 5220124.15], [629643.75, 5220116.65], [629647.25, 5220112.15], [629652.25, 5220105.65], [629663.75, 5220091.65], [629664.75, 5220090.65], [629676.25, 5220091.65], [629679.75, 5220087.15], [629692.25, 5220070.65], [629707.75, 5220050.15], [629717.25, 5220037.65], [629737.75, 5220011.65], [629739.75, 5220009.65], [629772.25, 5220016.65], [629774.75, 5220014.15], [629775.75, 5220014.15], [629781.75, 5220004.65], [629933.75, 5219829.15], [629936.25, 5219826.65], [629937.75, 5219826.65], [629938.75, 5219825.65], [629939.75, 5219824.15], [629943.25, 5219820.15], [629946.75, 5219815.65], [629950.75, 5219810.65], [629951.75, 5219809.15], [629956.25, 5219803.65], [629957.25, 5219802.15], [629959.25, 5219799.65], [629966.25, 5219792.15], [629964.25, 5219786.15], [629965.75, 5219781.65], [629977.75, 5219767.15], [629979.75, 5219764.65], [629984.25, 5219759.15], [629988.75, 5219754.15], [629990.25, 5219752.65], [629990.75, 5219752.65], [629991.25, 5219753.15], [629990.25, 5219758.65], [629988.75, 5219760.15], [629998.75, 5219749.15], [629999.25, 5219747.65], [629995.25, 5219742.15], [629969.25, 5219714.65], [629902.75, 5219659.65], [629969.75, 5219602.15], [629978.25, 5219595.65], [629982.75, 5219592.65], [630029.75, 5219554.65], [630030.75, 5219553.65], [630034.75, 5219548.65], [630008.25, 5219514.65], [630007.25, 5219513.65], [630005.25, 5219511.15], [630000.25, 5219505.15], [629998.25, 5219502.65], [629993.25, 5219496.65], [629991.25, 5219494.15], [629983.75, 5219485.15], [629981.75, 5219482.65], [629981.25, 5219481.65], [629981.75, 5219481.15], [630078.25, 5219400.15], [630078.25, 5219399.15], [630078.75, 5219398.65], [630079.25, 5219398.65], [630079.75, 5219399.15], [630080.25, 5219398.15], [630080.25, 5219397.65], [630080.75, 5219397.15], [630081.25, 5219397.15], [630081.75, 5219397.65], [630083.75, 5219395.65], [630085.25, 5219394.65], [630084.75, 5219394.15], [630084.75, 5219393.65], [630085.75, 5219392.65], [630087.25, 5219393.15], [630089.25, 5219390.65], [630089.25, 5219389.65], [630089.75, 5219389.15], [630092.25, 5219389.65], [630098.75, 5219383.15], [630104.25, 5219378.65], [630104.75, 5219378.65], [630107.25, 5219381.15], [630110.75, 5219385.65], [630112.75, 5219388.15], [630116.25, 5219392.65], [630118.25, 5219395.15], [630119.25, 5219396.65], [630121.25, 5219399.15], [630122.75, 5219401.15], [630122.75, 5219401.65], [630122.25, 5219399.65], [630112.25, 5219387.15], [630108.75, 5219382.65], [630106.75, 5219380.15], [630106.75, 5219379.15], [630107.25, 5219378.65], [630220.75, 5219284.65], [630232.75, 5219304.15], [630232.75, 5219304.65], [630232.25, 5219302.65], [630230.25, 5219299.15], [630227.25, 5219294.65], [630222.25, 5219286.65], [630220.25, 5219283.65], [630220.25, 5219282.65], [630220.75, 5219282.15], [630222.25, 5219282.65], [630224.25, 5219286.15], [630226.25, 5219289.15], [630234.25, 5219301.65], [630237.75, 5219307.15], [630238.25, 5219308.15], [630238.75, 5219308.65], [630248.25, 5219323.65], [630253.25, 5219331.15], [630263.75, 5219347.65], [630272.25, 5219360.15], [630274.25, 5219358.15], [630271.75, 5219355.15], [630269.25, 5219351.15], [630268.25, 5219350.15], [630267.75, 5219348.15], [630263.25, 5219340.65], [630255.25, 5219328.15], [630254.75, 5219326.65], [630255.25, 5219328.65], [630264.75, 5219344.15], [630269.75, 5219352.15], [630271.75, 5219355.15], [630271.75, 5219355.65], [630274.25, 5219358.15], [630272.75, 5219362.65], [630272.25, 5219363.15], [630270.75, 5219364.15], [630271.75, 5219365.15], [630271.75, 5219366.15], [630271.25, 5219366.65], [630269.25, 5219365.65], [630260.25, 5219350.65], [630257.25, 5219346.15], [630250.25, 5219335.15], [630248.75, 5219332.65], [630248.25, 5219331.65], [630247.75, 5219331.15], [630244.75, 5219326.65], [630239.25, 5219318.15], [630229.25, 5219302.65], [630221.25, 5219290.15], [630221.25, 5219289.65], [630220.75, 5219289.15], [630218.25, 5219286.65], [630206.25, 5219296.65], [630210.25, 5219303.15], [630222.75, 5219322.65], [630226.75, 5219329.15], [630239.75, 5219349.65], [630257.25, 5219375.15], [630258.25, 5219375.15], [630258.75, 5219374.65], [630256.75, 5219368.65], [630256.25, 5219368.15], [630253.25, 5219363.65], [630241.25, 5219344.65], [630238.25, 5219340.15], [630231.25, 5219329.15], [630229.25, 5219326.15], [630229.25, 5219325.65], [630228.25, 5219324.65], [630227.25, 5219323.15], [630217.25, 5219307.15], [630217.25, 5219306.65], [630218.25, 5219305.65], [630221.25, 5219308.15], [630222.25, 5219311.65], [630222.75, 5219312.15], [630223.75, 5219313.65], [630229.25, 5219321.15], [630229.75, 5219321.65], [630230.25, 5219323.65], [630240.75, 5219340.15], [630248.75, 5219352.65], [630263.25, 5219374.15], [630264.25, 5219375.15], [630264.75, 5219375.15], [630265.25, 5219374.65], [630262.25, 5219367.65], [630261.75, 5219367.15], [630253.75, 5219354.65], [630241.75, 5219335.65], [630238.75, 5219331.15], [630229.25, 5219316.15], [630225.25, 5219310.15], [630222.75, 5219307.15], [630222.25, 5219306.65], [630222.75, 5219307.15], [630248.25, 5219347.15], [630251.25, 5219351.65], [630261.75, 5219367.15], [630262.25, 5219367.65], [630263.25, 5219368.65], [630265.25, 5219369.65], [630266.25, 5219370.65], [630267.25, 5219372.15], [630268.75, 5219374.65], [630272.75, 5219380.65], [630274.75, 5219384.15], [630275.75, 5219385.65], [630277.25, 5219387.65], [630279.25, 5219390.65], [630280.75, 5219392.65], [630282.75, 5219395.65], [630284.25, 5219397.65], [630286.25, 5219400.65], [630287.75, 5219402.65], [630289.75, 5219405.65], [630291.25, 5219407.65], [630293.25, 5219410.65], [630294.75, 5219412.65], [630296.75, 5219415.65], [630298.25, 5219417.65], [630300.25, 5219420.65], [630301.75, 5219422.65], [630302.75, 5219424.15], [630307.75, 5219430.15], [630307.25, 5219431.65], [630294.25, 5219444.15], [630270.25, 5219460.65], [630226.75, 5219485.65], [630067.75, 5219619.15], [630067.75, 5219619.65], [630067.25, 5219620.15], [630032.75, 5219648.65], [630011.25, 5219671.65], [629976.75, 5219711.15], [629973.75, 5219717.15], [629995.75, 5219743.15], [629999.25, 5219747.65], [630000.75, 5219750.15], [630020.25, 5219775.65], [630021.25, 5219773.65], [630023.25, 5219769.65], [630022.25, 5219767.65], [630021.25, 5219778.15], [630020.75, 5219778.65], [630021.75, 5219784.15], [630032.25, 5219806.65], [630030.25, 5219815.15], [629921.25, 5219952.65], [629815.75, 5220096.65], [629822.75, 5220104.65], [629836.25, 5220114.65], [629853.75, 5220131.15], [629849.75, 5220135.15], [629853.25, 5220130.65], [629838.25, 5220120.15], [629812.75, 5220099.65], [629749.75, 5220166.65], [629708.75, 5220210.65], [629697.75, 5220209.15], [629670.25, 5220198.15], [629669.75, 5220197.65], [629670.75, 5220194.65], [629674.25, 5220189.65], [629679.25, 5220183.15], [629682.75, 5220178.65], [629697.75, 5220159.15], [629707.75, 5220148.15], [629708.75, 5220147.15], [629709.75, 5220145.15], [629712.75, 5220139.65], [629716.25, 5220135.15], [629731.25, 5220115.65], [629732.75, 5220113.65], [629732.75, 5220112.65], [629732.25, 5220112.15], [629728.75, 5220111.15], [629727.75, 5220112.65], [629725.75, 5220115.15], [629720.75, 5220121.65], [629714.25, 5220130.15], [629709.25, 5220136.65], [629702.25, 5220145.65], [629697.25, 5220152.15], [629690.75, 5220160.65], [629685.75, 5220167.15], [629680.75, 5220173.15], [629680.25, 5220173.65], [629680.75, 5220173.15], [629687.75, 5220164.15], [629692.75, 5220157.65], [629699.75, 5220148.65], [629709.75, 5220135.65], [629717.75, 5220125.15], [629728.25, 5220111.65], [629729.25, 5220111.15], [629730.25, 5220112.15], [629729.25, 5220115.15], [629728.75, 5220115.65], [629726.75, 5220118.15], [629723.25, 5220122.65], [629708.25, 5220142.15], [629706.25, 5220144.65], [629698.25, 5220155.15], [629693.25, 5220161.65], [629689.75, 5220166.15], [629681.75, 5220175.65], [629681.25, 5220176.15], [629674.75, 5220185.65], [629674.75, 5220186.15], [629673.25, 5220187.65], [629671.25, 5220190.15], [629663.75, 5220200.15], [629661.75, 5220203.15], [629660.25, 5220205.15], [629659.25, 5220206.65], [629649.75, 5220219.15], [629648.75, 5220220.65], [629642.25, 5220229.15], [629632.25, 5220242.15], [629628.75, 5220246.65], [629627.75, 5220248.15], [629625.75, 5220250.65], [629608.25, 5220273.15], [629606.75, 5220275.15], [629606.75, 5220275.65], [629604.75, 5220277.65], [629603.25, 5220279.65], [629602.25, 5220281.15], [629643.75, 5220293.65], [629528.25, 5220439.15], [629528.25, 5220439.65], [629533.25, 5220443.65], [629526.75, 5220441.15], [629513.75, 5220453.65], [629504.25, 5220435.65], [629495.25, 5220434.15], [629461.75, 5220462.65], [629457.25, 5220469.15], [629453.75, 5220493.15], [629452.25, 5220509.65], [629451.75, 5220521.65], [629454.75, 5220521.65], [629455.25, 5220522.15], [629479.25, 5220528.15], [629479.75, 5220528.65], [629481.25, 5220528.65], [629453.25, 5220521.65], [629451.25, 5220521.65], [629451.25, 5220526.15], [629454.75, 5220526.15], [629455.25, 5220526.65], [629477.75, 5220532.15], [629478.75, 5220532.15], [629479.25, 5220532.65], [629481.25, 5220533.15], [629481.75, 5220533.65], [629481.25, 5220533.15], [629453.25, 5220526.15], [629450.75, 5220526.15], [629450.75, 5220530.65], [629454.75, 5220530.65], [629455.25, 5220531.15], [629458.75, 5220531.65], [629460.25, 5220532.15], [629478.25, 5220536.65], [629479.25, 5220536.65], [629475.75, 5220536.15], [629466.25, 5220534.65], [629464.75, 5220534.15], [629453.25, 5220530.65], [629450.25, 5220530.15], [629449.75, 5220490.65], [629436.75, 5220513.15], [629421.75, 5220527.15], [629196.25, 5220693.15], [629192.75, 5220698.15], [629192.75, 5220703.65], [629200.25, 5220708.65], [629235.25, 5220729.15], [629236.75, 5220730.65], [629236.25, 5220735.65], [629235.75, 5220736.15], [629234.25, 5220740.65], [629236.75, 5220732.15], [629236.75, 5220730.65], [629236.25, 5220730.15], [629234.75, 5220730.65], [629231.25, 5220741.15], [629231.25, 5220741.65], [629231.75, 5220738.15], [629232.25, 5220736.65], [629233.75, 5220733.15], [629234.75, 5220730.15], [629234.75, 5220729.15], [629234.25, 5220728.65], [629230.25, 5220726.15], [629223.75, 5220722.65], [629220.75, 5220721.15], [629216.75, 5220718.65], [629213.75, 5220717.65], [629210.75, 5220718.15], [629209.25, 5220720.65], [629208.75, 5220722.15], [629207.75, 5220724.15], [629205.75, 5220729.15], [629203.25, 5220735.15], [629197.25, 5220750.15], [629195.75, 5220753.65], [629195.25, 5220755.15], [629194.25, 5220757.15], [629190.25, 5220767.15], [629188.75, 5220770.65], [629172.75, 5220810.65], [629171.25, 5220814.15], [629170.75, 5220815.65], [629169.25, 5220818.65], [629166.75, 5220824.65], [629164.75, 5220829.65], [629165.75, 5220831.15], [629164.75, 5220837.15], [629164.25, 5220837.65], [629163.75, 5220839.15], [629162.75, 5220841.15], [629161.25, 5220844.65], [629160.25, 5220847.65], [629160.25, 5220848.15], [629159.75, 5220848.65], [629158.75, 5220850.65], [629153.75, 5220862.65], [629152.25, 5220866.15], [629149.75, 5220870.65], [629151.25, 5220867.65], [629152.75, 5220864.15], [629155.75, 5220856.65], [629158.25, 5220850.65], [629165.25, 5220833.65], [629165.75, 5220831.15], [629165.25, 5220830.65], [629164.75, 5220829.15], [629179.75, 5220792.15], [629183.75, 5220782.15], [629186.25, 5220776.15], [629190.25, 5220766.15], [629192.75, 5220760.15], [629194.75, 5220755.15], [629197.25, 5220749.15], [629205.25, 5220729.15], [629206.75, 5220725.65], [629210.25, 5220717.15], [629205.75, 5220712.65], [629200.75, 5220710.15], [629145.25, 5220683.15], [629144.75, 5220683.65], [629143.25, 5220685.65], [629142.25, 5220687.15], [629141.25, 5220688.65], [629133.75, 5220700.15], [629132.75, 5220701.65], [629125.25, 5220713.15], [629124.25, 5220714.65], [629116.75, 5220726.15], [629109.75, 5220737.15], [629102.75, 5220747.65], [629095.25, 5220759.15], [629094.75, 5220760.15], [629094.25, 5220760.65], [629092.25, 5220764.15], [629090.25, 5220767.15], [629087.75, 5220770.65], [629086.75, 5220772.15], [629085.75, 5220773.65], [629080.75, 5220781.15], [629081.25, 5220781.65], [629081.75, 5220782.15], [629092.25, 5220787.65], [629094.75, 5220784.15], [629100.25, 5220770.65], [629100.75, 5220770.15], [629098.75, 5220771.15], [629094.75, 5220784.65], [629094.75, 5220785.15], [629092.25, 5220787.65], [629081.75, 5220782.15], [629081.25, 5220781.65], [629080.75, 5220781.15], [629092.75, 5220763.15], [629093.75, 5220761.65], [629094.25, 5220760.65], [629094.75, 5220760.15], [629098.25, 5220752.65], [629099.25, 5220751.15], [629106.75, 5220739.65], [629107.75, 5220738.15], [629115.25, 5220726.65], [629128.25, 5220706.65], [629130.25, 5220703.65], [629144.75, 5220683.65], [629145.25, 5220683.15], [629162.25, 5220694.15], [629131.75, 5220774.15], [629120.25, 5220803.15], [629118.75, 5220806.65], [629117.25, 5220809.65], [629107.25, 5220799.15], [629111.75, 5220793.15], [629112.75, 5220792.15], [629120.75, 5220778.65], [629126.75, 5220771.65], [629127.25, 5220771.15], [629126.75, 5220771.65], [629125.75, 5220773.15], [629124.25, 5220775.15], [629121.25, 5220779.65], [629119.75, 5220781.65], [629117.75, 5220784.65], [629116.25, 5220786.65], [629115.25, 5220788.15], [629110.75, 5220793.15], [629110.25, 5220793.65], [629107.25, 5220799.65], [629117.25, 5220809.65], [629117.75, 5220809.15], [629140.25, 5220748.65], [629141.25, 5220742.15], [629145.25, 5220735.15], [629145.75, 5220733.65], [629146.75, 5220732.15], [629150.75, 5220722.15], [629154.25, 5220713.15], [629155.25, 5220710.15], [629164.75, 5220694.65], [629182.75, 5220700.15], [629187.75, 5220701.65], [629190.75, 5220698.15], [629210.25, 5220607.65], [629211.25, 5220606.65], [629214.25, 5220594.65], [629216.25, 5220586.15], [629220.75, 5220563.15], [629221.25, 5220559.65], [629234.75, 5220496.15], [629233.25, 5220494.65], [629232.75, 5220495.15], [629231.25, 5220496.15], [629225.75, 5220499.15], [629219.25, 5220502.65], [629208.25, 5220508.65], [629187.75, 5220519.65], [629181.25, 5220523.15], [629175.75, 5220526.15], [629170.75, 5220529.15], [629170.25, 5220529.65], [629170.75, 5220529.15], [629172.25, 5220528.15], [629178.75, 5220524.65], [629186.25, 5220520.65], [629192.75, 5220517.15], [629201.75, 5220512.15], [629207.25, 5220509.15], [629211.75, 5220506.65], [629218.25, 5220503.15], [629229.25, 5220497.15], [629232.25, 5220495.65], [629233.25, 5220494.65], [629235.25, 5220494.15], [629239.25, 5220482.65], [629238.25, 5220477.65], [629234.25, 5220478.15], [629233.75, 5220478.65], [629231.25, 5220480.15], [629220.25, 5220486.15], [629216.25, 5220488.15], [629215.75, 5220488.15], [629217.75, 5220487.65], [629221.25, 5220486.15], [629223.75, 5220484.65], [629229.25, 5220481.65], [629237.75, 5220477.15], [629238.25, 5220478.65], [629239.25, 5220483.15], [629227.25, 5220542.15], [629228.25, 5220542.65], [629272.25, 5220517.65], [629397.75, 5220421.65], [629478.25, 5220368.65], [629500.25, 5220316.65], [629504.75, 5220250.65], [629504.7, 5220250.75]]}}]}