{"type": "FeatureCollection", "crs": {"type": "name", "properties": {"name": "urn:ogc:def:crs:EPSG::32635"}}, "features": [{"type": "Feature", "properties": {"length_m": 11189.7, "mode": "inspector", "start": [629504.7, 5220250.75], "custom_start": false, "target_types": "gap,waste", "targets_total": 300, "targets_visited": 149, "outside_share": 0.0167, "row_walls": true, "minutes_at_4kmh": 167.8}, "geometry": {"type": "LineString", "coordinates": [[629504.7, 5220250.75], [629504.75, 5220250.65], [629509.75, 5220236.65], [629511.75, 5220235.15], [629513.75, 5220236.65], [629515.25, 5220236.15], [629530.75, 5220215.15], [629535.25, 5220209.15], [629535.75, 5220208.15], [629529.75, 5220217.65], [629524.25, 5220223.15], [629523.75, 5220225.15], [629514.75, 5220236.65], [629513.75, 5220236.65], [629512.75, 5220235.65], [629516.75, 5220230.15], [629517.75, 5220229.15], [629518.75, 5220226.15], [629517.75, 5220223.15], [629529.75, 5220207.15], [629530.75, 5220205.65], [629530.75, 5220204.65], [629530.25, 5220204.65], [629529.75, 5220204.15], [629529.25, 5220204.65], [629528.75, 5220205.15], [629524.75, 5220209.65], [629523.75, 5220210.65], [629521.25, 5220215.15], [629521.25, 5220215.65], [629517.75, 5220218.65], [629518.25, 5220218.15], [629523.25, 5220211.65], [629528.75, 5220205.15], [629529.25, 5220204.65], [629529.75, 5220204.15], [629530.25, 5220203.65], [629530.75, 5220204.15], [629533.25, 5220202.15], [629534.25, 5220201.15], [629535.25, 5220199.65], [629535.75, 5220198.15], [629544.75, 5220188.15], [629557.75, 5220169.65], [629559.25, 5220167.65], [629560.25, 5220165.15], [629566.75, 5220164.65], [629575.75, 5220150.65], [629576.75, 5220149.65], [629578.25, 5220147.65], [629583.25, 5220140.65], [629586.75, 5220136.15], [629588.25, 5220134.15], [629588.75, 5220133.15], [629578.75, 5220148.65], [629576.75, 5220151.15], [629570.25, 5220159.65], [629567.25, 5220163.65], [629566.75, 5220165.15], [629567.25, 5220166.15], [629581.75, 5220170.65], [629583.25, 5220169.15], [629588.25, 5220162.65], [629596.25, 5220152.15], [629606.75, 5220138.65], [629608.75, 5220136.15], [629617.25, 5220126.15], [629618.75, 5220124.65], [629619.25, 5220122.65], [629622.75, 5220117.65], [629624.75, 5220115.15], [629632.75, 5220104.65], [629643.25, 5220090.65], [629644.25, 5220089.15], [629647.75, 5220086.15], [629662.25, 5220090.15], [629663.25, 5220091.15], [629656.75, 5220101.15], [629649.25, 5220112.15], [629645.75, 5220116.65], [629640.75, 5220123.15], [629640.25, 5220124.15], [629643.75, 5220116.65], [629647.25, 5220112.15], [629652.25, 5220105.65], [629663.75, 5220091.65], [629664.75, 5220090.65], [629673.25, 5220090.65], [629682.25, 5220077.65], [629690.25, 5220067.15], [629699.25, 5220055.15], [629695.75, 5220062.65], [629672.25, 5220091.15], [629663.25, 5220088.15], [629664.25, 5220086.15], [629667.75, 5220081.15], [629692.75, 5220048.65], [629692.75, 5220048.15], [629694.25, 5220047.65], [629695.75, 5220045.15], [629697.25, 5220044.15], [629700.75, 5220043.15], [629726.25, 5220018.15], [629727.75, 5220018.65], [629735.75, 5220010.15], [629736.25, 5220009.65], [629766.75, 5220015.15], [629769.25, 5220017.65], [629778.25, 5220020.65], [629780.75, 5220020.65], [629784.75, 5220013.65], [629788.25, 5220010.15], [629787.25, 5220011.15], [629781.25, 5220018.15], [629780.25, 5220019.15], [629779.25, 5220018.65], [629778.75, 5220018.15], [629779.25, 5220015.15], [629778.75, 5220014.65], [629775.75, 5220014.15], [629781.75, 5220004.65], [629933.75, 5219829.15], [629936.25, 5219826.65], [629937.75, 5219826.65], [629938.75, 5219825.65], [629939.75, 5219824.15], [629943.25, 5219820.15], [629946.75, 5219815.65], [629950.75, 5219810.65], [629951.75, 5219809.15], [629956.25, 5219803.65], [629957.25, 5219802.15], [629959.25, 5219799.65], [629966.25, 5219792.15], [629964.25, 5219786.15], [629965.75, 5219781.65], [629977.75, 5219767.15], [629979.75, 5219764.65], [629984.25, 5219759.15], [629988.75, 5219754.15], [629990.25, 5219752.65], [629990.75, 5219752.65], [629991.25, 5219753.15], [629990.25, 5219758.65], [629988.75, 5219760.15], [629998.75, 5219749.15], [629999.25, 5219747.65], [629995.25, 5219742.15], [629969.25, 5219714.65], [629906.75, 5219664.15], [629898.75, 5219661.15], [629891.25, 5219664.15], [629890.75, 5219664.15], [629890.25, 5219663.65], [629889.75, 5219663.15], [629889.25, 5219662.65], [629888.75, 5219662.15], [629888.25, 5219661.65], [629887.25, 5219660.65], [629874.75, 5219647.65], [629868.75, 5219641.65], [629875.75, 5219648.65], [629888.25, 5219661.65], [629888.75, 5219662.15], [629889.25, 5219662.65], [629889.75, 5219663.15], [629890.25, 5219663.65], [629890.75, 5219664.15], [629900.75, 5219660.65], [629969.75, 5219602.15], [629973.75, 5219599.15], [629976.75, 5219599.65], [629979.75, 5219604.65], [629980.75, 5219605.65], [629983.25, 5219608.65], [629986.25, 5219612.15], [629989.25, 5219615.65], [629992.25, 5219619.15], [629995.25, 5219622.65], [629996.25, 5219624.15], [629989.75, 5219615.15], [629988.75, 5219614.15], [629985.25, 5219610.15], [629982.75, 5219607.15], [629979.75, 5219603.65], [629976.75, 5219600.15], [629975.75, 5219598.65], [629975.75, 5219598.15], [629978.25, 5219595.65], [629980.75, 5219596.15], [629981.75, 5219599.15], [629983.75, 5219601.15], [629989.75, 5219608.15], [629992.25, 5219611.15], [629998.25, 5219618.15], [630000.75, 5219621.15], [630003.75, 5219624.65], [630006.75, 5219628.15], [630006.75, 5219628.65], [630006.25, 5219626.65], [629997.25, 5219616.15], [629985.75, 5219602.65], [629982.75, 5219599.15], [629980.75, 5219596.65], [629981.75, 5219593.65], [629982.75, 5219592.65], [630029.75, 5219554.65], [630030.75, 5219553.65], [630034.75, 5219548.65], [630008.25, 5219514.65], [630007.25, 5219513.65], [630005.25, 5219511.15], [630000.25, 5219505.15], [629998.25, 5219502.65], [629993.25, 5219496.65], [629991.25, 5219494.15], [629983.75, 5219485.15], [629981.75, 5219482.65], [629981.25, 5219481.65], [629981.75, 5219481.15], [630078.25, 5219400.15], [630078.25, 5219399.15], [630078.75, 5219398.65], [630079.25, 5219398.65], [630079.75, 5219399.15], [630080.25, 5219398.15], [630080.25, 5219397.65], [630080.75, 5219397.15], [630081.25, 5219397.15], [630081.75, 5219397.65], [630083.75, 5219395.65], [630085.25, 5219394.65], [630084.75, 5219394.15], [630084.75, 5219393.65], [630085.75, 5219392.65], [630087.25, 5219393.15], [630089.25, 5219390.65], [630089.25, 5219389.65], [630089.75, 5219389.15], [630092.25, 5219389.65], [630098.75, 5219383.15], [630104.25, 5219378.65], [630104.75, 5219378.65], [630107.25, 5219381.15], [630110.75, 5219385.65], [630112.75, 5219388.15], [630116.25, 5219392.65], [630118.25, 5219395.15], [630119.25, 5219396.65], [630121.25, 5219399.15], [630122.75, 5219401.15], [630122.75, 5219401.65], [630122.25, 5219399.65], [630112.25, 5219387.15], [630108.75, 5219382.65], [630106.75, 5219380.15], [630106.75, 5219379.15], [630107.25, 5219378.65], [630183.75, 5219312.15], [630177.75, 5219305.15], [630176.75, 5219305.15], [630176.25, 5219304.65], [630176.25, 5219304.15], [630176.75, 5219303.65], [630172.75, 5219298.15], [630172.25, 5219298.65], [630171.75, 5219299.15], [630171.25, 5219299.65], [630170.75, 5219300.15], [630169.75, 5219300.65], [630169.25, 5219300.15], [630168.75, 5219296.15], [630169.25, 5219295.65], [630169.75, 5219295.15], [630170.25, 5219294.65], [630168.75, 5219292.65], [630168.25, 5219289.15], [630170.25, 5219288.15], [630171.25, 5219287.15], [630173.75, 5219285.15], [630176.25, 5219283.15], [630177.25, 5219282.65], [630178.25, 5219281.65], [630183.25, 5219277.65], [630192.25, 5219269.65], [630192.75, 5219269.15], [630198.25, 5219266.15], [630198.75, 5219265.65], [630203.75, 5219261.65], [630208.25, 5219258.15], [630210.25, 5219256.65], [630210.75, 5219256.65], [630208.75, 5219257.15], [630203.75, 5219260.65], [630199.25, 5219264.15], [630194.25, 5219268.15], [630189.75, 5219271.65], [630184.75, 5219275.65], [630180.25, 5219279.15], [630170.75, 5219287.65], [630169.75, 5219288.65], [630168.25, 5219289.15], [630158.75, 5219276.65], [630158.75, 5219276.15], [630159.25, 5219275.65], [630161.75, 5219273.65], [630166.25, 5219270.15], [630167.25, 5219269.65], [630169.75, 5219267.15], [630171.75, 5219265.65], [630172.75, 5219265.15], [630171.75, 5219265.65], [630159.25, 5219275.65], [630158.75, 5219276.15], [630160.75, 5219282.65], [630170.25, 5219294.65], [630169.75, 5219295.15], [630169.25, 5219295.65], [630168.75, 5219296.15], [630169.25, 5219300.15], [630169.75, 5219300.65], [630170.75, 5219300.15], [630171.25, 5219299.65], [630171.75, 5219299.15], [630172.25, 5219298.65], [630172.75, 5219298.15], [630176.75, 5219303.65], [630176.25, 5219304.15], [630176.25, 5219304.65], [630176.75, 5219305.15], [630178.25, 5219305.15], [630181.25, 5219308.15], [630185.75, 5219311.15], [630205.75, 5219297.15], [630209.25, 5219301.65], [630210.25, 5219303.15], [630228.75, 5219330.65], [630229.25, 5219331.15], [630229.75, 5219333.15], [630242.25, 5219353.65], [630249.25, 5219364.65], [630250.75, 5219367.15], [630250.75, 5219367.65], [630250.25, 5219365.65], [630248.75, 5219362.15], [630246.75, 5219359.15], [630236.25, 5219342.65], [630224.25, 5219323.65], [630222.25, 5219320.65], [630206.75, 5219296.15], [630220.75, 5219282.15], [630222.25, 5219282.65], [630224.25, 5219286.15], [630226.25, 5219289.15], [630229.75, 5219294.65], [630230.75, 5219296.15], [630230.75, 5219296.65], [630231.25, 5219297.15], [630234.25, 5219301.65], [630237.75, 5219307.15], [630238.25, 5219308.15], [630238.75, 5219308.65], [630248.25, 5219323.65], [630253.25, 5219331.15], [630263.75, 5219347.65], [630272.25, 5219360.15], [630274.25, 5219358.15], [630271.75, 5219355.15], [630265.25, 5219343.65], [630263.25, 5219340.65], [630257.75, 5219332.15], [630244.75, 5219311.65], [630234.25, 5219295.15], [630225.75, 5219283.15], [630225.25, 5219281.15], [630227.25, 5219279.15], [630229.75, 5219283.15], [630230.25, 5219283.65], [630230.75, 5219284.15], [630231.25, 5219286.15], [630233.25, 5219289.65], [630244.75, 5219306.65], [630245.25, 5219307.15], [630247.25, 5219311.65], [630248.75, 5219314.15], [630248.75, 5219314.65], [630248.25, 5219312.65], [630243.75, 5219305.15], [630242.75, 5219303.65], [630232.25, 5219287.15], [630227.25, 5219279.15], [630225.25, 5219281.15], [630226.25, 5219284.15], [630226.75, 5219284.65], [630228.75, 5219287.65], [630252.75, 5219325.15], [630254.25, 5219327.65], [630264.75, 5219344.15], [630269.75, 5219352.15], [630271.75, 5219355.15], [630274.75, 5219357.65], [630298.75, 5219333.15], [630300.75, 5219331.65], [630304.75, 5219331.15], [630308.75, 5219338.65], [630316.75, 5219351.65], [630317.75, 5219353.15], [630320.75, 5219358.15], [630321.75, 5219359.65], [630324.25, 5219363.65], [630333.75, 5219378.65], [630334.25, 5219379.15], [630336.25, 5219382.65], [630336.75, 5219383.15], [630337.25, 5219383.65], [630337.75, 5219384.15], [630338.25, 5219384.15], [630338.75, 5219383.65], [630336.75, 5219377.15], [630335.75, 5219376.15], [630330.25, 5219367.15], [630329.25, 5219365.65], [630322.75, 5219355.15], [630320.75, 5219352.15], [630310.25, 5219335.15], [630309.25, 5219333.65], [630308.25, 5219331.65], [630307.75, 5219331.15], [630307.75, 5219330.65], [630306.75, 5219329.65], [630306.25, 5219328.15], [630305.25, 5219326.65], [630304.75, 5219326.15], [630304.25, 5219325.65], [630304.25, 5219325.15], [630303.75, 5219324.65], [630303.25, 5219323.15], [630301.25, 5219319.65], [630299.25, 5219316.65], [630291.75, 5219305.15], [630284.25, 5219293.65], [630281.75, 5219289.65], [630281.25, 5219288.65], [630285.25, 5219295.15], [630286.25, 5219296.15], [630286.75, 5219298.15], [630288.75, 5219301.65], [630293.75, 5219309.15], [630301.25, 5219320.65], [630303.75, 5219324.65], [630304.25, 5219325.15], [630304.25, 5219325.65], [630304.75, 5219326.15], [630305.25, 5219326.65], [630305.75, 5219328.15], [630306.75, 5219329.65], [630307.75, 5219330.65], [630307.75, 5219331.15], [630308.25, 5219331.65], [630311.25, 5219338.15], [630317.25, 5219347.65], [630319.25, 5219351.15], [630320.25, 5219352.65], [630324.75, 5219360.15], [630325.75, 5219361.65], [630337.25, 5219378.65], [630337.75, 5219379.15], [630338.75, 5219383.65], [630338.25, 5219384.15], [630337.75, 5219384.15], [630337.25, 5219383.65], [630336.75, 5219383.15], [630336.25, 5219382.65], [630333.25, 5219377.65], [630332.25, 5219376.15], [630329.25, 5219371.15], [630328.25, 5219369.65], [630326.75, 5219367.15], [630322.75, 5219360.65], [630321.75, 5219359.15], [630317.25, 5219351.65], [630316.25, 5219350.15], [630310.75, 5219341.15], [630309.75, 5219339.65], [630308.25, 5219337.15], [630304.75, 5219331.65], [630304.25, 5219331.15], [630300.75, 5219331.65], [630298.75, 5219333.15], [630298.25, 5219333.65], [630298.75, 5219336.65], [630299.75, 5219337.65], [630300.75, 5219339.15], [630302.25, 5219341.65], [630305.25, 5219346.65], [630306.25, 5219348.15], [630312.75, 5219357.65], [630313.25, 5219358.15], [630312.75, 5219357.65], [630310.75, 5219354.65], [630299.75, 5219337.65], [630298.75, 5219336.15], [630298.25, 5219335.65], [630297.25, 5219336.65], [630272.25, 5219363.15], [630271.75, 5219363.15], [630270.25, 5219361.65], [630269.25, 5219360.15], [630265.75, 5219354.65], [630265.75, 5219354.15], [630265.25, 5219353.65], [630261.25, 5219347.65], [630257.75, 5219342.15], [630257.75, 5219341.65], [630257.25, 5219341.15], [630254.25, 5219336.65], [630254.25, 5219336.15], [630253.75, 5219335.65], [630250.75, 5219331.15], [630244.75, 5219321.65], [630244.25, 5219320.65], [630243.75, 5219320.15], [630240.75, 5219315.65], [630233.25, 5219305.15], [630232.75, 5219304.65], [630232.25, 5219302.65], [630230.25, 5219299.15], [630227.25, 5219294.65], [630220.75, 5219284.65], [630213.75, 5219290.65], [630220.75, 5219298.65], [630221.25, 5219299.15], [630226.75, 5219308.65], [630227.75, 5219310.15], [630227.75, 5219310.65], [630229.25, 5219311.15], [630229.75, 5219313.15], [630232.75, 5219318.15], [630233.75, 5219319.65], [630234.25, 5219320.65], [630237.25, 5219323.65], [630237.75, 5219325.65], [630245.75, 5219338.15], [630256.25, 5219354.65], [630264.25, 5219367.15], [630263.25, 5219368.65], [630261.75, 5219367.15], [630253.75, 5219354.65], [630241.75, 5219335.65], [630238.75, 5219331.15], [630229.25, 5219316.15], [630225.25, 5219310.15], [630222.75, 5219307.15], [630222.25, 5219306.65], [630222.75, 5219307.15], [630248.25, 5219347.15], [630251.25, 5219351.65], [630261.75, 5219367.15], [630262.25, 5219367.65], [630263.25, 5219368.65], [630265.25, 5219369.65], [630266.25, 5219370.65], [630267.25, 5219372.15], [630268.75, 5219374.65], [630272.75, 5219380.65], [630274.75, 5219384.15], [630275.75, 5219385.65], [630277.25, 5219387.65], [630279.25, 5219390.65], [630280.75, 5219392.65], [630282.75, 5219395.65], [630284.25, 5219397.65], [630286.25, 5219400.65], [630287.75, 5219402.65], [630289.75, 5219405.65], [630291.25, 5219407.65], [630293.25, 5219410.65], [630294.75, 5219412.65], [630296.75, 5219415.65], [630298.25, 5219417.65], [630300.25, 5219420.65], [630301.75, 5219422.65], [630302.75, 5219424.15], [630307.75, 5219430.15], [630307.25, 5219431.65], [630294.25, 5219444.15], [630270.25, 5219460.65], [630226.75, 5219485.65], [630067.75, 5219619.15], [630067.75, 5219619.65], [630067.25, 5219620.15], [630032.75, 5219648.65], [630011.25, 5219671.65], [629976.75, 5219711.15], [629973.75, 5219717.15], [629995.75, 5219743.15], [629999.25, 5219747.65], [630000.75, 5219750.15], [630020.25, 5219775.65], [630021.25, 5219773.65], [630023.25, 5219769.65], [630022.25, 5219767.65], [630021.25, 5219778.15], [630020.75, 5219778.65], [630021.25, 5219782.15], [630024.25, 5219785.15], [630024.75, 5219784.65], [630026.75, 5219778.65], [630027.25, 5219778.15], [630027.25, 5219773.15], [630026.75, 5219776.65], [630024.25, 5219788.65], [630032.25, 5219806.65], [630029.75, 5219816.65], [629920.25, 5219954.15], [629799.75, 5220109.65], [629788.25, 5220120.65], [629752.25, 5220113.15], [629751.25, 5220114.15], [629747.75, 5220118.65], [629747.75, 5220119.15], [629748.25, 5220117.15], [629752.75, 5220112.65], [629787.25, 5220121.65], [629752.75, 5220160.15], [629752.25, 5220160.65], [629750.25, 5220162.15], [629745.75, 5220172.15], [629708.75, 5220210.65], [629698.25, 5220207.15], [629699.75, 5220202.65], [629700.75, 5220201.65], [629704.25, 5220197.15], [629709.25, 5220190.65], [629715.75, 5220182.15], [629720.75, 5220175.65], [629725.75, 5220169.15], [629730.75, 5220162.65], [629735.75, 5220156.15], [629736.25, 5220155.15], [629731.75, 5220162.65], [629726.75, 5220169.15], [629720.25, 5220177.65], [629710.25, 5220190.65], [629706.75, 5220195.15], [629699.25, 5220204.65], [629695.75, 5220207.15], [629670.75, 5220198.65], [629669.75, 5220197.65], [629670.75, 5220194.65], [629674.25, 5220189.65], [629679.25, 5220183.15], [629682.75, 5220178.65], [629697.75, 5220159.15], [629707.75, 5220148.15], [629708.75, 5220147.15], [629709.75, 5220145.15], [629712.75, 5220139.65], [629716.25, 5220135.15], [629731.25, 5220115.65], [629732.75, 5220113.65], [629732.75, 5220112.65], [629732.25, 5220112.15], [629731.75, 5220112.15], [629730.25, 5220113.65], [629723.25, 5220122.65], [629708.25, 5220142.15], [629706.25, 5220144.65], [629695.25, 5220158.15], [629694.25, 5220159.15], [629688.25, 5220168.15], [629681.75, 5220175.65], [629681.25, 5220176.15], [629674.75, 5220185.65], [629674.75, 5220186.15], [629673.25, 5220187.65], [629671.25, 5220190.15], [629663.75, 5220200.15], [629661.75, 5220203.15], [629660.25, 5220205.15], [629659.25, 5220206.65], [629649.75, 5220219.15], [629648.75, 5220220.65], [629642.25, 5220229.15], [629632.25, 5220242.15], [629628.75, 5220246.65], [629627.75, 5220248.15], [629625.75, 5220250.65], [629608.25, 5220273.15], [629606.75, 5220275.15], [629606.75, 5220275.65], [629604.75, 5220277.65], [629601.75, 5220281.15], [629558.25, 5220267.15], [629560.75, 5220261.65], [629569.75, 5220249.65], [629572.25, 5220246.15], [629582.25, 5220233.15], [629585.75, 5220228.65], [629590.75, 5220222.15], [629594.25, 5220217.65], [629597.25, 5220213.65], [629598.25, 5220212.15], [629599.25, 5220211.15], [629604.25, 5220204.65], [629607.25, 5220200.65], [629607.75, 5220199.15], [629609.75, 5220196.65], [629618.25, 5220186.15], [629618.75, 5220184.15], [629601.25, 5220178.65], [629600.25, 5220181.65], [629599.75, 5220182.15], [629589.25, 5220192.65], [629589.75, 5220194.65], [629584.75, 5220202.15], [629580.25, 5220209.65], [629578.25, 5220212.15], [629576.25, 5220214.65], [629574.25, 5220217.15], [629572.25, 5220219.65], [629571.75, 5220220.65], [629584.75, 5220200.65], [629589.25, 5220196.15], [629589.75, 5220193.65], [629600.75, 5220180.65], [629600.75, 5220178.15], [629580.25, 5220172.15], [629578.25, 5220177.15], [629577.75, 5220177.65], [629575.75, 5220180.15], [629567.75, 5220190.65], [629558.25, 5220203.15], [629554.75, 5220207.65], [629554.25, 5220208.15], [629542.25, 5220224.65], [629539.25, 5220228.65], [629538.75, 5220229.65], [629537.75, 5220230.65], [629531.75, 5220238.65], [629530.75, 5220240.15], [629530.25, 5220240.65], [629522.75, 5220248.65], [629522.25, 5220249.15], [629521.75, 5220250.65], [629519.25, 5220253.15], [629514.75, 5220251.15], [629515.75, 5220249.15], [629516.25, 5220248.65], [629519.75, 5220244.15], [629532.25, 5220228.65], [629532.75, 5220228.15], [629533.25, 5220227.65], [629540.25, 5220216.65], [629541.25, 5220215.65], [629547.75, 5220208.15], [629548.25, 5220207.65], [629547.75, 5220208.15], [629541.25, 5220216.65], [629529.25, 5220232.65], [629520.25, 5220244.65], [629519.25, 5220246.15], [629515.75, 5220249.15], [629513.75, 5220251.15], [629505.75, 5220250.15], [629504.25, 5220253.15], [629499.25, 5220325.15], [629487.75, 5220346.15], [629477.25, 5220369.65], [629369.25, 5220441.15], [629320.25, 5220479.65], [629250.75, 5220530.65], [629227.75, 5220542.65], [629227.25, 5220541.15], [629239.25, 5220482.15], [629237.75, 5220477.15], [629231.25, 5220480.15], [629225.75, 5220483.15], [629220.25, 5220486.15], [629214.75, 5220489.65], [629214.25, 5220490.15], [629215.75, 5220488.15], [629217.75, 5220487.65], [629221.25, 5220486.15], [629224.75, 5220483.65], [629225.25, 5220483.15], [629227.25, 5220482.65], [629237.75, 5220477.15], [629238.25, 5220478.65], [629239.25, 5220483.15], [629220.25, 5220566.15], [629218.25, 5220568.15], [629215.25, 5220569.65], [629218.25, 5220569.15], [629218.75, 5220569.65], [629218.25, 5220571.65], [629215.25, 5220572.15], [629214.25, 5220573.15], [629204.75, 5220578.15], [629195.25, 5220583.15], [629187.75, 5220587.15], [629181.25, 5220590.65], [629175.75, 5220593.65], [629169.25, 5220597.15], [629167.25, 5220598.15], [629166.75, 5220598.15], [629168.75, 5220597.65], [629172.25, 5220595.65], [629191.75, 5220585.15], [629197.25, 5220582.15], [629204.75, 5220578.15], [629214.25, 5220573.15], [629217.25, 5220571.65], [629218.25, 5220571.65], [629215.75, 5220590.65], [629215.25, 5220591.15], [629212.75, 5220601.65], [629198.75, 5220660.15], [629189.75, 5220699.65], [629186.25, 5220701.65], [629154.25, 5220689.15], [629145.25, 5220683.15], [629144.75, 5220683.65], [629143.25, 5220685.65], [629142.25, 5220687.15], [629141.25, 5220688.65], [629133.75, 5220700.15], [629132.75, 5220701.65], [629125.25, 5220713.15], [629124.25, 5220714.65], [629116.75, 5220726.15], [629109.75, 5220737.15], [629102.75, 5220747.65], [629095.25, 5220759.15], [629094.75, 5220760.15], [629094.25, 5220760.65], [629092.25, 5220764.15], [629090.25, 5220767.15], [629087.75, 5220770.65], [629086.75, 5220772.15], [629085.75, 5220773.65], [629080.75, 5220781.15], [629081.25, 5220781.65], [629081.75, 5220782.15], [629096.25, 5220792.15], [629096.75, 5220792.15], [629097.25, 5220791.65], [629097.75, 5220791.15], [629098.25, 5220790.65], [629099.25, 5220789.15], [629100.25, 5220787.65], [629101.25, 5220786.15], [629101.75, 5220785.15], [629098.75, 5220790.15], [629096.75, 5220792.15], [629096.25, 5220792.15], [629095.75, 5220791.65], [629092.25, 5220787.65], [629094.75, 5220784.15], [629098.25, 5220772.65], [629098.75, 5220771.15], [629100.75, 5220770.15], [629100.25, 5220770.65], [629096.25, 5220780.65], [629094.75, 5220784.15], [629094.75, 5220785.15], [629092.25, 5220787.65], [629081.75, 5220782.15], [629081.25, 5220781.65], [629080.75, 5220781.15], [629092.75, 5220763.15], [629093.75, 5220761.65], [629094.25, 5220760.65], [629094.75, 5220760.15], [629098.25, 5220752.65], [629099.25, 5220751.15], [629106.75, 5220739.65], [629107.75, 5220738.15], [629115.25, 5220726.65], [629128.25, 5220706.65], [629130.25, 5220703.65], [629142.25, 5220687.15], [629143.25, 5220686.15], [629143.25, 5220685.65], [629144.25, 5220684.65], [629143.75, 5220682.65], [629142.75, 5220681.65], [629103.25, 5220661.15], [629102.75, 5220660.65], [629099.25, 5220659.15], [629098.75, 5220659.65], [629097.75, 5220661.15], [629097.25, 5220662.15], [629096.75, 5220659.65], [629095.75, 5220658.65], [629094.75, 5220658.65], [629094.75, 5220659.15], [629094.25, 5220659.65], [629093.25, 5220663.15], [629077.75, 5220686.65], [629073.25, 5220693.65], [629063.25, 5220708.65], [629056.25, 5220719.65], [629044.25, 5220737.65], [629036.75, 5220747.15], [629036.25, 5220747.65], [629035.75, 5220748.15], [629027.25, 5220745.15], [629026.75, 5220745.15], [629026.25, 5220744.65], [629026.25, 5220744.15], [629024.75, 5220743.15], [629024.25, 5220743.15], [629023.25, 5220742.15], [629022.75, 5220741.15], [629022.25, 5220741.65], [629021.75, 5220742.15], [629021.25, 5220742.15], [629020.75, 5220741.65], [629020.75, 5220739.15], [629016.25, 5220734.15], [629017.25, 5220732.65], [629018.25, 5220731.15], [629019.25, 5220729.65], [629020.25, 5220728.15], [629021.25, 5220726.65], [629021.75, 5220725.65], [629016.75, 5220733.65], [629015.25, 5220735.15], [629012.75, 5220734.65], [629007.25, 5220729.15], [629008.25, 5220724.15], [629009.25, 5220723.15], [629010.25, 5220721.65], [629010.75, 5220720.65], [629007.75, 5220727.15], [629007.25, 5220728.65], [629007.25, 5220729.15], [629007.75, 5220729.65], [629012.25, 5220733.65], [629014.25, 5220735.15], [629020.75, 5220740.15], [629020.75, 5220741.65], [629021.25, 5220742.15], [629021.75, 5220742.15], [629022.25, 5220741.65], [629022.75, 5220741.15], [629023.25, 5220742.15], [629024.25, 5220743.15], [629025.25, 5220743.15], [629026.25, 5220744.15], [629026.25, 5220744.65], [629026.75, 5220745.15], [629031.25, 5220745.15], [629035.75, 5220748.15], [629036.25, 5220747.65], [629036.75, 5220747.15], [629038.75, 5220744.15], [629040.25, 5220742.15], [629043.75, 5220736.65], [629075.25, 5220688.65], [629083.25, 5220676.65], [629093.75, 5220660.65], [629094.25, 5220659.65], [629094.75, 5220659.15], [629094.75, 5220658.65], [629101.75, 5220659.65], [629103.75, 5220661.65], [629102.25, 5220664.15], [629101.75, 5220664.65], [629102.25, 5220664.15], [629103.25, 5220662.65], [629104.75, 5220661.65], [629158.75, 5220690.15], [629162.25, 5220694.15], [629143.25, 5220740.65], [629141.25, 5220742.15], [629139.25, 5220754.15], [629120.25, 5220803.15], [629118.75, 5220806.65], [629117.25, 5220809.65], [629107.25, 5220799.15], [629109.75, 5220794.65], [629110.25, 5220793.65], [629110.75, 5220793.15], [629111.75, 5220791.65], [629113.25, 5220789.65], [629116.25, 5220785.15], [629117.75, 5220783.15], [629120.75, 5220778.65], [629126.75, 5220771.65], [629127.25, 5220771.15], [629126.75, 5220771.65], [629125.75, 5220773.15], [629124.25, 5220775.15], [629121.25, 5220779.65], [629119.75, 5220781.65], [629117.75, 5220784.65], [629116.25, 5220786.65], [629113.25, 5220791.15], [629112.75, 5220792.15], [629111.75, 5220793.15], [629109.75, 5220796.15], [629107.75, 5220798.65], [629108.75, 5220803.65], [629116.75, 5220811.65], [629107.75, 5220832.65], [629106.75, 5220836.15], [629105.75, 5220837.65], [629104.75, 5220840.65], [629105.75, 5220842.65], [629103.75, 5220850.15], [629102.25, 5220853.15], [629103.25, 5220854.15], [629103.75, 5220854.15], [629104.25, 5220853.65], [629105.25, 5220854.15], [629104.75, 5220854.65], [629104.75, 5220855.15], [629105.75, 5220856.15], [629106.75, 5220855.65], [629108.75, 5220850.65], [629111.25, 5220844.65], [629113.25, 5220839.65], [629114.75, 5220836.15], [629119.75, 5220824.15], [629122.75, 5220817.15], [629125.75, 5220809.15], [629126.75, 5220807.15], [629128.75, 5220803.65], [629129.25, 5220803.15], [629129.75, 5220799.65], [629130.25, 5220798.15], [629131.75, 5220794.65], [629132.75, 5220792.65], [629135.25, 5220786.65], [629137.25, 5220781.65], [629138.75, 5220778.15], [629141.25, 5220772.15], [629143.25, 5220767.15], [629144.75, 5220763.65], [629144.75, 5220763.15], [629140.25, 5220776.15], [629139.75, 5220776.65], [629134.75, 5220788.65], [629132.75, 5220793.65], [629131.25, 5220797.15], [629129.25, 5220802.15], [629127.75, 5220805.65], [629125.25, 5220811.65], [629124.25, 5220815.15], [629122.25, 5220819.15], [629117.25, 5220831.15], [629115.75, 5220834.65], [629110.75, 5220846.65], [629109.25, 5220850.15], [629106.75, 5220855.65], [629107.25, 5220859.65], [629108.75, 5220861.15], [629109.25, 5220861.15], [629109.75, 5220860.65], [629110.75, 5220858.65], [629115.75, 5220846.65], [629117.25, 5220843.15], [629119.25, 5220838.15], [629120.75, 5220834.65], [629123.25, 5220828.65], [629124.75, 5220825.15], [629129.75, 5220813.15], [629131.75, 5220808.15], [629133.25, 5220804.65], [629135.25, 5220799.65], [629137.75, 5220793.65], [629139.75, 5220788.65], [629139.75, 5220787.65], [629139.25, 5220791.15], [629134.25, 5220803.15], [629132.25, 5220808.15], [629128.75, 5220816.15], [629128.25, 5220817.65], [629128.75, 5220818.15], [629133.75, 5220820.65], [629137.25, 5220820.65], [629137.75, 5220820.15], [629138.75, 5220818.15], [629140.25, 5220814.65], [629146.25, 5220799.65], [629146.75, 5220798.15], [629147.75, 5220796.15], [629149.25, 5220792.65], [629151.25, 5220787.65], [629152.75, 5220784.15], [629154.75, 5220779.15], [629156.25, 5220775.65], [629158.25, 5220770.65], [629160.75, 5220764.65], [629163.75, 5220757.15], [629166.25, 5220751.15], [629168.25, 5220746.15], [629169.75, 5220742.65], [629170.75, 5220739.65], [629170.75, 5220739.15], [629170.25, 5220742.65], [629164.25, 5220756.65], [629158.25, 5220771.65], [629156.75, 5220775.15], [629154.75, 5220780.15], [629152.25, 5220786.15], [629150.25, 5220791.15], [629148.75, 5220794.65], [629141.75, 5220811.15], [629140.75, 5220814.65], [629139.75, 5220816.65], [629138.25, 5220820.15], [629136.25, 5220825.15], [629133.75, 5220831.15], [629132.75, 5220834.15], [629132.25, 5220834.65], [629124.75, 5220852.65], [629119.25, 5220865.65], [629117.25, 5220870.65], [629117.25, 5220872.15], [629117.75, 5220872.65], [629118.25, 5220872.65], [629118.75, 5220872.15], [629119.75, 5220870.15], [629122.75, 5220863.15], [629135.25, 5220833.15], [629139.25, 5220824.65], [629140.25, 5220823.65], [629141.25, 5220824.65], [629136.75, 5220837.65], [629135.25, 5220840.65], [629135.25, 5220841.15], [629135.75, 5220839.15], [629136.75, 5220835.65], [629137.75, 5220833.65], [629142.25, 5220824.65], [629144.75, 5220825.15], [629145.75, 5220826.15], [629146.75, 5220825.15], [629147.25, 5220823.65], [629148.25, 5220821.65], [629150.25, 5220816.65], [629155.25, 5220804.65], [629157.25, 5220799.65], [629158.75, 5220796.15], [629163.75, 5220784.15], [629165.75, 5220779.15], [629167.25, 5220775.65], [629172.25, 5220763.65], [629173.75, 5220760.15], [629175.75, 5220755.15], [629177.25, 5220751.65], [629179.25, 5220747.65], [629179.75, 5220747.15], [629183.75, 5220735.15], [629184.25, 5220734.65], [629186.25, 5220729.65], [629188.75, 5220723.65], [629190.75, 5220718.65], [629192.25, 5220715.15], [629195.25, 5220710.15], [629200.75, 5220709.65], [629202.75, 5220711.15], [629203.75, 5220712.15], [629202.75, 5220717.65], [629202.25, 5220718.15], [629198.25, 5220728.15], [629195.75, 5220734.15], [629193.75, 5220737.65], [629193.25, 5220738.15], [629193.75, 5220737.65], [629194.75, 5220735.65], [629197.25, 5220729.65], [629201.25, 5220719.65], [629204.25, 5220713.15], [629204.75, 5220712.65], [629210.25, 5220713.65], [629215.25, 5220718.65], [629212.75, 5220726.15], [629211.75, 5220728.15], [629210.25, 5220731.65], [629206.25, 5220741.65], [629203.75, 5220747.65], [629201.75, 5220752.65], [629198.25, 5220760.65], [629197.75, 5220761.15], [629196.75, 5220764.15], [629193.25, 5220774.15], [629193.25, 5220774.65], [629192.75, 5220775.15], [629192.25, 5220776.65], [629190.75, 5220779.65], [629188.75, 5220784.65], [629187.25, 5220788.15], [629184.75, 5220794.15], [629183.25, 5220798.65], [629182.75, 5220799.15], [629181.25, 5220802.65], [629178.75, 5220808.65], [629176.75, 5220813.65], [629176.75, 5220814.15], [629176.25, 5220814.65], [629174.75, 5220818.15], [629172.75, 5220823.15], [629171.25, 5220826.65], [629169.25, 5220831.65], [629166.75, 5220837.65], [629164.75, 5220842.65], [629162.25, 5220848.65], [629160.25, 5220853.65], [629158.75, 5220857.15], [629156.75, 5220862.15], [629153.75, 5220869.15], [629153.25, 5220870.65], [629151.75, 5220873.65], [629150.25, 5220877.15], [629149.75, 5220878.65], [629148.25, 5220881.65], [629146.75, 5220885.15], [629146.25, 5220886.65], [629145.75, 5220887.15], [629144.25, 5220887.15], [629143.75, 5220886.65], [629143.75, 5220883.65], [629144.25, 5220883.15], [629146.25, 5220879.15], [629147.75, 5220875.65], [629149.25, 5220872.15], [629149.75, 5220870.65], [629151.25, 5220867.65], [629152.75, 5220864.15], [629155.75, 5220856.65], [629163.25, 5220838.65], [629165.25, 5220833.65], [629165.75, 5220831.15], [629165.25, 5220830.65], [629162.25, 5220829.15], [629162.75, 5220828.15], [629163.25, 5220827.65], [629162.75, 5220828.15], [629162.75, 5220829.65], [629165.25, 5220830.65], [629165.75, 5220831.15], [629164.75, 5220837.15], [629164.25, 5220837.65], [629163.75, 5220839.15], [629162.75, 5220841.15], [629161.25, 5220844.65], [629160.25, 5220847.65], [629160.25, 5220848.15], [629159.75, 5220848.65], [629158.75, 5220850.65], [629156.25, 5220856.65], [629153.75, 5220861.15], [629153.25, 5220861.65], [629151.75, 5220868.15], [629150.75, 5220869.15], [629149.75, 5220870.65], [629149.25, 5220872.65], [629148.75, 5220873.15], [629146.25, 5220880.65], [629143.75, 5220885.65], [629143.75, 5220886.65], [629144.25, 5220887.15], [629146.75, 5220888.65], [629147.75, 5220887.65], [629149.75, 5220883.65], [629152.75, 5220876.65], [629153.25, 5220875.15], [629155.25, 5220872.15], [629155.75, 5220871.65], [629156.25, 5220868.15], [629156.75, 5220867.65], [629158.25, 5220864.15], [629159.25, 5220862.65], [629159.75, 5220862.15], [629163.75, 5220850.15], [629164.75, 5220848.15], [629166.25, 5220844.65], [629168.25, 5220841.15], [629168.75, 5220840.65], [629169.25, 5220837.15], [629169.75, 5220835.65], [629171.25, 5220832.15], [629171.75, 5220830.65], [629173.25, 5220827.65], [629175.25, 5220822.65], [629177.75, 5220816.65], [629179.25, 5220813.15], [629184.25, 5220801.15], [629186.25, 5220796.15], [629187.75, 5220792.65], [629195.25, 5220776.15], [629195.75, 5220775.65], [629196.25, 5220772.15], [629198.25, 5220767.15], [629199.25, 5220764.15], [629199.25, 5220763.65], [629199.75, 5220763.15], [629200.25, 5220761.65], [629201.25, 5220759.65], [629205.25, 5220749.65], [629207.75, 5220743.65], [629217.75, 5220720.65], [629218.25, 5220720.15], [629222.75, 5220721.65], [629224.25, 5220723.15], [629224.25, 5220724.65], [629225.25, 5220725.65], [629226.25, 5220727.15], [629225.75, 5220727.65], [629221.75, 5220737.65], [629220.25, 5220741.15], [629218.25, 5220746.15], [629215.25, 5220752.15], [629214.75, 5220752.65], [629215.25, 5220752.15], [629216.25, 5220750.15], [629218.25, 5220745.15], [629220.25, 5220740.15], [629222.75, 5220734.15], [629226.25, 5220726.15], [629232.25, 5220726.15], [629236.75, 5220730.65], [629236.25, 5220735.65], [629235.75, 5220736.15], [629231.75, 5220746.15], [629229.25, 5220752.15], [629219.25, 5220777.15], [629216.75, 5220783.15], [629212.75, 5220793.15], [629211.25, 5220796.65], [629207.25, 5220806.65], [629205.75, 5220810.15], [629201.75, 5220820.15], [629200.25, 5220823.65], [629198.25, 5220828.65], [629195.75, 5220835.15], [629193.25, 5220839.65], [629192.75, 5220840.15], [629192.25, 5220843.65], [629191.75, 5220845.15], [629192.25, 5220846.65], [629191.75, 5220844.15], [629192.75, 5220840.65], [629193.75, 5220838.65], [629195.25, 5220835.15], [629197.75, 5220829.15], [629205.75, 5220809.15], [629207.25, 5220805.65], [629209.25, 5220800.65], [629211.75, 5220794.15], [629212.75, 5220792.15], [629216.75, 5220782.15], [629219.25, 5220776.15], [629223.25, 5220766.15], [629224.75, 5220762.65], [629228.25, 5220753.65], [629230.25, 5220748.65], [629231.75, 5220745.15], [629235.75, 5220735.15], [629236.75, 5220732.15], [629236.75, 5220730.65], [629236.25, 5220730.15], [629234.75, 5220730.65], [629229.25, 5220746.15], [629227.75, 5220749.15], [629225.75, 5220754.15], [629221.75, 5220764.15], [629219.75, 5220769.15], [629219.25, 5220771.15], [629224.25, 5220756.15], [629224.75, 5220755.65], [629226.75, 5220750.65], [629230.75, 5220742.15], [629231.25, 5220741.65], [629231.75, 5220738.15], [629232.25, 5220736.65], [629233.75, 5220733.15], [629234.75, 5220730.15], [629234.75, 5220729.15], [629234.25, 5220728.65], [629232.25, 5220727.65], [629229.75, 5220728.15], [629229.25, 5220727.65], [629227.75, 5220728.15], [629217.75, 5220754.15], [629216.25, 5220757.65], [629216.25, 5220758.65], [629215.75, 5220759.15], [629213.75, 5220763.15], [629205.75, 5220783.15], [629204.25, 5220786.65], [629193.25, 5220814.15], [629192.75, 5220815.65], [629191.75, 5220817.65], [629190.25, 5220821.15], [629182.75, 5220839.15], [629181.25, 5220842.65], [629176.25, 5220854.65], [629174.75, 5220858.15], [629164.75, 5220882.15], [629162.25, 5220886.65], [629161.75, 5220887.15], [629161.25, 5220890.65], [629158.25, 5220896.15], [629157.25, 5220896.15], [629156.75, 5220895.65], [629157.25, 5220891.15], [629157.75, 5220890.65], [629158.25, 5220889.15], [629159.25, 5220887.15], [629160.75, 5220883.65], [629163.25, 5220877.65], [629165.75, 5220873.65], [629166.25, 5220873.15], [629166.75, 5220869.65], [629168.25, 5220865.15], [629168.25, 5220864.65], [629169.75, 5220864.15], [629178.25, 5220842.15], [629179.75, 5220838.65], [629180.25, 5220836.15], [629179.25, 5220834.15], [629182.25, 5220825.65], [629183.75, 5220822.65], [629186.25, 5220816.65], [629192.25, 5220801.65], [629198.75, 5220785.65], [629202.75, 5220777.15], [629203.25, 5220776.65], [629207.25, 5220764.65], [629207.75, 5220764.15], [629211.75, 5220754.15], [629211.75, 5220753.65], [629212.25, 5220753.15], [629214.25, 5220748.15], [629216.75, 5220742.15], [629218.75, 5220737.15], [629221.25, 5220731.15], [629223.25, 5220726.15], [629224.25, 5220723.15], [629223.75, 5220722.65], [629220.75, 5220721.15], [629216.75, 5220718.65], [629205.75, 5220712.65], [629202.75, 5220711.15], [629200.75, 5220710.15], [629193.75, 5220704.15], [629192.25, 5220697.65], [629202.25, 5220688.15], [629425.75, 5220523.65], [629440.25, 5220508.15], [629449.75, 5220490.65], [629451.25, 5220526.15], [629454.75, 5220526.15], [629455.25, 5220526.65], [629475.75, 5220531.65], [629479.75, 5220532.65], [629481.25, 5220533.15], [629481.75, 5220533.65], [629481.25, 5220533.15], [629479.25, 5220532.65], [629478.75, 5220532.15], [629475.25, 5220531.65], [629453.25, 5220526.15], [629450.75, 5220525.65], [629451.75, 5220521.65], [629454.75, 5220521.65], [629455.25, 5220522.15], [629473.75, 5220526.65], [629479.25, 5220528.15], [629481.25, 5220528.65], [629479.75, 5220528.65], [629479.25, 5220528.15], [629471.25, 5220526.15], [629470.75, 5220525.65], [629467.25, 5220525.15], [629453.25, 5220521.65], [629451.25, 5220521.15], [629452.75, 5220503.65], [629463.75, 5220506.15], [629473.25, 5220508.65], [629475.75, 5220509.15], [629476.25, 5220509.15], [629476.75, 5220509.65], [629485.25, 5220511.65], [629487.75, 5220512.15], [629484.25, 5220511.65], [629460.25, 5220505.65], [629459.25, 5220505.65], [629458.75, 5220505.15], [629455.25, 5220504.65], [629453.25, 5220503.15], [629459.25, 5220447.15], [629487.75, 5220341.15], [629495.75, 5220328.65], [629500.25, 5220316.15], [629504.75, 5220250.65], [629504.7, 5220250.75]]}}]}