{"type": "FeatureCollection", "crs": {"type": "name", "properties": {"name": "urn:ogc:def:crs:EPSG::32635"}}, "features": [{"type": "Feature", "properties": {"length_m": 5093.7, "mode": "inspector", "start": [629504.7, 5220250.75], "custom_start": false, "target_types": "gap,waste", "targets_total": 17, "targets_visited": 8, "outside_share": 0.0113, "row_walls": true, "minutes_at_4kmh": 76.4}, "geometry": {"type": "LineString", "coordinates": [[629504.7, 5220250.75], [629504.75, 5220250.65], [629503.25, 5220238.15], [629503.75, 5220199.65], [629510.75, 5220150.15], [629529.75, 5220128.15], [629543.75, 5220104.65], [629561.25, 5220073.65], [629861.25, 5219692.15], [629876.75, 5219677.15], [629892.25, 5219664.65], [629924.25, 5219641.15], [629969.75, 5219602.15], [629978.25, 5219595.65], [629982.75, 5219592.65], [630029.75, 5219554.65], [630030.75, 5219553.65], [630034.75, 5219548.65], [630008.25, 5219514.65], [630007.25, 5219513.65], [630005.25, 5219511.15], [630000.25, 5219505.15], [629998.25, 5219502.65], [629993.25, 5219496.65], [629991.25, 5219494.15], [629983.75, 5219485.15], [629981.75, 5219482.65], [629981.25, 5219481.65], [629981.75, 5219481.15], [630078.25, 5219400.15], [630078.25, 5219399.15], [630078.75, 5219398.65], [630079.25, 5219398.65], [630079.75, 5219399.15], [630080.25, 5219398.15], [630080.25, 5219397.65], [630080.75, 5219397.15], [630081.25, 5219397.15], [630081.75, 5219397.65], [630083.75, 5219395.65], [630085.25, 5219394.65], [630084.75, 5219394.15], [630084.75, 5219393.65], [630085.75, 5219392.65], [630087.25, 5219393.15], [630089.25, 5219390.65], [630089.25, 5219389.65], [630089.75, 5219389.15], [630092.25, 5219389.65], [630098.75, 5219383.15], [630104.25, 5219378.65], [630183.75, 5219312.15], [630177.75, 5219305.15], [630176.75, 5219305.15], [630176.25, 5219304.65], [630176.25, 5219304.15], [630176.75, 5219303.65], [630172.75, 5219298.15], [630172.25, 5219298.65], [630171.75, 5219299.15], [630171.25, 5219299.65], [630170.75, 5219300.15], [630169.75, 5219300.65], [630169.25, 5219300.15], [630168.75, 5219296.15], [630169.25, 5219295.65], [630169.75, 5219295.15], [630170.25, 5219294.65], [630168.75, 5219292.65], [630159.75, 5219278.15], [630161.75, 5219276.15], [630172.75, 5219268.15], [630177.25, 5219264.65], [630177.75, 5219264.65], [630175.75, 5219265.15], [630168.25, 5219271.15], [630163.75, 5219274.65], [630161.25, 5219276.65], [630159.75, 5219278.15], [630169.75, 5219294.15], [630170.25, 5219294.65], [630169.75, 5219295.15], [630169.25, 5219295.65], [630168.75, 5219296.15], [630169.25, 5219300.15], [630169.75, 5219300.65], [630170.75, 5219300.15], [630171.25, 5219299.65], [630171.75, 5219299.15], [630172.25, 5219298.65], [630172.75, 5219298.15], [630176.75, 5219303.65], [630176.25, 5219304.15], [630176.25, 5219304.65], [630176.75, 5219305.15], [630178.25, 5219305.15], [630181.25, 5219308.15], [630185.75, 5219311.15], [630220.75, 5219284.65], [630232.75, 5219304.15], [630232.75, 5219304.65], [630232.25, 5219302.65], [630230.25, 5219299.15], [630227.25, 5219294.65], [630220.75, 5219284.65], [630104.25, 5219378.65], [630103.75, 5219379.15], [630098.75, 5219383.15], [630098.25, 5219383.65], [630097.75, 5219384.15], [630091.25, 5219389.65], [630089.75, 5219389.15], [630089.25, 5219389.65], [630089.25, 5219391.15], [630086.75, 5219393.15], [630085.75, 5219392.65], [630084.75, 5219393.65], [630084.75, 5219394.15], [630085.25, 5219394.65], [630083.75, 5219395.65], [630081.75, 5219397.65], [630081.25, 5219397.15], [630080.75, 5219397.15], [630080.25, 5219397.65], [630080.25, 5219398.65], [630079.75, 5219399.15], [630079.25, 5219398.65], [630078.75, 5219398.65], [630078.25, 5219399.15], [630078.25, 5219400.65], [629981.75, 5219481.15], [629981.25, 5219481.65], [629985.75, 5219488.65], [629986.25, 5219489.15], [629991.25, 5219495.15], [629993.25, 5219497.65], [629998.25, 5219503.65], [630000.25, 5219506.15], [630005.25, 5219512.15], [630007.25, 5219514.65], [630009.75, 5219517.65], [630012.75, 5219521.15], [630015.25, 5219524.15], [630017.75, 5219527.15], [630020.25, 5219530.15], [630022.75, 5219533.15], [630030.75, 5219543.65], [630034.25, 5219548.15], [630033.75, 5219550.65], [630029.75, 5219554.65], [629928.25, 5219635.15], [629898.75, 5219660.15], [629893.25, 5219662.65], [629891.25, 5219664.15], [629889.75, 5219665.15], [629857.75, 5219694.65], [629845.25, 5219693.65], [629843.75, 5219692.65], [629839.75, 5219696.65], [629837.75, 5219699.65], [629836.25, 5219701.65], [629836.25, 5219702.15], [629835.25, 5219703.15], [629833.75, 5219705.15], [629830.75, 5219709.65], [629829.25, 5219711.65], [629827.25, 5219714.65], [629825.75, 5219716.65], [629823.75, 5219719.65], [629822.25, 5219721.65], [629822.25, 5219722.15], [629822.75, 5219720.15], [629839.75, 5219696.65], [629843.75, 5219692.65], [629856.25, 5219697.15], [629643.75, 5219969.15], [629551.25, 5220090.65], [629526.75, 5220135.15], [629509.75, 5220154.65], [629503.25, 5220229.65], [629503.25, 5220239.65], [629503.75, 5220240.15], [629504.25, 5220240.65], [629504.75, 5220240.15], [629506.75, 5220237.65], [629523.25, 5220215.65], [629529.75, 5220207.15], [629530.75, 5220205.65], [629534.25, 5220201.15], [629535.25, 5220199.65], [629535.75, 5220198.15], [629557.75, 5220169.65], [629563.25, 5220165.65], [629601.25, 5220178.65], [629600.25, 5220181.65], [629599.75, 5220182.15], [629590.25, 5220194.65], [629585.75, 5220200.65], [629584.75, 5220202.15], [629580.25, 5220209.65], [629578.25, 5220212.15], [629576.25, 5220214.65], [629574.25, 5220217.15], [629572.25, 5220219.65], [629571.75, 5220220.65], [629584.75, 5220200.65], [629589.25, 5220196.15], [629589.75, 5220193.65], [629600.75, 5220180.65], [629602.25, 5220178.65], [629617.75, 5220181.65], [629630.25, 5220187.65], [629629.75, 5220189.15], [629629.25, 5220189.65], [629605.75, 5220221.65], [629602.25, 5220226.65], [629602.25, 5220227.15], [629600.75, 5220228.65], [629598.75, 5220231.15], [629588.75, 5220244.15], [629583.25, 5220251.15], [629580.75, 5220254.65], [629569.25, 5220268.65], [629567.75, 5220270.65], [629505.75, 5220250.15], [629504.25, 5220253.15], [629499.25, 5220325.15], [629487.75, 5220346.15], [629477.25, 5220369.65], [629369.25, 5220441.15], [629320.25, 5220479.65], [629250.75, 5220530.65], [629227.75, 5220542.65], [629227.25, 5220541.15], [629234.75, 5220496.15], [629233.25, 5220494.65], [629232.75, 5220495.15], [629231.25, 5220496.15], [629225.75, 5220499.15], [629219.25, 5220502.65], [629208.25, 5220508.65], [629187.75, 5220519.65], [629181.25, 5220523.15], [629175.75, 5220526.15], [629170.75, 5220529.15], [629170.25, 5220529.65], [629170.75, 5220529.15], [629172.25, 5220528.15], [629178.75, 5220524.65], [629186.25, 5220520.65], [629192.75, 5220517.15], [629201.75, 5220512.15], [629207.25, 5220509.15], [629211.75, 5220506.65], [629218.25, 5220503.15], [629229.25, 5220497.15], [629232.25, 5220495.65], [629233.25, 5220494.65], [629234.75, 5220496.15], [629214.75, 5220594.15], [629214.25, 5220595.65], [629198.75, 5220660.15], [629192.25, 5220703.15], [629196.75, 5220706.65], [629237.75, 5220730.65], [629239.25, 5220732.15], [629239.25, 5220733.15], [629234.25, 5220747.65], [629233.25, 5220749.65], [629228.25, 5220761.65], [629224.25, 5220771.65], [629221.75, 5220777.65], [629217.75, 5220787.65], [629215.25, 5220793.65], [629211.25, 5220803.65], [629209.75, 5220807.15], [629209.25, 5220808.65], [629207.75, 5220812.15], [629207.25, 5220813.65], [629206.25, 5220815.65], [629203.75, 5220821.65], [629201.75, 5220826.65], [629199.25, 5220832.65], [629197.25, 5220837.65], [629195.75, 5220840.15], [629195.25, 5220840.65], [629195.75, 5220840.15], [629196.25, 5220838.65], [629197.75, 5220835.15], [629198.75, 5220833.15], [629200.75, 5220828.15], [629203.25, 5220822.15], [629224.75, 5220769.15], [629226.25, 5220765.65], [629229.75, 5220756.65], [629232.25, 5220750.65], [629238.25, 5220735.65], [629239.25, 5220732.65], [629239.25, 5220732.15], [629238.25, 5220731.15], [629230.25, 5220726.15], [629223.75, 5220722.65], [629220.75, 5220721.15], [629216.75, 5220718.65], [629213.75, 5220717.65], [629205.75, 5220712.65], [629200.75, 5220710.15], [629193.75, 5220704.15], [629192.25, 5220697.65], [629202.25, 5220688.15], [629425.75, 5220523.65], [629440.25, 5220508.15], [629451.75, 5220478.15], [629465.75, 5220419.15], [629488.75, 5220339.65], [629495.75, 5220328.65], [629500.25, 5220316.15], [629504.75, 5220250.65], [629504.7, 5220250.75]]}}]}