{"type":"FeatureCollection","crs":{"type":"name","properties":{"name":"urn:ogc:def:crs:EPSG::32635"}},"features":[{"type":"Feature","properties":{"vineyard_id":"V08","status":"red"},"geometry":{"type":"Polygon","coordinates":[[[629448.5,5220541.0],[629451.3,5220541.9],[629452.4,5220543.5],[629452.5,5220546.0],[629451.1,5220547.7],[629450.4,5220550.4],[629468.7,5220555.1],[629469.9,5220556.1],[629470.3,5220557.5],[629473.2,5220558.2],[629474.1,5220557.3],[629475.5,5220557.0],[629482.3,5220558.7],[629483.7,5220557.9],[629485.6,5220558.2],[629486.4,5220556.1],[629488.4,5220555.3],[629503.6,5220559.1],[629504.3,5220554.4],[629504.0,5220542.4],[629504.3,5220532.0],[629453.1,5220519.1],[629452.5,5220521.8],[629452.7,5220525.5],[629452.2,5220526.7],[629451.3,5220527.6],[629450.5,5220533.1],[629452.1,5220534.2],[629452.4,5220536.4],[629451.2,5220538.1],[629449.1,5220538.3],[629448.5,5220541.0]]]}},{"type":"Feature","properties":{"vineyard_id":"V33","status":"red"},"geometry":{"type":"Polygon","coordinates":[[[630144.2,5219552.6],[630143.0,5219550.7],[630143.4,5219548.8],[630145.2,5219546.6],[630146.7,5219546.1],[630151.5,5219542.6],[630145.7,5219535.1],[630145.6,5219533.4],[630146.8,5219531.9],[630145.5,5219530.0],[630145.7,5219528.1],[630147.5,5219526.7],[630149.4,5219526.9],[630155.2,5219533.7],[630157.5,5219532.6],[630159.6,5219533.7],[630162.4,5219531.3],[630163.8,5219530.8],[630165.4,5219531.4],[630166.9,5219533.2],[630169.1,5219531.4],[630164.9,5219526.3],[630164.6,5219524.4],[630165.9,5219522.7],[630167.3,5219522.4],[630168.5,5219522.9],[630170.6,5219521.1],[630170.5,5219518.9],[630166.0,5219513.5],[630165.6,5219511.6],[630166.6,5219510.0],[630168.5,5219509.6],[630170.7,5219507.8],[630148.6,5219480.7],[630145.8,5219483.2],[630144.4,5219483.7],[630142.7,5219483.2],[630140.6,5219480.7],[630138.4,5219480.7],[630137.1,5219481.2],[630133.9,5219480.9],[630132.7,5219480.1],[630126.9,5219473.3],[630124.8,5219475.1],[630127.6,5219478.6],[630127.8,5219479.8],[630127.4,5219481.0],[630125.4,5219482.6],[630123.7,5219482.6],[630122.7,5219482.0],[630120.5,5219479.0],[630118.3,5219481.2],[630118.2,5219482.5],[630118.8,5219483.6],[630118.9,5219484.8],[630117.3,5219486.8],[630136.1,5219510.1],[630136.5,5219511.4],[630135.9,5219513.0],[630133.9,5219514.1],[630132.1,5219513.5],[630119.5,5219497.9],[630114.7,5219501.5],[630113.0,5219503.3],[630108.3,5219506.5],[630104.9,5219507.7],[630102.8,5219506.6],[630101.5,5219507.0],[630100.2,5219506.7],[630098.1,5219508.5],[630099.3,5219510.5],[630099.1,5219511.9],[630098.1,5219513.0],[630099.2,5219514.4],[630099.4,5219515.8],[630099.0,5219517.0],[630097.2,5219518.7],[630095.1,5219519.1],[630092.9,5219520.3],[630090.9,5219519.6],[630087.4,5219521.9],[630086.0,5219521.8],[630084.8,5219520.8],[630082.6,5219522.5],[630085.6,5219526.6],[630085.7,5219528.1],[630084.9,5219529.4],[630095.4,5219542.9],[630095.6,5219544.5],[630094.7,5219546.0],[630104.9,5219559.4],[630106.6,5219558.8],[630108.2,5219559.4],[630117.3,5219571.0],[630119.5,5219569.3],[630118.8,5219567.7],[630119.3,5219566.1],[630121.9,5219563.9],[630118.5,5219559.2],[630118.5,5219557.8],[630119.5,5219556.5],[630114.7,5219550.3],[630114.3,5219548.9],[630115.1,5219547.1],[630118.8,5219544.7],[630118.2,5219542.5],[630119.9,5219540.4],[630121.0,5219540.0],[630122.5,5219540.2],[630124.9,5219542.7],[630125.5,5219544.6],[630124.3,5219546.5],[630134.5,5219559.3],[630137.7,5219556.5],[630139.9,5219556.3],[630144.2,5219552.6]],[[630143.9,5219525.4],[630141.7,5219525.3],[630140.2,5219523.4],[630140.5,5219521.3],[630142.2,5219520.1],[630144.1,5219520.3],[630145.7,5219522.2],[630145.5,5219524.1],[630143.9,5219525.4]]]}},{"type":"Feature","properties":{"vineyard_id":"V37","status":"red"},"geometry":{"type":"MultiPolygon","coordinates":[[[[630375.4,5219386.2],[630374.4,5219384.4],[630375.4,5219382.1],[630375.2,5219381.9],[630371.0,5219391.3],[630375.4,5219386.2]]],[[[630348.2,5219467.6],[630347.5,5219465.9],[630348.0,5219464.3],[630347.9,5219462.6],[630350.1,5219459.6],[630350.2,5219458.4],[630351.0,5219457.2],[630351.0,5219455.5],[630352.4,5219453.5],[630352.6,5219451.8],[630338.4,5219440.0],[630337.7,5219437.8],[630338.4,5219436.5],[630339.9,5219435.8],[630347.6,5219427.4],[630349.9,5219427.7],[630352.3,5219431.1],[630355.0,5219429.6],[630357.2,5219430.0],[630358.2,5219426.0],[630355.0,5219420.9],[630354.8,5219419.2],[630361.9,5219410.6],[630362.6,5219405.9],[630363.4,5219404.1],[630362.6,5219402.8],[630362.6,5219401.3],[630364.8,5219398.5],[630373.0,5219379.4],[630372.8,5219377.1],[630375.4,5219373.8],[630374.5,5219371.8],[630375.4,5219369.8],[630374.5,5219367.8],[630375.4,5219365.9],[630373.3,5219364.1],[630353.3,5219387.7],[630320.2,5219421.8],[630324.4,5219424.9],[630324.9,5219426.3],[630324.5,5219427.7],[630322.6,5219429.1],[630320.6,5219428.5],[630316.8,5219432.6],[630315.0,5219433.3],[630311.6,5219437.6],[630322.1,5219446.4],[630322.8,5219448.0],[630322.4,5219449.7],[630349.8,5219472.6],[630350.7,5219471.5],[630350.9,5219469.8],[630348.2,5219467.6]]],[[[630360.4,5219429.7],[630360.4,5219429.6],[630360.4,5219429.7],[630360.4,5219429.7]]]]}},{"type":"Feature","properties":{"vineyard_id":"V19","status":"red"},"geometry":{"type":"Polygon","coordinates":[[[630018.9,5219772.5],[630023.1,5219780.9],[630024.9,5219782.2],[630024.9,5219784.7],[630026.8,5219788.7],[630038.0,5219743.0],[630036.7,5219742.4],[630036.0,5219741.4],[630036.4,5219738.0],[630033.7,5219737.3],[630032.3,5219737.7],[630029.6,5219737.2],[630028.5,5219736.6],[630027.9,5219735.4],[630025.2,5219734.8],[630024.6,5219736.5],[630023.4,5219737.3],[630018.9,5219737.3],[630014.6,5219753.7],[630016.1,5219754.5],[630016.8,5219756.0],[630014.8,5219764.6],[630015.5,5219765.5],[630018.3,5219766.1],[630019.5,5219767.2],[630019.8,5219768.8],[630018.9,5219772.5]]]}},{"type":"Feature","properties":{"vineyard_id":"V13","status":"red"},"geometry":{"type":"Polygon","coordinates":[[[629505.3,5220240.2],[629535.2,5220197.5],[629535.7,5220195.8],[629557.4,5220166.1],[629555.6,5220164.8],[629553.6,5220166.8],[629552.5,5220167.3],[629551.0,5220167.0],[629549.0,5220165.6],[629541.2,5220175.7],[629541.8,5220177.1],[629541.6,5220178.5],[629537.1,5220184.8],[629538.2,5220186.3],[629538.0,5220188.0],[629530.2,5220198.4],[629529.2,5220199.2],[629527.8,5220199.4],[629524.9,5220197.6],[629505.3,5220223.5],[629505.3,5220228.3],[629507.5,5220228.9],[629508.3,5220230.9],[629507.9,5220232.0],[629505.3,5220235.6],[629505.3,5220240.2]]]}},{"type":"Feature","properties":{"vineyard_id":"V17","status":"red"},"geometry":{"type":"MultiPolygon","coordinates":[[[[629964.6,5219782.2],[629992.3,5219749.0],[629994.0,5219747.9],[629994.0,5219747.2],[629991.8,5219745.4],[629963.7,5219781.0],[629964.6,5219782.2]]],[[[629958.2,5219789.5],[629956.0,5219787.9],[629937.5,5219811.3],[629936.1,5219811.7],[629934.8,5219811.4],[629933.6,5219809.4],[629931.3,5219807.7],[629912.5,5219831.5],[629914.7,5219833.2],[629916.4,5219833.5],[629917.4,5219834.6],[629917.5,5219836.6],[629915.7,5219839.2],[629916.5,5219839.8],[629958.2,5219789.5]]]]}},{"type":"Feature","properties":{"vineyard_id":"V10","status":"red"},"geometry":{"type":"Polygon","coordinates":[[[629453.1,5220508.8],[629503.6,5220521.4],[629504.3,5220518.7],[629504.3,5220514.1],[629503.9,5220512.7],[629504.3,5220507.9],[629489.9,5220504.3],[629488.9,5220505.6],[629487.6,5220506.0],[629480.4,5220504.3],[629479.6,5220506.4],[629477.8,5220507.2],[629465.8,5220504.3],[629464.7,5220505.6],[629463.3,5220506.0],[629456.3,5220504.3],[629455.2,5220505.7],[629453.3,5220506.0],[629453.1,5220508.8]]]}},{"type":"Feature","properties":{"vineyard_id":"V27","status":"red"},"geometry":{"type":"Polygon","coordinates":[[[629893.3,5219618.6],[629908.4,5219636.1],[629912.5,5219640.0],[629914.6,5219638.1],[629914.3,5219636.9],[629914.7,5219635.5],[629918.2,5219632.6],[629915.7,5219629.4],[629915.6,5219628.0],[629916.4,5219626.7],[629913.9,5219623.5],[629913.9,5219622.1],[629914.6,5219620.9],[629904.1,5219608.6],[629901.1,5219610.8],[629899.3,5219610.4],[629897.7,5219608.8],[629895.6,5219610.5],[629897.6,5219613.2],[629897.7,5219614.9],[629896.9,5219616.1],[629895.4,5219616.7],[629893.3,5219618.6]]]}},{"type":"Feature","properties":{"vineyard_id":"V29","status":"red"},"geometry":{"type":"Polygon","coordinates":[[[630064.7,5219618.5],[630068.3,5219615.2],[630067.4,5219613.9],[630067.4,5219612.7],[630068.9,5219610.7],[630068.5,5219608.8],[630069.3,5219607.3],[630069.1,5219605.4],[630070.0,5219604.0],[630067.5,5219600.5],[630067.6,5219599.3],[630068.3,5219598.2],[630067.8,5219596.6],[630068.3,5219595.2],[630065.8,5219592.2],[630065.4,5219591.0],[630065.9,5219589.2],[630068.3,5219587.2],[630064.9,5219583.1],[630061.6,5219585.3],[630060.0,5219584.9],[630058.4,5219583.1],[630057.0,5219583.5],[630055.7,5219583.1],[630054.1,5219583.6],[630052.7,5219583.1],[630051.0,5219583.7],[630049.6,5219583.1],[630047.8,5219583.8],[630046.2,5219583.1],[630044.6,5219583.7],[630043.0,5219583.2],[630041.0,5219583.7],[630039.8,5219583.2],[630037.6,5219584.9],[630064.7,5219618.5]]]}},{"type":"Feature","properties":{"vineyard_id":"V31","status":"red"},"geometry":{"type":"Polygon","coordinates":[[[630066.1,5219548.2],[630074.4,5219559.3],[630076.5,5219558.5],[630078.1,5219559.3],[630079.9,5219559.2],[630081.1,5219560.0],[630081.6,5219561.8],[630080.4,5219565.7],[630090.3,5219578.5],[630091.9,5219577.6],[630093.6,5219578.0],[630097.9,5219582.7],[630100.0,5219580.8],[630095.8,5219576.1],[630095.4,5219575.0],[630096.2,5219572.8],[630098.1,5219572.2],[630100.3,5219570.4],[630099.4,5219568.3],[630100.4,5219566.3],[630096.7,5219561.1],[630096.9,5219559.7],[630097.8,5219558.5],[630086.6,5219544.7],[630085.2,5219545.3],[630083.5,5219544.9],[630078.4,5219538.5],[630076.2,5219540.3],[630077.2,5219542.5],[630076.3,5219544.4],[630072.6,5219545.4],[630070.7,5219544.8],[630066.1,5219548.2]]]}},{"type":"Feature","properties":{"vineyard_id":"V24","status":"red"},"geometry":{"type":"Polygon","coordinates":[[[629926.2,5219649.1],[629946.5,5219668.2],[629948.7,5219667.2],[629951.1,5219668.7],[629951.9,5219670.7],[629951.0,5219672.5],[629951.9,5219674.3],[629951.1,5219676.3],[629963.0,5219687.4],[629964.4,5219686.6],[629966.0,5219686.8],[629971.0,5219691.3],[629972.8,5219689.3],[629965.3,5219682.0],[629964.8,5219680.4],[629965.6,5219678.8],[629954.6,5219668.1],[629954.2,5219666.7],[629954.8,5219665.1],[629938.7,5219650.0],[629936.5,5219652.2],[629934.9,5219652.6],[629933.6,5219652.1],[629928.1,5219647.0],[629926.2,5219649.1]]]}},{"type":"Feature","properties":{"vineyard_id":"V20","status":"red"},"geometry":{"type":"Polygon","coordinates":[[[630055.2,5219738.4],[630061.6,5219749.1],[630061.6,5219751.2],[630060.0,5219752.6],[630066.0,5219763.1],[630068.4,5219761.8],[630068.1,5219760.3],[630068.9,5219758.8],[630072.7,5219756.7],[630063.7,5219740.8],[630062.1,5219741.5],[630060.5,5219741.2],[630057.6,5219736.9],[630055.2,5219738.4]]]}},{"type":"Feature","properties":{"vineyard_id":"V07","status":"red"},"geometry":{"type":"Polygon","coordinates":[[[629227.4,5220555.6],[629228.7,5220558.0],[629233.9,5220555.3],[629235.3,5220555.1],[629236.8,5220556.0],[629238.0,5220558.0],[629244.2,5220554.6],[629243.1,5220552.3],[629243.5,5220550.4],[629248.6,5220547.3],[629248.1,5220545.8],[629248.7,5220544.2],[629248.6,5220542.3],[629247.3,5220539.8],[629228.8,5220549.8],[629229.9,5220551.9],[629229.9,5220553.1],[629229.2,5220554.4],[629227.4,5220555.6]]]}},{"type":"Feature","properties":{"vineyard_id":"V15","status":"red"},"geometry":{"type":"Polygon","coordinates":[[[629829.3,5220146.3],[629831.4,5220148.1],[629835.6,5220147.6],[629838.8,5220148.1],[629840.3,5220147.5],[629842.0,5220148.1],[629850.9,5220137.7],[629848.7,5220135.8],[629848.2,5220134.4],[629848.6,5220132.9],[629850.7,5220130.2],[629847.3,5220127.2],[629843.3,5220132.0],[629842.0,5220132.6],[629840.7,5220132.4],[629829.3,5220146.3]]]}},{"type":"Feature","properties":{"vineyard_id":"V18","status":"red"},"geometry":{"type":"Polygon","coordinates":[[[630002.9,5219788.0],[630005.1,5219789.6],[630006.8,5219787.6],[630008.6,5219787.1],[630012.3,5219789.6],[630015.0,5219787.0],[630016.7,5219787.0],[630018.1,5219788.5],[630020.8,5219789.1],[630021.3,5219787.1],[630017.9,5219786.0],[630017.1,5219784.7],[630017.1,5219783.5],[630013.8,5219781.0],[630013.3,5219779.1],[630014.6,5219776.9],[630012.4,5219775.2],[630002.9,5219788.0]]]}},{"type":"Feature","properties":{"vineyard_id":"V11","status":"red"},"geometry":{"type":"MultiPolygon","coordinates":[[[[629552.9,5220291.5],[629556.3,5220286.5],[629554.1,5220284.8],[629550.4,5220289.7],[629552.9,5220291.5]]],[[[629551.2,5220302.5],[629553.5,5220302.0],[629556.6,5220304.1],[629558.4,5220301.7],[629555.6,5220299.3],[629555.3,5220297.7],[629556.3,5220295.9],[629553.9,5220294.1],[629549.0,5220300.9],[629551.2,5220302.5]]]]}},{"type":"Feature","properties":{"vineyard_id":"V16","status":"yellow"},"geometry":{"type":"MultiPolygon","coordinates":[[[[629658.5,5220086.8],[629668.6,5220089.4],[629670.8,5220088.9],[629673.3,5220090.5],[629727.9,5220104.2],[629734.8,5220094.9],[629736.9,5220094.8],[629739.7,5220096.8],[629741.2,5220096.3],[629742.9,5220096.8],[629744.8,5220094.7],[629746.7,5220094.4],[629750.5,5220097.1],[629752.7,5220099.2],[629753.3,5220100.2],[629753.0,5220102.1],[629748.0,5220108.6],[629750.6,5220109.9],[629756.5,5220102.3],[629758.6,5220101.9],[629761.2,5220103.6],[629766.5,5220096.9],[629768.0,5220096.3],[629769.7,5220096.9],[629780.2,5220083.2],[629779.2,5220081.5],[629779.8,5220079.7],[629788.4,5220068.7],[629789.8,5220067.9],[629791.3,5220068.1],[629798.9,5220058.5],[629797.1,5220056.5],[629797.4,5220054.2],[629798.8,5220053.3],[629800.3,5220053.3],[629807.9,5220043.3],[629809.2,5220042.6],[629810.4,5220042.8],[629814.7,5220045.6],[629816.6,5220043.3],[629818.3,5220042.8],[629819.5,5220043.2],[629822.4,5220045.6],[629823.7,5220044.1],[629825.0,5220043.7],[629826.4,5220044.0],[629828.6,5220045.6],[629863.5,5219999.2],[629860.8,5219996.7],[629860.7,5219995.3],[629861.5,5219993.9],[629859.9,5219993.6],[629857.5,5219991.6],[629857.2,5219990.2],[629857.6,5219989.0],[629894.3,5219941.1],[629889.9,5219937.4],[629886.6,5219941.8],[629885.6,5219942.4],[629884.1,5219942.5],[629882.6,5219941.6],[629881.2,5219942.3],[629879.1,5219941.6],[629877.1,5219942.4],[629875.4,5219941.6],[629874.4,5219942.3],[629873.1,5219942.4],[629870.1,5219940.5],[629869.7,5219939.3],[629870.0,5219937.9],[629876.5,5219930.7],[629877.0,5219929.3],[629885.9,5219917.6],[629904.1,5219895.0],[629905.8,5219894.1],[629907.8,5219894.6],[629949.1,5219841.6],[629952.1,5219839.9],[629953.3,5219840.0],[629954.6,5219840.9],[629957.4,5219837.2],[629958.9,5219836.4],[629961.1,5219837.2],[629962.1,5219840.2],[629961.6,5219842.0],[629923.0,5219891.4],[629925.2,5219893.2],[629965.9,5219841.1],[629965.5,5219839.7],[629965.9,5219838.5],[629963.7,5219836.7],[629962.3,5219836.9],[629961.0,5219836.3],[629960.3,5219835.0],[629960.5,5219833.3],[629967.4,5219824.3],[629966.1,5219822.8],[629966.4,5219820.7],[629985.0,5219795.4],[629984.1,5219793.7],[629984.3,5219792.5],[629985.2,5219791.1],[629983.9,5219789.4],[629984.3,5219787.5],[630005.6,5219760.3],[630004.3,5219758.7],[630004.5,5219756.7],[630002.3,5219755.0],[629999.8,5219757.4],[629998.6,5219757.5],[629996.4,5219756.6],[629884.0,5219891.2],[629874.1,5219903.7],[629875.4,5219905.0],[629875.7,5219906.4],[629873.7,5219909.6],[629871.8,5219910.5],[629869.6,5219909.6],[629861.3,5219920.4],[629862.6,5219921.9],[629862.5,5219923.6],[629856.7,5219931.1],[629858.9,5219932.9],[629860.6,5219933.5],[629861.4,5219935.1],[629864.1,5219937.3],[629864.5,5219938.9],[629863.9,5219940.4],[629862.4,5219941.7],[629860.5,5219941.6],[629858.4,5219942.3],[629854.2,5219940.0],[629852.4,5219939.8],[629849.1,5219937.1],[629847.3,5219938.6],[629845.0,5219938.0],[629810.1,5219982.9],[629811.2,5219984.4],[629811.2,5219986.1],[629805.4,5219993.8],[629803.2,5219994.6],[629800.3,5219992.8],[629799.0,5219994.4],[629797.5,5219994.9],[629780.8,5220014.9],[629778.7,5220015.9],[629776.4,5220015.7],[629775.1,5220014.8],[629774.3,5220013.5],[629774.0,5220012.0],[629774.3,5220010.4],[629788.0,5219993.8],[629785.5,5219992.8],[629769.3,5220015.4],[629780.7,5220018.7],[629781.5,5220019.8],[629781.0,5220021.1],[629779.6,5220021.4],[629767.4,5220018.0],[629765.7,5220018.8],[629763.8,5220018.2],[629762.1,5220018.3],[629758.9,5220016.0],[629757.7,5220016.5],[629756.5,5220016.4],[629752.9,5220014.3],[629748.6,5220013.7],[629744.5,5220011.7],[629743.4,5220012.3],[629742.1,5220012.3],[629739.7,5220011.3],[629737.4,5220009.7],[629715.2,5220031.9],[629708.9,5220040.2],[629707.0,5220041.0],[629702.8,5220046.6],[629701.8,5220047.3],[629700.4,5220047.3],[629698.9,5220046.3],[629692.6,5220044.9],[629689.4,5220049.0],[629687.3,5220049.6],[629685.1,5220048.2],[629684.6,5220046.9],[629684.8,5220045.7],[629682.6,5220044.0],[629680.9,5220044.6],[629679.2,5220044.0],[629677.3,5220044.7],[629675.6,5220044.0],[629673.9,5220044.6],[629672.2,5220044.0],[629671.1,5220044.7],[629669.7,5220044.8],[629666.7,5220043.7],[629663.2,5220041.3],[629661.6,5220041.4],[629660.3,5220040.6],[629658.1,5220040.7],[629655.3,5220038.7],[629650.9,5220044.2],[629649.3,5220044.7],[629647.7,5220044.0],[629625.4,5220075.2],[629626.7,5220076.2],[629628.3,5220076.3],[629631.8,5220078.4],[629633.0,5220077.8],[629634.2,5220077.8],[629637.4,5220080.2],[629641.9,5220080.9],[629645.7,5220083.1],[629647.5,5220082.9],[629648.8,5220083.7],[629650.4,5220083.7],[629651.6,5220084.6],[629653.5,5220082.5],[629655.4,5220082.3],[629657.1,5220083.5],[629657.6,5220084.6],[629657.4,5220086.0],[629658.5,5220086.8]],[[629738.3,5220093.2],[629736.4,5220091.9],[629736.4,5220089.6],[629761.1,5220057.2],[629759.1,5220055.4],[629758.9,5220053.5],[629763.7,5220047.2],[629766.0,5220046.7],[629768.4,5220048.2],[629770.6,5220045.4],[629772.1,5220044.7],[629774.3,5220045.6],[629776.2,5220044.8],[629778.1,5220045.6],[629779.8,5220044.8],[629781.8,5220045.6],[629783.5,5220044.9],[629785.4,5220045.6],[629787.5,5220045.0],[629788.8,5220045.6],[629805.7,5220022.8],[629807.9,5220022.0],[629810.4,5220023.4],[629811.1,5220025.3],[629810.1,5220027.4],[629811.3,5220029.4],[629810.1,5220032.0],[629810.8,5220033.5],[629810.4,5220035.2],[629799.4,5220049.8],[629798.3,5220050.4],[629797.0,5220050.4],[629793.8,5220053.6],[629792.6,5220053.7],[629791.3,5220053.1],[629765.9,5220085.6],[629763.8,5220086.3],[629761.2,5220084.7],[629755.1,5220092.5],[629753.9,5220093.3],[629752.4,5220093.2],[629749.2,5220091.5],[629745.8,5220088.4],[629741.9,5220093.2],[629740.5,5220093.7],[629738.3,5220093.2]]],[[[629862.9,5219993.3],[629865.6,5219994.4],[629867.4,5219993.6],[629869.4,5219994.4],[629908.3,5219943.3],[629906.0,5219941.6],[629904.1,5219942.6],[629901.8,5219941.6],[629862.9,5219993.3]]],[[[629736.2,5220006.8],[629737.7,5220006.7],[629746.9,5219994.5],[629744.7,5219992.8],[629728.2,5220014.7],[629736.2,5220006.8]]],[[[629698.0,5220099.8],[629698.9,5220100.1],[629699.2,5220100.1],[629698.0,5220099.8]]],[[[629701.1,5220100.9],[629702.7,5220101.0],[629704.0,5220101.9],[629705.6,5220101.8],[629707.0,5220102.7],[629708.9,5220102.6],[629715.5,5220105.6],[629717.0,5220105.4],[629718.5,5220106.2],[629720.7,5220105.8],[629724.4,5220108.7],[629725.9,5220106.8],[629700.3,5220100.4],[629701.1,5220100.9]]]]}},{"type":"Feature","properties":{"vineyard_id":"V42","status":"yellow"},"geometry":{"type":"Polygon","coordinates":[[[630249.7,5219375.2],[630260.3,5219371.0],[630271.9,5219359.5],[630272.0,5219357.9],[630273.2,5219356.7],[630271.8,5219354.4],[630271.9,5219352.7],[630274.0,5219349.9],[630277.0,5219347.9],[630231.6,5219276.3],[630220.8,5219285.3],[630220.7,5219287.1],[630219.6,5219288.4],[630220.5,5219290.4],[630219.7,5219292.2],[630218.5,5219292.8],[630217.0,5219292.7],[630215.7,5219293.1],[630214.3,5219292.8],[630213.3,5219291.8],[630212.1,5219292.5],[630211.0,5219293.4],[630212.0,5219295.5],[630211.5,5219297.3],[630208.3,5219299.4],[630207.5,5219300.7],[630203.8,5219303.0],[630249.7,5219375.2]]]}},{"type":"Feature","properties":{"vineyard_id":"V09","status":"yellow"},"geometry":{"type":"Polygon","coordinates":[[[629232.6,5220504.3],[629230.7,5220502.2],[629230.3,5220500.5],[629231.6,5220498.7],[629231.9,5220496.5],[629234.7,5220494.7],[629235.1,5220492.9],[629233.2,5220490.7],[629232.8,5220489.0],[629233.7,5220487.4],[629236.3,5220486.0],[629236.4,5220484.3],[629235.8,5220482.2],[629236.8,5220480.4],[629237.3,5220475.6],[629236.7,5220473.6],[629237.7,5220471.8],[629237.9,5220470.1],[629237.3,5220468.1],[629238.3,5220466.4],[629238.5,5220464.7],[629237.8,5220463.5],[629231.7,5220466.7],[629230.2,5220466.9],[629228.5,5220465.6],[629228.2,5220462.7],[629229.3,5220460.6],[629238.5,5220455.6],[629237.1,5220453.2],[629235.6,5220452.1],[629234.3,5220449.6],[629225.7,5220454.1],[629224.0,5220454.2],[629222.7,5220453.2],[629219.5,5220454.9],[629219.2,5220457.2],[629216.9,5220458.8],[629217.4,5220460.5],[629216.7,5220462.0],[629209.7,5220466.0],[629209.3,5220467.9],[629207.7,5220469.1],[629208.1,5220470.5],[629207.7,5220471.9],[629205.1,5220473.7],[629205.4,5220474.9],[629205.0,5220476.3],[629199.1,5220480.1],[629199.9,5220481.8],[629199.7,5220483.5],[629198.9,5220484.4],[629196.1,5220485.9],[629197.4,5220488.8],[629197.0,5220490.2],[629196.1,5220491.0],[629197.5,5220494.2],[629197.1,5220495.6],[629196.1,5220496.5],[629196.5,5220497.8],[629196.1,5220499.3],[629197.5,5220502.3],[629196.1,5220506.1],[629195.1,5220507.0],[629190.8,5220509.0],[629188.9,5220508.2],[629186.9,5220504.4],[629182.0,5220507.0],[629184.2,5220510.8],[629184.2,5220512.1],[629183.6,5220513.1],[629169.5,5220520.9],[629169.4,5220523.0],[629165.9,5220526.2],[629166.0,5220527.6],[629165.3,5220528.9],[629154.8,5220534.7],[629156.0,5220537.9],[629155.6,5220539.1],[629154.1,5220540.6],[629154.2,5220541.9],[629153.6,5220543.0],[629144.9,5220547.9],[629145.4,5220551.9],[629144.8,5220553.5],[629146.9,5220558.0],[629201.4,5220528.6],[629200.0,5220525.6],[629200.9,5220523.4],[629232.2,5220506.3],[629232.6,5220504.3]]]}},{"type":"Feature","properties":{"vineyard_id":"V36","status":"yellow"},"geometry":{"type":"Polygon","coordinates":[[[630151.6,5219453.2],[630162.2,5219446.3],[630152.8,5219434.0],[630152.6,5219432.4],[630153.6,5219430.8],[630155.7,5219430.3],[630157.9,5219431.6],[630159.3,5219430.8],[630160.7,5219431.0],[630168.5,5219440.5],[630170.7,5219438.8],[630163.5,5219429.6],[630162.0,5219430.4],[630160.5,5219430.2],[630142.9,5219417.9],[630141.2,5219418.2],[630139.6,5219417.3],[630119.5,5219391.8],[630116.7,5219388.8],[630116.8,5219386.4],[630119.5,5219384.1],[630118.2,5219382.0],[630118.4,5219380.5],[630119.5,5219379.3],[630118.8,5219378.4],[630116.9,5219379.2],[630115.1,5219378.4],[630112.7,5219380.2],[630111.3,5219380.6],[630109.9,5219380.1],[630108.5,5219378.5],[630104.5,5219381.8],[630104.7,5219383.3],[630103.8,5219384.7],[630102.5,5219385.2],[630100.9,5219384.9],[630098.7,5219386.6],[630117.2,5219410.3],[630134.1,5219431.2],[630135.2,5219432.1],[630151.6,5219453.2]]]}},{"type":"Feature","properties":{"vineyard_id":"V41","status":"yellow"},"geometry":{"type":"MultiPolygon","coordinates":[[[[630302.7,5219328.7],[630302.8,5219329.0],[630303.5,5219328.2],[630302.7,5219328.7]]],[[[630305.6,5219432.3],[630313.6,5219424.3],[630313.5,5219422.7],[630314.2,5219421.5],[630319.1,5219418.7],[630320.2,5219417.5],[630320.9,5219415.5],[630323.7,5219413.9],[630326.5,5219411.0],[630325.1,5219408.5],[630325.5,5219406.6],[630339.9,5219390.0],[630341.1,5219389.2],[630342.5,5219389.2],[630343.8,5219389.9],[630345.0,5219391.7],[630345.6,5219391.3],[630347.1,5219389.8],[630346.3,5219388.1],[630346.8,5219386.5],[630349.0,5219384.7],[630351.1,5219384.8],[630352.7,5219383.8],[630353.3,5219383.1],[630352.6,5219381.8],[630352.7,5219380.3],[630354.7,5219378.4],[630342.4,5219359.4],[630340.5,5219360.2],[630338.5,5219359.2],[630324.3,5219335.9],[630315.8,5219322.9],[630306.3,5219329.7],[630297.4,5219338.5],[630307.9,5219355.5],[630308.3,5219357.1],[630307.8,5219358.3],[630306.9,5219359.0],[630304.6,5219359.7],[630303.0,5219359.3],[630296.4,5219362.8],[630296.3,5219364.4],[630295.2,5219365.7],[630293.8,5219366.0],[630292.7,5219365.7],[630290.3,5219367.2],[630293.8,5219372.6],[630294.0,5219374.1],[630293.3,5219375.4],[630289.4,5219376.7],[630287.9,5219376.6],[630287.0,5219375.9],[630284.3,5219372.1],[630282.0,5219373.7],[630282.4,5219375.4],[630281.6,5219376.9],[630279.9,5219377.7],[630278.5,5219377.6],[630277.4,5219376.6],[630271.0,5219366.0],[630268.6,5219367.4],[630271.3,5219372.1],[630271.1,5219373.5],[630270.1,5219374.7],[630271.5,5219377.5],[630271.4,5219378.7],[630270.7,5219379.7],[630268.6,5219380.9],[630266.6,5219380.5],[630262.3,5219373.4],[630257.0,5219376.0],[630257.3,5219378.2],[630255.6,5219380.0],[630264.0,5219391.4],[630265.8,5219390.8],[630267.4,5219391.5],[630273.0,5219399.3],[630272.7,5219401.4],[630270.9,5219402.9],[630273.3,5219406.5],[630273.6,5219408.2],[630272.9,5219409.5],[630270.1,5219411.5],[630272.3,5219414.9],[630272.1,5219416.8],[630270.9,5219418.0],[630273.1,5219421.3],[630273.4,5219422.9],[630272.6,5219424.4],[630269.8,5219426.3],[630276.2,5219435.7],[630278.5,5219434.1],[630278.9,5219432.1],[630280.9,5219430.7],[630282.6,5219430.4],[630284.0,5219431.2],[630287.7,5219429.0],[630289.2,5219429.4],[630290.7,5219431.2],[630293.2,5219430.0],[630294.4,5219430.3],[630295.4,5219431.2],[630296.9,5219430.7],[630298.4,5219431.2],[630301.1,5219429.4],[630302.5,5219429.2],[630303.8,5219429.9],[630305.6,5219432.3]],[[630309.2,5219377.3],[630308.8,5219375.6],[630309.6,5219374.1],[630314.3,5219372.5],[630316.4,5219373.5],[630317.7,5219373.2],[630319.0,5219373.7],[630322.0,5219378.2],[630325.0,5219376.7],[630327.1,5219377.7],[630334.4,5219389.4],[630334.8,5219390.8],[630334.1,5219392.4],[630325.9,5219401.7],[630324.0,5219402.1],[630322.6,5219401.2],[630312.9,5219387.3],[630312.5,5219385.5],[630313.4,5219383.9],[630309.2,5219377.3]]]]}},{"type":"Feature","properties":{"vineyard_id":"V28","status":"yellow"},"geometry":{"type":"Polygon","coordinates":[[[629984.2,5219593.5],[629982.0,5219595.3],[629982.0,5219596.9],[629981.2,5219598.1],[629979.8,5219598.6],[629978.3,5219598.2],[629970.0,5219604.8],[629995.4,5219634.5],[629996.0,5219635.7],[629995.7,5219637.3],[630008.4,5219652.1],[630012.8,5219651.3],[630013.8,5219651.9],[630018.4,5219657.2],[630020.8,5219656.0],[630022.9,5219654.2],[630020.6,5219650.9],[630021.2,5219648.9],[630021.0,5219647.1],[630021.5,5219646.0],[630024.8,5219643.6],[630026.7,5219644.0],[630028.7,5219646.1],[630030.8,5219644.3],[630027.1,5219640.0],[630026.7,5219638.4],[630027.5,5219636.7],[630029.1,5219636.1],[630031.3,5219634.3],[630017.1,5219617.5],[630015.5,5219617.9],[630014.1,5219617.4],[630006.2,5219608.7],[630004.9,5219609.8],[630003.7,5219610.1],[630002.3,5219609.7],[630001.0,5219608.3],[629999.4,5219609.3],[629997.5,5219608.9],[629984.2,5219593.5]]]}},{"type":"Feature","properties":{"vineyard_id":"V44","status":"yellow"},"geometry":{"type":"MultiPolygon","coordinates":[[[[630263.2,5219246.3],[630262.3,5219245.0],[630261.1,5219245.7],[630262.2,5219247.1],[630263.2,5219246.3]]],[[[630301.5,5219267.9],[630303.6,5219268.9],[630319.3,5219290.7],[630324.3,5219286.6],[630322.0,5219282.7],[630322.1,5219281.3],[630323.2,5219280.0],[630320.4,5219276.0],[630319.0,5219275.0],[630315.0,5219269.3],[630313.6,5219269.9],[630312.2,5219269.7],[630308.4,5219264.9],[630307.0,5219265.8],[630305.6,5219265.8],[630303.5,5219263.9],[630301.2,5219265.5],[630301.4,5219266.7],[630300.8,5219268.0],[630301.5,5219267.9]]],[[[630303.3,5219328.4],[630311.4,5219322.3],[630289.7,5219289.4],[630289.5,5219287.5],[630290.5,5219286.1],[630286.9,5219280.8],[630286.8,5219279.3],[630287.3,5219278.2],[630289.4,5219277.2],[630291.3,5219278.1],[630296.0,5219285.0],[630314.8,5219309.5],[630317.0,5219307.9],[630317.2,5219306.3],[630319.0,5219303.4],[630320.7,5219302.9],[630322.1,5219303.4],[630324.3,5219301.6],[630321.1,5219297.8],[630318.4,5219299.6],[630317.0,5219299.5],[630315.8,5219298.6],[630302.8,5219279.9],[630302.5,5219278.4],[630303.2,5219277.0],[630299.3,5219271.4],[630299.2,5219270.0],[630299.7,5219268.8],[630298.2,5219268.9],[630297.0,5219268.1],[630282.1,5219246.7],[630280.2,5219247.0],[630278.8,5219246.1],[630275.3,5219248.1],[630273.1,5219247.0],[630270.9,5219248.6],[630270.7,5219250.9],[630268.9,5219252.1],[630267.0,5219251.6],[630264.9,5219248.7],[630260.4,5219252.4],[630261.1,5219254.1],[630260.5,5219255.7],[630258.6,5219257.8],[630255.1,5219260.1],[630269.7,5219281.2],[630271.3,5219280.8],[630272.9,5219281.8],[630284.8,5219299.9],[630285.1,5219302.0],[630283.5,5219303.7],[630290.0,5219314.2],[630289.7,5219315.7],[630288.5,5219316.8],[630286.8,5219316.8],[630285.6,5219316.0],[630273.2,5219297.2],[630272.2,5219296.3],[630252.8,5219266.1],[630246.4,5219270.3],[630262.5,5219295.7],[630262.9,5219297.4],[630261.9,5219299.1],[630272.2,5219315.0],[630272.2,5219317.3],[630269.2,5219320.1],[630277.1,5219332.0],[630280.0,5219330.2],[630282.1,5219330.6],[630288.6,5219340.2],[630291.0,5219338.6],[630289.6,5219336.4],[630289.4,5219335.2],[630290.2,5219333.7],[630292.5,5219332.1],[630291.4,5219329.8],[630292.3,5219327.6],[630293.5,5219326.9],[630294.9,5219326.9],[630296.0,5219327.4],[630297.0,5219328.7],[630301.3,5219327.6],[630303.3,5219328.4]]]]}},{"type":"Feature","properties":{"vineyard_id":"V39","status":"yellow"},"geometry":{"type":"Polygon","coordinates":[[[630126.2,5219373.0],[630169.6,5219428.1],[630171.7,5219426.5],[630172.1,5219424.4],[630174.7,5219421.6],[630173.7,5219420.1],[630173.8,5219418.4],[630176.6,5219415.9],[630167.3,5219403.8],[630167.5,5219401.7],[630170.3,5219398.3],[630170.0,5219396.6],[630170.7,5219395.3],[630169.9,5219393.3],[630170.7,5219391.7],[630169.6,5219389.4],[630170.7,5219387.3],[630163.6,5219378.4],[630162.0,5219379.0],[630160.1,5219378.4],[630158.2,5219378.7],[630157.2,5219378.1],[630155.8,5219376.5],[630153.7,5219378.3],[630164.7,5219392.3],[630165.0,5219393.7],[630164.5,5219395.0],[630163.6,5219395.8],[630162.1,5219396.1],[630160.4,5219395.1],[630135.1,5219362.7],[630132.9,5219364.4],[630133.9,5219365.8],[630134.1,5219367.1],[630132.4,5219370.0],[630130.2,5219371.4],[630128.3,5219371.2],[630126.2,5219373.0]]]}},{"type":"Feature","properties":{"vineyard_id":"V05","status":"yellow"},"geometry":{"type":"MultiPolygon","coordinates":[[[[629355.3,5220597.4],[629355.0,5220599.5],[629353.4,5220600.7],[629371.7,5220659.6],[629376.5,5220659.2],[629377.8,5220659.6],[629380.0,5220659.0],[629381.6,5220659.6],[629384.7,5220658.8],[629386.7,5220659.6],[629389.6,5220658.8],[629391.4,5220659.6],[629393.7,5220659.6],[629396.4,5220658.8],[629390.6,5220639.8],[629391.5,5220637.6],[629394.1,5220636.6],[629383.9,5220603.3],[629379.7,5220605.0],[629378.2,5220604.8],[629377.3,5220603.9],[629371.9,5220587.0],[629369.3,5220587.8],[629369.0,5220589.6],[629367.8,5220590.7],[629365.2,5220591.4],[629363.5,5220590.6],[629359.8,5220579.9],[629357.2,5220580.7],[629357.3,5220582.5],[629356.3,5220583.9],[629351.8,5220585.9],[629355.3,5220597.4]]],[[[629397.4,5220645.6],[629398.9,5220647.7],[629398.6,5220649.5],[629399.9,5220651.2],[629399.7,5220653.0],[629401.7,5220654.8],[629402.6,5220653.9],[629401.5,5220652.4],[629401.5,5220650.8],[629402.8,5220649.1],[629404.1,5220648.5],[629405.3,5220648.6],[629406.5,5220649.5],[629408.1,5220654.5],[629410.8,5220653.7],[629396.5,5220607.6],[629393.8,5220608.4],[629403.4,5220639.7],[629402.7,5220641.5],[629400.5,5220642.2],[629397.4,5220645.6]]]]}},{"type":"Feature","properties":{"vineyard_id":"V26","status":"yellow"},"geometry":{"type":"Polygon","coordinates":[[[629889.0,5219663.6],[629894.4,5219661.3],[629885.7,5219651.8],[629885.3,5219650.4],[629886.0,5219648.8],[629877.1,5219639.4],[629875.5,5219639.8],[629874.0,5219639.2],[629865.4,5219629.9],[629861.4,5219633.4],[629862.1,5219635.0],[629861.4,5219636.8],[629863.1,5219638.7],[629863.5,5219640.1],[629863.0,5219641.5],[629861.4,5219643.1],[629872.6,5219655.3],[629873.9,5219654.9],[629875.3,5219655.4],[629882.0,5219662.4],[629883.3,5219661.8],[629884.7,5219662.0],[629887.5,5219664.8],[629889.0,5219663.6]]]}},{"type":"Feature","properties":{"vineyard_id":"V32","status":"yellow"},"geometry":{"type":"Polygon","coordinates":[[[630030.4,5219552.0],[630037.0,5219546.6],[630033.7,5219542.0],[630033.8,5219540.3],[630034.8,5219539.2],[630032.4,5219536.0],[630032.5,5219534.5],[630033.2,5219533.4],[629990.0,5219480.7],[629988.5,5219481.4],[629986.7,5219480.7],[629985.4,5219481.4],[629984.3,5219481.3],[629975.1,5219488.9],[629975.8,5219490.3],[629975.5,5219491.8],[629972.0,5219495.4],[630019.4,5219553.4],[630026.3,5219549.2],[630028.4,5219549.5],[630030.4,5219552.0]]]}},{"type":"Feature","properties":{"vineyard_id":"V43","status":"yellow"},"geometry":{"type":"Polygon","coordinates":[[[630372.1,5219360.6],[630375.5,5219357.1],[630373.5,5219354.1],[630374.0,5219352.4],[630375.6,5219351.2],[630374.5,5219349.3],[630374.5,5219347.8],[630375.2,5219346.8],[630377.1,5219345.5],[630373.7,5219340.0],[630371.3,5219341.5],[630371.0,5219342.9],[630370.0,5219343.9],[630368.8,5219344.2],[630367.4,5219343.8],[630356.9,5219331.3],[630356.4,5219329.3],[630357.1,5219328.0],[630357.1,5219326.2],[630357.7,5219325.3],[630350.3,5219316.1],[630350.1,5219314.5],[630351.1,5219312.9],[630347.0,5219307.9],[630346.7,5219306.5],[630347.2,5219305.2],[630345.6,5219303.2],[630344.0,5219303.4],[630342.5,5219302.6],[630336.0,5219308.5],[630329.9,5219313.0],[630340.2,5219325.7],[630340.4,5219327.4],[630339.4,5219329.0],[630366.1,5219360.9],[630368.9,5219358.9],[630370.6,5219359.1],[630372.1,5219360.6]]]}},{"type":"Feature","properties":{"vineyard_id":"V01","status":"yellow"},"geometry":{"type":"Polygon","coordinates":[[[629109.9,5220805.8],[629106.7,5220810.2],[629104.6,5220811.0],[629103.9,5220812.6],[629102.7,5220813.4],[629101.0,5220813.5],[629096.3,5220811.6],[629095.5,5220810.1],[629092.9,5220808.3],[629092.1,5220806.8],[629092.4,5220805.2],[629095.5,5220800.6],[629093.6,5220798.9],[629093.5,5220797.0],[629094.3,5220795.8],[629095.6,5220795.3],[629096.9,5220793.3],[629094.4,5220791.8],[629093.2,5220791.7],[629079.6,5220812.0],[629082.0,5220813.6],[629086.3,5220807.1],[629088.6,5220806.5],[629090.9,5220807.8],[629091.6,5220808.8],[629091.8,5220810.3],[629090.8,5220812.0],[629093.2,5220813.6],[629094.9,5220813.7],[629096.0,5220814.7],[629096.2,5220816.8],[629093.1,5220823.8],[629096.1,5220825.2],[629096.9,5220826.1],[629097.2,5220827.8],[629095.6,5220831.6],[629098.5,5220833.0],[629099.6,5220834.6],[629099.4,5220836.0],[629095.7,5220844.8],[629098.3,5220845.9],[629113.6,5220809.4],[629109.9,5220805.8]]]}},{"type":"Feature","properties":{"vineyard_id":"V38","status":"yellow"},"geometry":{"type":"MultiPolygon","coordinates":[[[[630358.6,5219418.6],[630359.6,5219420.2],[630360.2,5219417.6],[630358.6,5219418.6]]],[[[630357.0,5219424.8],[630358.0,5219426.6],[630358.7,5219423.8],[630357.0,5219424.8]]],[[[630357.1,5219430.5],[630355.8,5219430.7],[630354.0,5219432.8],[630356.1,5219434.6],[630357.1,5219430.5]]],[[[630358.7,5219436.7],[630374.4,5219449.7],[630376.2,5219447.5],[630360.2,5219434.0],[630360.1,5219432.8],[630360.5,5219431.6],[630363.2,5219429.8],[630365.1,5219429.8],[630366.4,5219431.1],[630367.9,5219430.7],[630369.3,5219431.1],[630371.7,5219429.7],[630367.8,5219423.4],[630366.4,5219423.8],[630365.0,5219423.3],[630362.7,5219420.0],[630358.7,5219436.7]]]]}},{"type":"Feature","properties":{"vineyard_id":"V02","status":"green"},"geometry":{"type":"MultiPolygon","coordinates":[[[[629289.3,5220784.8],[629295.4,5220770.6],[629283.5,5220761.5],[629280.2,5220760.8],[629279.3,5220759.7],[629279.2,5220758.2],[629277.3,5220756.7],[629275.5,5220756.4],[629271.8,5220754.6],[629270.6,5220754.8],[629269.1,5220754.3],[629267.4,5220757.4],[629265.3,5220757.8],[629263.7,5220759.7],[629261.7,5220759.7],[629259.7,5220763.8],[629258.4,5220764.4],[629257.0,5220764.1],[629254.4,5220761.2],[629254.0,5220759.8],[629258.6,5220747.9],[629257.1,5220746.5],[629257.2,5220744.3],[629254.6,5220743.2],[629253.1,5220744.3],[629251.4,5220744.2],[629250.0,5220742.5],[629250.4,5220740.4],[629249.0,5220739.5],[629248.4,5220738.1],[629211.8,5220719.3],[629210.0,5220719.6],[629207.1,5220718.5],[629206.1,5220717.5],[629205.8,5220716.2],[629184.8,5220705.8],[629177.8,5220703.1],[629176.4,5220704.1],[629174.7,5220703.9],[629173.4,5220702.5],[629173.4,5220700.8],[629172.2,5220700.1],[629171.6,5220698.8],[629168.9,5220697.6],[629167.5,5220698.2],[629166.0,5220697.9],[629164.4,5220701.1],[629163.1,5220701.6],[629161.7,5220701.5],[629139.4,5220755.3],[629119.9,5220811.1],[629129.9,5220817.9],[629181.7,5220835.3],[629204.5,5220852.7],[629232.2,5220858.2],[629248.0,5220865.6],[629248.0,5220867.5],[629249.2,5220864.6],[629248.1,5220863.5],[629247.8,5220861.8],[629249.3,5220858.0],[629248.1,5220857.1],[629247.7,5220855.7],[629249.3,5220851.4],[629248.1,5220850.4],[629247.7,5220849.1],[629249.3,5220844.8],[629248.0,5220843.8],[629247.6,5220842.4],[629249.3,5220837.9],[629248.1,5220836.9],[629247.7,5220835.6],[629249.3,5220831.1],[629248.3,5220830.3],[629247.8,5220829.0],[629249.3,5220824.6],[629248.3,5220823.8],[629247.7,5220822.5],[629249.3,5220817.9],[629248.2,5220816.4],[629248.4,5220814.7],[629249.5,5220813.5],[629252.2,5220812.9],[629253.9,5220813.3],[629255.2,5220812.9],[629259.2,5220813.3],[629260.5,5220812.9],[629264.2,5220813.3],[629265.7,5220812.9],[629267.2,5220813.3],[629268.6,5220812.9],[629270.0,5220813.3],[629274.0,5220812.9],[629275.4,5220813.3],[629276.7,5220812.9],[629278.3,5220813.3],[629288.9,5220786.7],[629289.3,5220784.8]]],[[[629203.5,5220855.5],[629180.4,5220838.0],[629128.8,5220820.6],[629118.6,5220813.9],[629101.5,5220852.1],[629104.4,5220854.5],[629109.2,5220857.1],[629110.1,5220858.2],[629110.2,5220859.6],[629109.2,5220862.3],[629110.7,5220863.3],[629112.7,5220866.8],[629110.7,5220871.9],[629113.3,5220873.1],[629114.9,5220872.2],[629117.4,5220872.6],[629123.5,5220875.7],[629125.0,5220875.4],[629127.3,5220876.0],[629128.4,5220877.0],[629135.8,5220880.6],[629136.8,5220881.7],[629140.5,5220883.6],[629146.8,5220887.7],[629147.6,5220888.7],[629151.0,5220890.1],[629152.2,5220891.8],[629155.3,5220893.3],[629156.3,5220894.8],[629157.8,5220895.5],[629161.3,5220898.8],[629162.0,5220900.1],[629161.8,5220901.7],[629163.0,5220902.4],[629163.7,5220903.9],[629166.9,5220906.7],[629167.5,5220908.1],[629168.8,5220908.9],[629171.2,5220912.5],[629176.2,5220914.5],[629177.4,5220914.1],[629180.2,5220914.3],[629183.8,5220915.7],[629185.1,5220915.3],[629186.6,5220915.7],[629187.8,5220915.4],[629189.4,5220915.7],[629193.1,5220915.4],[629194.8,5220915.9],[629195.9,5220917.5],[629195.5,5220919.5],[629198.3,5220920.8],[629199.2,5220922.5],[629196.0,5220930.8],[629197.4,5220931.5],[629198.2,5220932.5],[629200.7,5220933.5],[629201.7,5220931.4],[629202.6,5220930.6],[629204.3,5220930.4],[629207.2,5220931.6],[629208.1,5220929.7],[629209.6,5220928.8],[629210.8,5220928.9],[629216.1,5220931.3],[629217.4,5220933.0],[629220.8,5220934.9],[629221.4,5220936.4],[629220.9,5220938.1],[629224.6,5220941.9],[629227.2,5220943.0],[629228.7,5220942.8],[629231.0,5220943.7],[629234.9,5220947.3],[629235.4,5220948.8],[629234.7,5220951.0],[629238.9,5220953.0],[629240.8,5220954.7],[629241.0,5220955.9],[629240.4,5220957.6],[629241.7,5220959.2],[629241.3,5220961.4],[629243.9,5220962.5],[629245.2,5220961.5],[629247.0,5220961.6],[629249.3,5220956.1],[629248.2,5220955.2],[629247.8,5220953.8],[629249.3,5220949.7],[629248.2,5220948.8],[629247.7,5220947.4],[629249.3,5220943.1],[629248.1,5220942.2],[629247.7,5220940.8],[629249.3,5220936.5],[629248.0,5220935.5],[629247.6,5220934.1],[629249.3,5220929.7],[629248.2,5220928.7],[629247.8,5220927.3],[629249.3,5220923.3],[629248.2,5220922.3],[629247.9,5220921.1],[629249.3,5220917.3],[629248.1,5220916.3],[629247.7,5220914.9],[629249.3,5220910.8],[629248.3,5220910.0],[629247.8,5220908.6],[629249.3,5220904.6],[629248.1,5220903.7],[629247.7,5220902.3],[629249.3,5220898.2],[629248.0,5220897.2],[629247.6,5220895.8],[629249.3,5220891.3],[629248.0,5220890.3],[629247.6,5220888.9],[629249.3,5220884.5],[629248.1,5220883.6],[629247.6,5220882.2],[629249.3,5220877.8],[629248.2,5220876.9],[629247.9,5220875.5],[629249.3,5220871.8],[629247.7,5220870.5],[629247.5,5220868.7],[629231.3,5220861.0],[629203.5,5220855.5]]]]}},{"type":"Feature","properties":{"vineyard_id":"V12","status":"green"},"geometry":{"type":"MultiPolygon","coordinates":[[[[629521.9,5220250.8],[629524.0,5220249.8],[629526.0,5220250.8],[629527.0,5220252.7],[629526.3,5220254.6],[629528.5,5220256.3],[629530.5,5220256.1],[629533.6,5220258.1],[629535.5,5220257.5],[629538.4,5220258.4],[629540.3,5220259.8],[629542.3,5220260.1],[629544.3,5220262.1],[629545.9,5220262.6],[629547.6,5220262.4],[629549.1,5220263.3],[629550.5,5220262.4],[629552.0,5220262.5],[629554.3,5220263.9],[629556.3,5220266.0],[629557.7,5220266.5],[629559.6,5220266.0],[629563.9,5220267.4],[629565.5,5220267.5],[629569.3,5220269.3],[629571.3,5220268.9],[629574.9,5220271.2],[629577.1,5220271.3],[629579.8,5220273.4],[629581.3,5220272.8],[629583.2,5220273.6],[629585.3,5220273.2],[629589.2,5220275.2],[629593.6,5220276.2],[629597.1,5220278.6],[629598.9,5220277.9],[629601.5,5220278.6],[629606.4,5220281.8],[629607.9,5220282.1],[629609.1,5220281.2],[629610.6,5220281.2],[629614.0,5220283.3],[629615.4,5220283.2],[629616.9,5220284.1],[629618.7,5220283.9],[629622.7,5220285.5],[629624.1,5220285.6],[629625.4,5220286.4],[629631.7,5220288.0],[629633.1,5220287.9],[629634.4,5220288.6],[629645.7,5220291.4],[629653.6,5220278.8],[629661.4,5220268.4],[629693.1,5220229.7],[629692.3,5220228.2],[629692.6,5220226.6],[629702.4,5220213.8],[629700.2,5220212.1],[629698.2,5220212.0],[629695.1,5220209.7],[629693.5,5220210.4],[629691.5,5220209.7],[629689.4,5220210.3],[629683.5,5220206.6],[629682.1,5220206.8],[629680.4,5220205.9],[629678.9,5220206.1],[629677.4,5220205.3],[629675.8,5220205.4],[629674.5,5220204.6],[629672.7,5220204.6],[629668.6,5220202.4],[629667.9,5220201.4],[629667.8,5220200.1],[629659.2,5220197.6],[629657.3,5220198.2],[629655.7,5220197.6],[629654.0,5220198.4],[629652.0,5220197.6],[629649.8,5220197.9],[629646.4,5220195.3],[629643.9,5220194.1],[629642.3,5220194.1],[629638.3,5220192.2],[629636.3,5220192.3],[629632.8,5220190.4],[629630.8,5220190.5],[629627.3,5220187.9],[629625.4,5220188.5],[629619.8,5220187.1],[629618.4,5220186.1],[629616.7,5220186.1],[629612.8,5220184.3],[629611.5,5220184.3],[629608.6,5220183.0],[629606.3,5220180.7],[629604.8,5220180.3],[629603.0,5220180.9],[629601.0,5220179.8],[629599.8,5220180.5],[629598.3,5220180.5],[629593.9,5220178.0],[629589.7,5220177.2],[629586.0,5220175.3],[629584.1,5220175.4],[629580.3,5220173.6],[629576.1,5220172.7],[629574.8,5220171.8],[629573.4,5220171.9],[629571.8,5220171.0],[629569.7,5220171.1],[629567.3,5220170.1],[629563.9,5220167.4],[629562.2,5220167.8],[629560.7,5220167.0],[629508.4,5220240.6],[629508.3,5220241.3],[629509.4,5220239.9],[629511.0,5220239.4],[629512.1,5220239.7],[629513.5,5220240.9],[629513.8,5220243.1],[629514.8,5220244.1],[629515.1,5220245.5],[629513.2,5220248.8],[629515.2,5220250.7],[629520.2,5220253.1],[629521.9,5220250.8]]],[[[629505.4,5220240.5],[629505.3,5220240.6],[629505.3,5220240.9],[629505.4,5220240.5]]]]}},{"type":"Feature","properties":{"vineyard_id":"V04","status":"green"},"geometry":{"type":"MultiPolygon","coordinates":[[[[629103.2,5220658.5],[629102.9,5220658.7],[629104.3,5220659.2],[629103.2,5220658.5]]],[[[629022.2,5220737.9],[629040.2,5220751.2],[629043.0,5220752.6],[629043.9,5220754.0],[629054.1,5220761.6],[629055.4,5220761.6],[629057.4,5220762.7],[629058.2,5220763.6],[629058.5,5220764.9],[629061.1,5220766.8],[629063.2,5220767.3],[629064.0,5220768.6],[629067.8,5220770.7],[629068.5,5220771.9],[629070.8,5220773.4],[629072.4,5220772.7],[629074.1,5220773.2],[629077.8,5220776.1],[629078.3,5220777.5],[629078.1,5220778.7],[629083.1,5220781.8],[629088.6,5220773.9],[629090.1,5220773.2],[629091.8,5220773.6],[629093.8,5220776.2],[629093.1,5220779.2],[629094.5,5220780.0],[629095.2,5220781.5],[629093.1,5220787.4],[629095.5,5220788.4],[629099.2,5220791.1],[629109.4,5220800.8],[629130.8,5220770.1],[629132.7,5220764.9],[629131.9,5220763.5],[629132.0,5220762.1],[629135.9,5220756.0],[629147.3,5220725.0],[629154.1,5220710.4],[629152.9,5220709.9],[629151.7,5220710.9],[629150.0,5220711.0],[629147.2,5220709.8],[629146.1,5220708.3],[629146.4,5220706.6],[629151.9,5220697.8],[629150.7,5220696.6],[629150.5,5220695.1],[629146.8,5220692.4],[629146.7,5220690.3],[629145.6,5220689.3],[629145.2,5220688.2],[629146.3,5220685.5],[629143.8,5220684.1],[629142.9,5220685.1],[629141.5,5220685.6],[629139.5,5220684.8],[629138.2,5220685.1],[629136.4,5220684.5],[629134.8,5220684.7],[629132.3,5220683.6],[629128.1,5220680.5],[629125.9,5220680.4],[629122.8,5220678.2],[629103.3,5220667.3],[629102.4,5220665.2],[629104.0,5220662.3],[629092.3,5220658.5],[629090.4,5220659.2],[629088.5,5220658.5],[629086.9,5220659.2],[629085.0,5220658.5],[629083.3,5220658.6],[629079.6,5220656.2],[629077.5,5220657.1],[629074.2,5220656.2],[629072.8,5220655.4],[629071.1,5220657.2],[629069.0,5220657.2],[629067.1,5220656.0],[629066.3,5220654.8],[629066.5,5220653.0],[629068.9,5220649.4],[629066.5,5220647.9],[629059.3,5220658.7],[629057.0,5220659.0],[629053.8,5220656.9],[629033.1,5220687.4],[629031.5,5220688.0],[629029.9,5220687.5],[629028.9,5220688.7],[629027.3,5220689.1],[629023.5,5220686.9],[629022.4,5220688.6],[629023.7,5220690.1],[629023.6,5220692.2],[629004.4,5220721.6],[629005.3,5220722.6],[629005.5,5220723.7],[629004.3,5220726.3],[629019.3,5220736.1],[629021.2,5220736.6],[629022.2,5220737.9]]]]}},{"type":"Feature","properties":{"vineyard_id":"V14","status":"green"},"geometry":{"type":"MultiPolygon","coordinates":[[[[629627.9,5220078.9],[629627.5,5220079.1],[629628.4,5220079.3],[629627.9,5220078.9]]],[[[629759.6,5220149.2],[629758.5,5220148.0],[629758.4,5220146.5],[629761.1,5220142.6],[629759.7,5220141.1],[629759.6,5220139.3],[629768.8,5220126.7],[629766.6,5220125.1],[629764.0,5220127.7],[629762.6,5220127.8],[629761.2,5220126.9],[629760.7,5220125.5],[629761.1,5220123.9],[629760.1,5220122.9],[629759.8,5220121.5],[629762.1,5220117.8],[629759.1,5220115.1],[629756.0,5220114.6],[629754.6,5220114.0],[629753.1,5220114.1],[629751.6,5220113.2],[629742.6,5220110.9],[629740.2,5220113.9],[629738.4,5220114.3],[629737.1,5220113.7],[629735.5,5220113.7],[629734.3,5220113.0],[629732.4,5220113.1],[629730.9,5220112.2],[629729.5,5220112.2],[629725.6,5220110.8],[629724.1,5220110.9],[629720.3,5220109.5],[629718.0,5220109.6],[629710.8,5220105.5],[629709.9,5220103.4],[629708.8,5220102.5],[629707.3,5220102.1],[629705.7,5220103.9],[629704.1,5220104.2],[629695.4,5220101.8],[629693.5,5220100.3],[629693.0,5220098.6],[629680.7,5220095.5],[629679.1,5220095.9],[629677.5,5220095.2],[629676.3,5220095.8],[629675.1,5220095.8],[629671.7,5220093.7],[629669.7,5220094.0],[629667.7,5220092.8],[629666.4,5220094.2],[629664.5,5220094.5],[629663.5,5220093.9],[629662.7,5220092.5],[629660.2,5220090.3],[629621.7,5220080.4],[629606.4,5220102.1],[629605.9,5220103.4],[629601.2,5220109.4],[629562.7,5220163.9],[629602.7,5220176.5],[629604.2,5220176.6],[629605.3,5220177.3],[629658.3,5220194.0],[629660.2,5220193.8],[629661.9,5220195.1],[629706.1,5220209.0],[629713.7,5220199.2],[629715.2,5220198.6],[629717.0,5220199.2],[629733.2,5220178.3],[629734.4,5220177.4],[629735.9,5220177.4],[629745.6,5220164.8],[629759.6,5220149.2]]],[[[629560.9,5220166.4],[629560.9,5220166.4],[629559.9,5220167.8],[629560.9,5220166.4]]],[[[629554.1,5220170.8],[629554.6,5220170.1],[629554.1,5220170.7],[629554.1,5220170.8]]],[[[629664.1,5220199.2],[629664.4,5220199.1],[629663.6,5220198.8],[629664.1,5220199.2]]]]}},{"type":"Feature","properties":{"vineyard_id":"V45","status":"green"},"geometry":{"type":"MultiPolygon","coordinates":[[[[630169.2,5219289.4],[630180.1,5219303.8],[630214.8,5219276.8],[630216.2,5219276.4],[630217.3,5219276.8],[630220.0,5219278.6],[630221.4,5219280.7],[630223.8,5219279.0],[630224.3,5219277.5],[630226.3,5219276.0],[630225.2,5219273.6],[630226.1,5219271.7],[630255.2,5219249.1],[630257.0,5219248.8],[630258.6,5219249.9],[630259.8,5219249.0],[630246.4,5219231.4],[630243.4,5219233.7],[630241.5,5219233.8],[630236.4,5219229.0],[630235.1,5219229.4],[630233.9,5219229.1],[630230.8,5219225.9],[630229.4,5219225.7],[630228.0,5219224.5],[630226.8,5219225.3],[630225.4,5219225.4],[630222.4,5219223.8],[630221.0,5219221.1],[630221.7,5219218.9],[630220.9,5219217.5],[630221.0,5219216.1],[630215.3,5219209.8],[630213.3,5219210.5],[630211.4,5219209.3],[630209.1,5219210.4],[630208.0,5219210.1],[630207.0,5219209.2],[630205.0,5219210.1],[630203.1,5219209.1],[630201.3,5219209.8],[630199.7,5219209.1],[630189.8,5219217.3],[630190.1,5219218.7],[630189.6,5219220.2],[630182.3,5219226.3],[630184.3,5219229.1],[630184.1,5219231.2],[630172.6,5219240.8],[630173.0,5219242.3],[630172.5,5219243.6],[630168.7,5219246.8],[630169.3,5219248.4],[630168.7,5219250.0],[630165.6,5219253.0],[630164.0,5219253.1],[630162.7,5219252.3],[630160.2,5219254.3],[630162.1,5219257.1],[630161.7,5219259.4],[630151.6,5219267.6],[630160.3,5219277.9],[630161.7,5219278.3],[630162.7,5219279.4],[630164.8,5219279.2],[630166.2,5219280.4],[630166.7,5219282.0],[630165.9,5219283.6],[630168.5,5219286.8],[630169.2,5219289.4]]],[[[630154.3,5219275.6],[630154.4,5219275.7],[630153.8,5219275.0],[630154.3,5219275.6]]]]}},{"type":"Feature","properties":{"vineyard_id":"V06","status":"green"},"geometry":{"type":"Polygon","coordinates":[[[629207.7,5220611.1],[629220.8,5220558.1],[629218.7,5220554.9],[629218.9,5220553.5],[629219.8,5220552.5],[629219.1,5220549.0],[629220.1,5220547.1],[629218.8,5220544.6],[629144.9,5220584.4],[629145.3,5220585.6],[629144.9,5220587.0],[629145.3,5220588.1],[629145.0,5220595.7],[629144.5,5220597.0],[629143.0,5220598.0],[629146.2,5220604.5],[629146.0,5220606.8],[629147.3,5220609.2],[629149.9,5220608.1],[629151.1,5220608.3],[629152.2,5220609.2],[629154.5,5220608.2],[629155.9,5220608.5],[629156.8,5220609.2],[629159.4,5220608.2],[629161.5,5220609.2],[629164.3,5220608.1],[629166.3,5220609.2],[629172.7,5220606.2],[629174.5,5220606.9],[629175.8,5220609.2],[629186.9,5220603.8],[629188.7,5220604.5],[629190.6,5220609.2],[629192.1,5220609.7],[629193.1,5220610.8],[629198.1,5220608.2],[629200.7,5220608.3],[629201.7,5220607.4],[629202.9,5220607.1],[629205.4,5220608.2],[629206.2,5220609.4],[629206.2,5220610.8],[629207.7,5220611.1]]]}},{"type":"Feature","properties":{"vineyard_id":"V25","status":"green"},"geometry":{"type":"Polygon","coordinates":[[[630050.5,5219720.5],[630052.7,5219722.1],[630056.0,5219717.9],[630057.7,5219717.6],[630059.2,5219718.3],[630061.3,5219715.3],[630062.5,5219714.6],[630063.7,5219714.5],[630065.0,5219715.2],[630121.2,5219636.1],[630119.0,5219634.4],[630117.1,5219635.0],[630115.3,5219634.2],[630114.3,5219632.3],[630115.0,5219630.5],[630112.7,5219628.9],[630073.0,5219684.7],[630071.6,5219685.7],[630070.0,5219685.6],[630066.1,5219691.3],[630066.7,5219692.8],[630066.1,5219694.6],[630066.4,5219695.9],[630066.2,5219697.1],[630065.1,5219698.1],[630063.5,5219698.4],[630053.1,5219712.1],[630054.2,5219713.5],[630054.2,5219715.1],[630050.5,5219720.5]]]}},{"type":"Feature","properties":{"vineyard_id":"V30","status":"green"},"geometry":{"type":"Polygon","coordinates":[[[629912.9,5219560.0],[629934.8,5219587.0],[629936.3,5219586.3],[629938.0,5219586.7],[629943.4,5219593.1],[629946.7,5219589.8],[629948.1,5219589.2],[629949.5,5219589.3],[629958.1,5219599.4],[629959.4,5219598.7],[629960.8,5219598.8],[629963.7,5219601.8],[629965.9,5219600.1],[629964.6,5219597.7],[629964.9,5219596.5],[629965.8,5219595.5],[629924.6,5219545.3],[629920.3,5219548.5],[629919.6,5219549.9],[629917.1,5219552.0],[629916.9,5219553.8],[629915.7,5219555.1],[629915.4,5219556.4],[629912.9,5219560.0]]]}},{"type":"Feature","properties":{"vineyard_id":"V22","status":"green"},"geometry":{"type":"Polygon","coordinates":[[[630242.4,5219660.0],[630236.7,5219635.5],[630235.6,5219636.4],[630234.2,5219636.5],[630230.6,5219634.5],[630218.6,5219654.9],[630222.3,5219656.9],[630223.2,5219658.6],[630223.0,5219659.8],[630219.6,5219665.9],[630220.7,5219666.9],[630221.1,5219668.3],[630219.3,5219673.0],[630212.3,5219685.4],[630210.6,5219686.2],[630208.8,5219685.8],[630178.3,5219740.2],[630179.1,5219741.9],[630180.2,5219742.6],[630182.2,5219742.6],[630184.1,5219744.3],[630184.5,5219746.1],[630183.3,5219748.5],[630184.8,5219749.5],[630186.7,5219752.0],[630186.8,5219753.4],[630186.1,5219755.0],[630188.5,5219756.3],[630191.1,5219752.4],[630192.5,5219752.0],[630193.9,5219752.4],[630226.8,5219694.0],[630225.3,5219692.5],[630225.3,5219690.6],[630242.4,5219660.0]]]}},{"type":"Feature","properties":{"vineyard_id":"V21","status":"green"},"geometry":{"type":"Polygon","coordinates":[[[629835.6,5219688.3],[629832.6,5219686.1],[629830.7,5219685.3],[629820.7,5219672.4],[629818.5,5219674.1],[629819.7,5219675.7],[629820.0,5219676.8],[629818.1,5219680.2],[629817.0,5219681.1],[629815.4,5219681.2],[629813.2,5219682.9],[629813.3,5219684.5],[629812.3,5219685.9],[629810.0,5219686.2],[629781.7,5219726.6],[629784.0,5219728.1],[629785.7,5219727.1],[629787.6,5219727.5],[629789.7,5219729.8],[629789.8,5219732.0],[629796.3,5219736.3],[629801.5,5219741.3],[629805.4,5219743.6],[629809.8,5219737.7],[629811.6,5219737.3],[629813.5,5219738.4],[629843.1,5219696.1],[629836.1,5219691.4],[629835.3,5219690.0],[629835.6,5219688.3]]]}},{"type":"Feature","properties":{"vineyard_id":"V35","status":"green"},"geometry":{"type":"Polygon","coordinates":[[[630134.8,5219463.9],[630144.2,5219457.7],[630092.9,5219391.6],[630090.6,5219393.3],[630089.9,5219394.6],[630088.5,5219395.2],[630079.6,5219402.5],[630108.4,5219439.0],[630110.1,5219438.6],[630111.6,5219439.4],[630129.8,5219462.3],[630132.0,5219461.5],[630133.4,5219462.1],[630134.8,5219463.9]]]}},{"type":"Feature","properties":{"vineyard_id":"V03","status":"green"},"geometry":{"type":"Polygon","coordinates":[[[629048.1,5220760.9],[629046.8,5220761.3],[629045.4,5220760.8],[629044.5,5220759.6],[629044.3,5220758.0],[629037.3,5220752.9],[629029.5,5220764.7],[629031.8,5220766.3],[629034.1,5220762.8],[629035.7,5220762.1],[629037.1,5220762.4],[629040.0,5220764.3],[629041.6,5220763.2],[629043.6,5220763.8],[629044.3,5220764.7],[629044.5,5220766.2],[629042.0,5220770.3],[629043.0,5220772.3],[629042.1,5220774.4],[629044.4,5220775.9],[629052.4,5220764.1],[629048.1,5220760.9]]]}},{"type":"Feature","properties":{"vineyard_id":"V23","status":"green"},"geometry":{"type":"Polygon","coordinates":[[[629869.2,5219680.6],[629871.1,5219678.8],[629867.2,5219674.6],[629866.7,5219673.2],[629867.2,5219671.6],[629869.0,5219670.1],[629862.6,5219661.8],[629862.4,5219660.2],[629863.5,5219658.6],[629848.9,5219639.7],[629846.7,5219641.4],[629847.1,5219643.0],[629846.5,5219644.3],[629845.1,5219645.3],[629843.6,5219645.3],[629841.4,5219647.1],[629841.1,5219648.6],[629838.3,5219652.8],[629831.5,5219659.0],[629852.5,5219687.2],[629854.0,5219686.4],[629855.7,5219686.5],[629858.5,5219689.7],[629862.2,5219687.3],[629864.2,5219685.5],[629862.5,5219681.3],[629862.6,5219680.1],[629863.4,5219678.9],[629864.8,5219678.1],[629866.3,5219678.1],[629869.2,5219680.6]]]}},{"type":"Feature","properties":{"vineyard_id":"V34","status":"green"},"geometry":{"type":"Polygon","coordinates":[[[630192.8,5219488.4],[630196.3,5219494.0],[630196.1,5219495.7],[630195.0,5219496.8],[630198.5,5219501.6],[630200.2,5219501.1],[630201.8,5219501.8],[630204.1,5219500.2],[630204.4,5219498.4],[630206.3,5219496.9],[630201.6,5219489.9],[630199.7,5219491.0],[630198.1,5219490.7],[630195.1,5219486.8],[630192.8,5219488.4]]]}},{"type":"Feature","properties":{"vineyard_id":"V40","status":"green"},"geometry":{"type":"Polygon","coordinates":[[[630216.9,5219360.1],[630221.3,5219367.6],[630221.1,5219369.5],[630219.6,5219370.8],[630226.4,5219381.4],[630231.8,5219378.2],[630233.7,5219378.4],[630235.0,5219379.9],[630237.4,5219378.5],[630220.5,5219351.1],[630218.1,5219352.6],[630220.0,5219355.8],[630220.0,5219357.5],[630219.4,5219358.5],[630216.9,5219360.1]]]}},{"type":"Feature","properties":{"vineyard_id":"V46","status":"green"},"geometry":{"type":"Polygon","coordinates":[[[630248.8,5219229.6],[630252.0,5219233.7],[630253.3,5219234.7],[630253.7,5219236.0],[630256.6,5219239.1],[630258.7,5219242.6],[630263.5,5219238.8],[630261.3,5219235.5],[630261.3,5219234.3],[630262.1,5219233.0],[630260.4,5219230.9],[630258.2,5219230.2],[630255.9,5219227.2],[630254.0,5219225.5],[630248.8,5219229.6]]]}}]}