{"type":"FeatureCollection","crs":{"type":"name","properties":{"name":"urn:ogc:def:crs:EPSG::32635"}},"demo":true,"generated":"2026-09-27","flight_date":"2025-05-20","about":"Registru viticol DEMONSTRATIV (sintetic) cu câmpuri măsurate din zborul UAV. Structură conform Reg. (UE) 2018/273 art. 7.","features":[{"type":"Feature","geometry":{"type":"MultiPolygon","coordinates":[[[[629289.418682982,5220784.494272903],[629295.4288560516,5220770.554578513],[629283.4956169868,5220761.473410198],[629282.5088467757,5220761.097052237],[629281.4401408987,5220761.373012132],[629280.2027003105,5220761.104889203],[629278.9437841249,5220761.421183695],[629277.6756370792,5220761.090624092],[629276.4275987952,5220761.4616892375],[629274.944241873,5220761.086548384],[629273.6223018473,5220761.50499124],[629272.0912154979,5220761.112847051],[629270.7756091672,5220761.529133246],[629269.1656175358,5220761.106826894],[629267.9027636474,5220761.492070509],[629266.3703083075,5220761.102121194],[629265.1377412054,5220761.404688438],[629263.9242616813,5220761.098999588],[629262.6578074392,5220761.485313792],[629261.1214477667,5220761.0932544125],[629259.8931518103,5220763.629576909],[629258.1718207629,5220764.387433532],[629256.4093318692,5220763.730957991],[629255.5575161239,5220762.1367679015],[629253.0209812883,5220761.1084261],[629251.5005625669,5220761.4865572555],[629249.8675096871,5220760.903279114],[629249.1802882659,5220760.235618655],[629248.7531702394,5220759.121160606],[629249.2929849114,5220756.851065495],[629248.2898293203,5220756.107683336],[629247.7447092148,5220754.785462705],[629247.8334083647,5220753.82862116],[629249.2900769704,5220750.169161703],[629248.2408412814,5220749.429166727],[629247.6690765006,5220748.103614405],[629247.7474953249,5220747.13667685],[629249.2795929437,5220743.190362584],[629248.1063944144,5220742.410803915],[629247.5659534294,5220741.324483491],[629247.6006290942,5220740.111649568],[629248.3672904556,5220738.112128588],[629233.1912293201,5220730.31385858],[629187.8678325969,5220839.924612879],[629204.4522431056,5220852.663976519],[629232.2244519494,5220858.165665419],[629248.0,5220865.589444108],[629248.0,5220867.50978223],[629249.2320346396,5220864.568609866],[629248.1090781406,5220863.543693936],[629247.8161414005,5220861.8492693035],[629249.2811317956,5220858.044047906],[629248.1315477384,5220857.121422939],[629247.6987146555,5220855.7261662055],[629249.2755778591,5220851.387643569],[629248.1157194666,5220850.447974645],[629247.6945475731,5220849.054532245],[629249.2705108024,5220844.778792917],[629248.0368168282,5220843.806019359],[629247.6175151612,5220842.420554643],[629249.2803509405,5220837.888190488],[629248.082384882,5220836.937491104],[629247.6568674553,5220835.554285799],[629249.2828715694,5220831.052078092],[629248.2929774332,5220830.284440895],[629247.7792207926,5220828.972507796],[629247.8763902885,5220828.031063158],[629249.2769180259,5220824.571900051],[629248.2665559502,5220823.836682915],[629247.7051735386,5220822.499216377],[629247.7958481105,5220821.528618019],[629249.2626260304,5220817.895110549],[629248.2027922125,5220816.417731866],[629248.3577091349,5220814.74156896],[629249.54022667,5220813.54358164],[629252.15690891,5220812.926817037],[629253.8512845014,5220813.324652949],[629255.2219789139,5220812.938969091],[629256.6334250018,5220813.326010382],[629257.9241485079,5220812.991785203],[629259.2068629207,5220813.329375908],[629260.5084331958,5220812.923954689],[629262.0574600571,5220813.3226668],[629263.168880963,5220813.080933395],[629264.2284863238,5220813.325389069],[629265.6783133213,5220812.888113623],[629267.2176921064,5220813.327343939],[629268.5916367467,5220812.942689742],[629269.992353044,5220813.328175934],[629271.2392285926,5220812.957036097],[629272.7083599973,5220813.325700571],[629273.9673388145,5220812.945333263],[629275.448758038,5220813.317218327],[629276.7155305446,5220812.927613181],[629278.2576117945,5220813.317854689],[629288.9436205082,5220786.708325948],[629289.418682982,5220784.494272903]]],[[[629203.392097975,5220855.505996089],[629186.6806848617,5220842.795628031],[629162.2433977827,5220901.895114464],[629163.1474255488,5220902.62006043],[629163.6542273519,5220903.863946831],[629164.7658353809,5220904.439160914],[629165.637374077,5220905.834441841],[629166.9393182668,5220906.679194463],[629167.524478225,5220908.0671488],[629168.8191599097,5220908.906930853],[629169.4059625453,5220910.298320095],[629170.620050308,5220911.09992542],[629171.2606309287,5220912.487062643],[629176.1874231435,5220914.5276041655],[629177.4286163481,5220914.097285869],[629178.8865821757,5220914.418001227],[629180.232660024,5220914.255207456],[629183.8283773274,5220915.730319625],[629185.1190494859,5220915.341506657],[629186.6186441677,5220915.731129918],[629187.7742059083,5220915.359936987],[629189.3567849704,5220915.741323663],[629190.5790690522,5220915.413102889],[629191.8851983914,5220915.7437525],[629193.1364676518,5220915.39235343],[629194.8414385432,5220915.939788848],[629195.8918877547,5220917.537806386],[629195.5140903126,5220919.521234383],[629198.2626958007,5220920.800943673],[629199.1545841143,5220922.4828568725],[629198.977371706,5220923.678358345],[629196.027068587,5220930.837003392],[629197.4292635017,5220931.523031311],[629198.1569337484,5220932.457093257],[629200.7338069679,5220933.541894521],[629201.6745941906,5220931.440545486],[629202.5914358599,5220930.626087032],[629204.2767397849,5220930.402988957],[629207.1705066627,5220931.616313509],[629208.1399437526,5220929.6809742935],[629209.597607567,5220928.844975165],[629210.8068078137,5220928.925925988],[629214.4918585944,5220930.579095274],[629220.4036939049,5220935.249819035],[629221.0741290214,5220936.5345325],[629220.8549129243,5220938.13430199],[629222.0017528327,5220938.919797861],[629222.5366460155,5220940.023727076],[629224.0538360521,5220940.920323074],[629224.6048671316,5220941.877360817],[629227.1724710974,5220942.987229859],[629228.980546136,5220942.864088114],[629231.5706257948,5220944.139472953],[629232.149138083,5220945.123549074],[629233.054673777,5220945.854217897],[629233.5345965739,5220946.933281296],[629233.4656550227,5220948.112243031],[629232.722575671,5220949.945783059],[629238.6622053247,5220952.885347489],[629240.4064894911,5220954.124323243],[629240.9798779188,5220955.698795081],[629240.4076135259,5220957.630402932],[629241.4006086856,5220958.531938221],[629241.777714144,5220959.658505107],[629241.3374687681,5220961.447567353],[629243.9152181355,5220962.52730026],[629245.2125239309,5220961.537242783],[629247.0331314236,5220961.627789693],[629249.2684697717,5220956.120615328],[629248.1550109313,5220955.160720722],[629247.7716085461,5220953.79626198],[629249.2825312318,5220949.712432647],[629248.1637561235,5220948.791556884],[629247.7409004252,5220947.415883532],[629249.277301912,5220943.094840795],[629248.1421238186,5220942.175256431],[629247.7118225524,5220940.78104724],[629249.2752613075,5220936.483406343],[629248.0480626879,5220935.517592144],[629247.6253288366,5220934.128904144],[629249.2601525453,5220929.666168127],[629248.1579489595,5220928.706139324],[629247.7790213712,5220927.3475862425],[629249.2708942456,5220923.297845568],[629248.2304460336,5220922.307412121],[629247.9014558247,5220921.0992882],[629249.2649243291,5220917.266716941],[629248.1043152368,5220916.2741582105],[629247.7299751046,5220914.9072421],[629249.2672360283,5220910.834882867],[629248.2837158864,5220910.007528558],[629247.830433445,5220908.589977852],[629249.2630481593,5220904.633704019],[629248.1412564707,5220903.701915886],[629247.7273224177,5220902.305100577],[629249.2647456875,5220898.188997604],[629247.9670169915,5220897.174547873],[629247.5603446645,5220895.777705978],[629249.2776474301,5220891.286382136],[629248.0440867698,5220890.299917684],[629247.6361277978,5220888.915054145],[629249.2723654119,5220884.517826074],[629248.064693269,5220883.552442652],[629247.6484910676,5220882.163443449],[629249.2658036167,5220877.788061611],[629248.2478956959,5220876.859366376],[629247.8771443848,5220875.492775832],[629249.2579460099,5220871.805690191],[629247.7146220158,5220870.529047124],[629247.5283734229,5220868.683720148],[629231.2833869967,5220861.026199693],[629203.392097975,5220855.505996089]]]]},"properties":{"cad_nr":"DEMO-0001","grower_id":"DEMO-G-02","rvv_code":"RVV-DEMO-V02","vineyard_id":"V02","declared_area_ha":1.6,"variety":"Rara Neagra","planting_year":2004,"planting_scheme":"2,5 × 1,2 m","authorisation_nr":"DEMO-AUT-2004-001","status":"planted","pdo_pgi":"IGP Codru","scenario":"split","demo":true,"events":[{"type":"planting","date":"2004-04-28","result":"înregistrat","note":"autorizație DEMO-AUT-2004-001"},{"type":"inspection","date":"2024-09-28","result":"conform","note":"control ONVV (DEMO)"}],"measured":{"parcel_area_ha":1.2853,"measured_area_ha":1.1811,"rows":44,"row_length_m":4737.8,"row_spacing_m":2.49,"density_nominal":3343,"density_effective":3007,"gap_length_m":476.3,"gap_share":0.101,"missing_vines":397,"bare_soil_share":0.783,"vegetation_share":0.0,"mixed_share":0.217,"status_detected":"planted","detected_vineyard_id":"V02","area_diff_ha":-0.4189,"area_diff_pct":-26.2}}},{"type":"Feature","geometry":{"type":"MultiPolygon","coordinates":[[[[629233.1912293201,5220730.31385858],[629211.7901557123,5220719.316306532],[629210.0390981197,5220719.62959692],[629207.130104828,5220718.5452717785],[629206.0947602876,5220717.531846989],[629205.791050298,5220716.231482981],[629193.9422693747,5220710.138674817],[629192.9539588242,5220710.260163392],[629191.7102925049,5220709.881467382],[629190.1071866569,5220710.310216795],[629188.7867947621,5220709.907617912],[629187.4316991197,5220710.286722279],[629186.0214574885,5220709.902249551],[629184.6792739922,5220710.265775702],[629183.2918150795,5220709.882752891],[629182.040885832,5220710.250926208],[629180.5788142064,5220709.878971476],[629179.2774144995,5220710.280010495],[629177.7625535451,5220709.889553123],[629176.4943066078,5220710.27275864],[629174.9822717509,5220709.885244837],[629173.6616051133,5220710.301704699],[629172.1097639385,5220709.899911482],[629171.1197606233,5220710.797404878],[629169.9745247053,5220711.0644585155],[629166.644507162,5220709.8983952785],[629165.406380971,5220710.266066171],[629163.9409748345,5220709.900942062],[629162.5530222061,5220710.29774039],[629161.1065676402,5220709.896977836],[629159.6850044004,5220710.3099905485],[629158.2347147872,5220709.9027111335],[629144.3290418088,5220743.629718928],[629145.1836869083,5220745.028441304],[629145.0335909231,5220746.695666053],[629139.3845439366,5220755.267167385],[629138.5149499567,5220757.642138863],[629138.7807247982,5220758.624664597],[629138.6436528476,5220759.596982826],[629138.142690546,5220760.4415112315],[629137.2584687116,5220761.073748542],[629132.5602220045,5220773.905256327],[629119.8543220618,5220811.0632627215],[629129.9227915903,5220817.858484389],[629155.5538786848,5220826.757095973],[629181.5782744436,5220835.202323503],[629187.8678325969,5220839.924612879],[629233.1912293201,5220730.31385858]]],[[[629180.406461854,5220837.9760652],[629154.5843825255,5220829.596164592],[629128.7539488513,5220820.628343779],[629118.6320418131,5220813.857657027],[629107.7309603392,5220838.879152362],[629101.5265976492,5220852.081205426],[629102.0653097723,5220852.784610584],[629103.5492464729,5220853.474650519],[629104.4172474333,5220854.537285693],[629105.7955791451,5220855.1592902895],[629107.4110104345,5220856.550030823],[629108.015916383,5220857.919902931],[629107.6767140678,5220859.556862223],[629108.8445333373,5220860.579774494],[629109.1639478053,5220862.263716666],[629110.5306839934,5220863.059927098],[629111.2269679133,5220864.652867981],[629112.5046960135,5220865.870730993],[629112.6168508142,5220867.77166051],[629110.7284415972,5220871.930653682],[629113.2696175387,5220873.094386908],[629114.9202197713,5220872.240367851],[629117.5968895284,5220872.672096567],[629120.8956022563,5220874.668379558],[629123.4391501556,5220875.681480299],[629125.2163289469,5220875.4221921405],[629127.4473945542,5220876.302328655],[629135.7941898453,5220880.591306044],[629136.841068667,5220881.725748134],[629140.50992572,5220883.63205263],[629143.3592283218,5220885.803912537],[629146.7973366427,5220887.726701746],[629147.5874670959,5220888.658795388],[629150.9976056933,5220890.099542536],[629151.7072529219,5220890.757466836],[629152.1547633979,5220891.839703139],[629157.7874407897,5220895.538196268],[629158.450357694,5220896.445830443],[629159.6565920255,5220897.057645709],[629161.6138636994,5220899.1515092375],[629162.0165860783,5220900.296536124],[629161.7578737685,5220901.681607036],[629162.2433977827,5220901.895114464],[629186.6806848617,5220842.795628031],[629180.406461854,5220837.9760652]]]]},"properties":{"cad_nr":"DEMO-0002","grower_id":"DEMO-G-02","rvv_code":"RVV-DEMO-V02","vineyard_id":"V02","declared_area_ha":1.624,"variety":"Rara Neagra","planting_year":2004,"planting_scheme":"2,5 × 1,2 m","authorisation_nr":"DEMO-AUT-2004-002","status":"planted","pdo_pgi":"IGP Codru","scenario":"split","demo":true,"events":[{"type":"planting","date":"2004-04-17","result":"înregistrat","note":"autorizație DEMO-AUT-2004-002"}],"measured":{"parcel_area_ha":1.3033,"measured_area_ha":1.2442,"rows":33,"row_length_m":4990.9,"row_spacing_m":2.49,"density_nominal":3343,"density_effective":2913,"gap_length_m":642.4,"gap_share":0.129,"missing_vines":535,"bare_soil_share":0.823,"vegetation_share":0.0,"mixed_share":0.177,"status_detected":"planted","detected_vineyard_id":"V02","area_diff_ha":-0.3798,"area_diff_pct":-23.4}}},{"type":"Feature","geometry":{"type":"Polygon","coordinates":[[[629056.6495803256,5220762.348241427],[629057.9336823135,5220763.218100917],[629058.4648494206,5220764.85529448],[629064.0616981555,5220769.02633333],[629067.5662532814,5220770.560039007],[629068.4823694304,5220771.854154117],[629073.2600019234,5220775.315712412],[629075.1523159705,5220774.6042321175],[629077.3302444344,5220775.575177536],[629078.2584165029,5220776.97961623],[629078.0589736956,5220778.709945181],[629083.1330049481,5220781.762443248],[629089.1495084222,5220773.026822599],[629090.7231313536,5220772.324932926],[629092.3771219439,5220772.80789604],[629093.9245369659,5220774.466559474],[629094.2948601878,5220775.582768497],[629093.1099233865,5220779.181149201],[629094.6453149054,5220780.136300661],[629095.2164639377,5220781.71540966],[629093.1097195888,5220787.395199416],[629095.4654520014,5220788.404676432],[629096.3200163561,5220789.285565096],[629099.2030272804,5220791.087722228],[629108.2627163909,5220799.971131788],[629109.4057416684,5220800.763433994],[629130.7596426813,5220770.097531049],[629132.6615238793,5220764.903252221],[629131.8778590639,5220763.526131282],[629132.0130247698,5220762.1100755185],[629135.9154401767,5220756.0163940145],[629147.2776837307,5220724.984665434],[629154.0678289845,5220710.385321078],[629152.8862109021,5220709.922596981],[629151.6738469056,5220710.942210466],[629150.2620142085,5220711.069379293],[629147.2101675281,5220709.816490989],[629146.2054887541,5220708.491808309],[629146.1242910972,5220707.2957491875],[629146.7684049512,5220705.919114591],[629145.7749060686,5220704.936795877],[629145.4586884263,5220703.510018057],[629146.7650270531,5220700.927203995],[629145.6410869304,5220699.84263405],[629145.3408057527,5220698.4123373255],[629146.7414365608,5220695.745301095],[629145.6541949883,5220694.795224255],[629145.2257795382,5220693.408946802],[629145.5145397375,5220692.229258299],[629146.739329619,5220690.347208773],[629145.5669377182,5220689.342935162],[629145.1364502246,5220687.961084212],[629145.3177169474,5220687.005453082],[629146.2605442194,5220685.476032293],[629143.7878285559,5220684.141358302],[629142.9211543637,5220685.122142962],[629141.5434755253,5220685.559593855],[629139.5181968659,5220684.755225042],[629138.169430158,5220685.136086176],[629136.3995655606,5220684.45773496],[629135.4734758852,5220684.718681164],[629134.3252638924,5220684.541261068],[629131.277941724,5220682.9151467765],[629128.1178194518,5220680.538086544],[629126.4818856306,5220680.290142016],[629114.3794472612,5220673.58930006],[629056.6495803256,5220762.348241427]],[[629125.2970134304,5220767.327568816],[629124.3593152217,5220766.511275919],[629123.9307486535,5220765.344252903],[629124.1172973486,5220764.115102136],[629125.0599874539,5220762.744361105],[629126.130755608,5220762.132358249],[629127.1186448641,5220762.062483405],[629128.9820592221,5220762.583030032],[629129.7690596501,5220763.146002249],[629130.3591617075,5220764.196887004],[629130.4301732531,5220765.161907601],[629129.1399351789,5220767.439532318],[629127.3592689191,5220768.137944024],[629125.2970134304,5220767.327568816]]]},"properties":{"cad_nr":"DEMO-0003","grower_id":"DEMO-G-04","rvv_code":"RVV-DEMO-V04","vineyard_id":"V04","declared_area_ha":0.605,"variety":"Muscat Ottonel","planting_year":2024,"planting_scheme":"2,7 × 1,2 m","authorisation_nr":"DEMO-AUT-2024-003","status":"planted","pdo_pgi":"IGP Codru","scenario":"split_unauthorised","demo":true,"events":[{"type":"inspection","date":"2023-08-19","result":"conform","note":"control ONVV (DEMO)"},{"type":"planting","date":"2024-04-16","result":"înregistrat","note":"autorizație DEMO-AUT-2024-003"}],"measured":{"parcel_area_ha":0.6347,"measured_area_ha":0.6001,"rows":29,"row_length_m":2049.9,"row_spacing_m":2.93,"density_nominal":2846,"density_effective":2634,"gap_length_m":153.3,"gap_share":0.075,"missing_vines":128,"bare_soil_share":0.988,"vegetation_share":0.0,"mixed_share":0.012,"status_detected":"planted","detected_vineyard_id":"V04","area_diff_ha":-0.0049,"area_diff_pct":-0.8}}},{"type":"Feature","geometry":{"type":"MultiPolygon","coordinates":[[[[629103.2145185999,5220658.476263825],[629102.922366326,5220658.71553429],[629104.2934790279,5220659.186803105],[629103.2145185999,5220658.476263825]]],[[[629022.1659140062,5220737.920412822],[629040.19924928,5220751.242897321],[629041.3368410153,5220752.000468564],[629043.0481724378,5220752.559334878],[629043.9477402952,5220754.036451764],[629054.1207947991,5220761.617897606],[629055.3687323196,5220761.647292955],[629056.6495803256,5220762.348241427],[629114.3794472612,5220673.58930006],[629103.0842210449,5220667.169623255],[629102.4940867797,5220666.139621252],[629102.445574934,5220664.953531382],[629104.0025233504,5220662.259059862],[629094.3818234608,5220658.952303366],[629093.3810863935,5220658.956309449],[629092.2940818794,5220658.460588336],[629091.3666910152,5220659.082733948],[629090.2012232821,5220659.233726824],[629088.5216079926,5220658.460548552],[629087.6109699884,5220659.018128912],[629086.6076994521,5220659.150338212],[629084.9783951998,5220658.461232302],[629083.2872614957,5220659.085072259],[629081.594875166,5220658.441881095],[629079.8218156277,5220659.138062074],[629078.0853524725,5220658.463656027],[629077.1100482704,5220659.078302164],[629076.1103222722,5220659.207452508],[629074.3908974406,5220658.456632119],[629072.6061505427,5220659.1686563995],[629070.8013201505,5220658.45392077],[629069.9822307293,5220659.064559805],[629069.0002729769,5220659.296235316],[629068.0067057704,5220659.120910543],[629066.8826320786,5220658.447801726],[629065.0983255572,5220659.159320183],[629063.2918077296,5220658.442744355],[629061.8284796724,5220659.174722983],[629060.8256050529,5220659.103667758],[629059.6369758283,5220658.470152189],[629057.842152097,5220659.192772903],[629055.9859673018,5220658.442322305],[629054.3185194775,5220659.028296224],[629052.7254346142,5220658.435655427],[629037.4139751921,5220681.003146305],[629035.8971826617,5220681.736773949],[629034.0402546158,5220681.201019905],[629029.5793414719,5220687.9953845795],[629028.4856030748,5220688.916811019],[629026.6001126233,5220688.960653854],[629023.5276689391,5220686.909998117],[629022.3534286551,5220688.615264261],[629023.7228384495,5220690.0602900395],[629023.9072169561,5220691.005255589],[629023.6183345574,5220692.169180661],[629004.39015362,5220721.6125172265],[629005.2598745208,5220722.582930787],[629005.5300739083,5220723.738538348],[629005.2369265809,5220724.888538865],[629004.3018588516,5220726.326002249],[629019.3340850853,5220736.120052829],[629021.2295916344,5220736.56536187],[629022.1659140062,5220737.920412822]]]]},"properties":{"cad_nr":"DEMO-0004","grower_id":"DEMO-G-04","rvv_code":null,"vineyard_id":"V04","declared_area_ha":0.598,"variety":"Muscat Ottonel","planting_year":2024,"planting_scheme":"2,7 × 1,2 m","authorisation_nr":null,"status":"planted","pdo_pgi":"IGP Codru","scenario":"split_unauthorised","demo":true,"events":[{"type":"planting","date":"2024-04-23","result":"înregistrat","note":"autorizație —"}],"measured":{"parcel_area_ha":0.6276,"measured_area_ha":0.5974,"rows":24,"row_length_m":2040.7,"row_spacing_m":2.93,"density_nominal":2846,"density_effective":2689,"gap_length_m":113.0,"gap_share":0.055,"missing_vines":94,"bare_soil_share":0.724,"vegetation_share":0.004,"mixed_share":0.272,"status_detected":"planted","detected_vineyard_id":"V04","area_diff_ha":-0.0006,"area_diff_pct":-0.1}}},{"type":"Feature","geometry":{"type":"Polygon","coordinates":[[[629220.7523541715,5220558.107223906],[629220.0973144443,5220556.873230229],[629218.3108804834,5220556.86120514],[629216.9417547418,5220555.580151417],[629214.5935149349,5220556.512400151],[629213.4478301187,5220556.252607312],[629212.6154465706,5220555.591009189],[629209.8864436207,5220556.732901674],[629208.7266480508,5220556.4637153605],[629207.7422672574,5220555.572005063],[629205.2397923968,5220556.547295881],[629204.0950483871,5220556.270604855],[629203.2538589076,5220555.569907226],[629200.9802117073,5220556.716096397],[629199.9946121677,5220556.886253034],[629198.7984061015,5220556.539453218],[629197.8744717117,5220555.584878993],[629144.9384650682,5220584.406914212],[629145.2838025098,5220585.619295069],[629144.9381208152,5220586.955619255],[629145.2538591358,5220587.912226989],[629144.9437947512,5220589.4502573935],[629145.2802619917,5220590.893639505],[629144.9457556212,5220591.981707223],[629145.3218009492,5220593.3717722315],[629144.9386090197,5220594.650567194],[629145.2246535019,5220595.936516207],[629144.9430651552,5220596.984309054],[629145.350932817,5220598.434573548],[629144.949789714,5220599.742434041],[629145.2868603836,5220601.057646487],[629144.9450544529,5220602.268423725],[629146.2953352283,5220604.979862102],[629146.0134901586,5220606.766581883],[629147.3360132735,5220609.229520226],[629149.888766552,5220608.092107091],[629151.1252478624,5220608.299494649],[629152.2094802237,5220609.228982952],[629154.4729762695,5220608.216913213],[629155.8595850286,5220608.457772488],[629156.7781454374,5220609.231048606],[629159.4475461062,5220608.165948515],[629160.6577102564,5220608.502334634],[629161.4525274298,5220609.230036776],[629164.2701740781,5220608.079207764],[629165.4791473588,5220608.41145799],[629166.3386603309,5220609.229425894],[629171.4958388418,5220606.461248137],[629172.6806975042,5220606.163403698],[629174.4559794529,5220606.904622867],[629175.807802022,5220609.235240612],[629185.6955523589,5220604.038983425],[629186.8973725607,5220603.751993518],[629188.0898476972,5220604.075626108],[629188.981682803,5220604.9308250025],[629189.3069256712,5220606.766840218],[629190.6323537254,5220609.228795904],[629192.8600548456,5220608.046344479],[629193.8168431044,5220607.853211428],[629195.207709535,5220608.271322617],[629196.0610813834,5220609.2294834675],[629198.5797905368,5220608.005318124],[629200.7109722041,5220608.329432076],[629201.4677816912,5220607.527677264],[629202.610173162,5220607.112395307],[629207.1667415813,5220608.330913607],[629208.4710923448,5220608.073628723],[629220.7523541715,5220558.107223906]]]},"properties":{"cad_nr":"DEMO-0005","grower_id":"DEMO-G-07","rvv_code":"RVV-DEMO-V07","vineyard_id":"V07","declared_area_ha":0.237,"variety":"Rara Neagra","planting_year":2012,"planting_scheme":"2,5 × 1,2 m","authorisation_nr":"DEMO-AUT-2012-005","status":"planted","pdo_pgi":"IGP Codru","scenario":"whole","demo":true,"events":[{"type":"planting","date":"2012-04-15","result":"înregistrat","note":"autorizație DEMO-AUT-2012-005"},{"type":"inspection","date":"2024-09-19","result":"conform","note":"control ONVV (DEMO)"}],"measured":{"parcel_area_ha":0.2861,"measured_area_ha":0.2347,"rows":19,"row_length_m":1061.7,"row_spacing_m":2.21,"density_nominal":3769,"density_effective":3548,"gap_length_m":62.2,"gap_share":0.059,"missing_vines":52,"bare_soil_share":0.16,"vegetation_share":0.0,"mixed_share":0.84,"status_detected":"planted","detected_vineyard_id":"V07","area_diff_ha":-0.0023,"area_diff_pct":-1.0}}},{"type":"Feature","geometry":{"type":"Polygon","coordinates":[[[629235.0500034203,5220492.872506304],[629234.3802938493,5220491.644275605],[629233.1938908611,5220490.6503217695],[629232.8275340486,5220489.040310062],[629233.7227588834,5220487.391599241],[629236.2713999082,5220485.958710183],[629236.4442298358,5220484.271078116],[629235.7916518303,5220482.182697199],[629236.0690237163,5220481.248124229],[629236.8437731244,5220480.369658522],[629237.3341786084,5220475.58099702],[629236.7272495832,5220473.5855161995],[629237.0054855997,5220472.646846813],[629237.7199112051,5220471.814434662],[629237.8958386627,5220470.096556149],[629237.3228844553,5220468.14633716],[629237.6022575668,5220467.21232399],[629238.2728826939,5220466.414835012],[629238.4500290962,5220464.685053872],[629237.783537025,5220463.457076162],[629196.1385941833,5220485.949344811],[629197.3655267392,5220488.811455655],[629196.9952330091,5220490.170030118],[629196.1397019383,5220491.011250099],[629197.3486759112,5220493.285761793],[629197.5425941851,5220494.238083484],[629197.1316014878,5220495.62462671],[629196.137509061,5220496.505134653],[629196.5418277129,5220497.815808305],[629196.1354524608,5220499.2647670815],[629197.4534158687,5220502.278272216],[629197.2026687829,5220503.427183566],[629196.4064696942,5220504.37030863],[629196.0558090812,5220506.117678446],[629195.351944231,5220506.848376008],[629191.9286065967,5220508.722744704],[629190.2968057444,5220508.987163651],[629188.7068691708,5220507.987235426],[629186.949205532,5220504.3813454835],[629175.771786176,5220510.293658069],[629177.9408092775,5220513.956379834],[629178.0368758263,5220515.190587107],[629177.5290425548,5220516.319569721],[629166.5556491559,5220522.50843214],[629167.0148291575,5220523.598554737],[629167.007220731,5220524.602031994],[629165.9140985599,5220526.246132447],[629166.0208864599,5220527.551916203],[629165.3450448131,5220528.851282013],[629154.7691535881,5220534.7104047],[629154.9241032643,5220535.658753297],[629154.6104970373,5220536.794834021],[629152.762027044,5220538.240006009],[629154.0964101529,5220540.960751385],[629154.0390412061,5220542.173682473],[629153.5812164586,5220543.034457655],[629144.941028939,5220547.898039371],[629145.3179269703,5220549.287951705],[629144.9374558919,5220550.563686973],[629145.3531582002,5220551.94305865],[629144.8299671408,5220553.501920813],[629145.3957043171,5220554.392547556],[629145.535480853,5220555.567434771],[629146.8637250161,5220558.028052961],[629197.4286673284,5220530.730783334],[629196.2673359803,5220528.5481878845],[629196.0839916738,5220527.347757594],[629196.6330762729,5220526.00490756],[629197.824207778,5220525.022684027],[629231.24711984,5220506.836422421],[629229.911971111,5220504.379911229],[629228.5559581798,5220503.278916435],[629228.3011547115,5220501.343062235],[629229.102309347,5220500.096456323],[629231.6353983424,5220498.6584723415],[629231.5292836236,5220497.564422502],[629231.8208084954,5220496.666555904],[629232.6149229321,5220495.799151948],[629234.6676897903,5220494.672669562],[629235.0500034203,5220492.872506304]]]},"properties":{"cad_nr":"DEMO-0006","grower_id":"DEMO-G-10","rvv_code":"RVV-DEMO-V10","vineyard_id":"V10","declared_area_ha":0.18,"variety":"Aligote","planting_year":2018,"planting_scheme":"2,5 × 1,2 m","authorisation_nr":"DEMO-AUT-2018-006","status":"planted","pdo_pgi":"IGP Codru","scenario":"whole","demo":true,"events":[{"type":"planting","date":"2018-04-25","result":"înregistrat","note":"autorizație DEMO-AUT-2018-006"}],"measured":{"parcel_area_ha":0.2686,"measured_area_ha":0.1759,"rows":17,"row_length_m":759.5,"row_spacing_m":2.32,"density_nominal":3598,"density_effective":2701,"gap_length_m":189.2,"gap_share":0.249,"missing_vines":158,"bare_soil_share":0.704,"vegetation_share":0.0,"mixed_share":0.296,"status_detected":"planted","detected_vineyard_id":"V10","area_diff_ha":-0.0041,"area_diff_pct":-2.3}}},{"type":"Feature","geometry":{"type":"Polygon","coordinates":[[[629574.1933962313,5220270.755422886],[629574.853454363,5220271.249140216],[629575.8738887246,5220271.041024714],[629576.8293830624,5220271.238864679],[629579.7628299561,5220273.366802336],[629581.2819984754,5220272.820256661],[629582.2091725362,5220272.982210962],[629583.2251226121,5220273.6195784155],[629584.4072243235,5220273.171028004],[629585.5674227019,5220273.319834005],[629587.583352133,5220274.105844306],[629589.1581471981,5220275.220151996],[629590.5477328143,5220275.2940551145],[629591.8157368436,5220276.095032675],[629593.5729587175,5220276.232949409],[629597.0573213459,5220278.574611466],[629598.6043763047,5220277.903382909],[629600.3700137836,5220278.4710301375],[629602.3882778574,5220276.101210777],[629603.5258930954,5220275.749526309],[629604.4733600442,5220275.876288735],[629605.73064304,5220276.69953088],[629606.3809758526,5220277.71911621],[629606.3499313031,5220279.395711257],[629605.335125317,5220280.900624914],[629606.4425249792,5220281.7525191335],[629607.9261860756,5220282.117836316],[629609.1310156517,5220281.236553481],[629610.5802563062,5220281.18669699],[629614.019406759,5220283.2531023435],[629615.3775486248,5220283.204928502],[629616.8672125468,5220284.074573849],[629618.7415105936,5220283.870789488],[629619.9508567052,5220284.574768153],[629621.5078107234,5220284.666553425],[629622.7301571366,5220285.480681884],[629624.1053905197,5220285.569898482],[629625.4215002193,5220286.425652227],[629626.4740615492,5220286.458849598],[629631.6713622675,5220287.964536008],[629633.0996481555,5220287.897585414],[629634.4066827665,5220288.63646679],[629645.6958916273,5220291.417751551],[629653.5510974511,5220278.793270899],[629661.4349314058,5220268.418544161],[629693.0732825486,5220229.725131602],[629692.2846889417,5220228.194405776],[629692.644119036,5220226.565985836],[629702.421721947,5220213.797722922],[629700.2037062595,5220212.096094558],[629699.0830670797,5220212.247701644],[629698.1853961666,5220211.9880157],[629695.1163492284,5220209.7036144985],[629693.4805608926,5220210.435989465],[629692.485182312,5220210.287705095],[629691.5444527497,5220209.713948758],[629690.594320026,5220210.224044921],[629689.3775610612,5220210.2622373765],[629685.9508239488,5220207.902231049],[629684.8564511859,5220207.624609012],[629683.4977770208,5220206.628595007],[629682.1088770648,5220206.823922445],[629680.3856769064,5220205.90959324],[629678.9112887264,5220206.0794450035],[629677.4159758267,5220205.276701422],[629675.7969795513,5220205.355250745],[629674.5318590387,5220204.6022866415],[629672.7195363904,5220204.643440261],[629671.5153993288,5220203.868044694],[629670.164973093,5220203.500704688],[629668.6251186099,5220202.382819795],[629667.9164840373,5220201.394521368],[629667.7706259252,5220200.112560897],[629661.3843797182,5220198.099925729],[629660.1679408964,5220198.087873833],[629659.1623079563,5220197.563765663],[629657.3386498687,5220198.227779083],[629655.7412619488,5220197.564476685],[629654.0240654112,5220198.386559844],[629653.0303667936,5220198.240460569],[629651.9643000446,5220197.574566336],[629650.9912323119,5220197.976725978],[629650.0108242047,5220197.960459754],[629649.1120823257,5220197.568378535],[629646.3525173004,5220195.332793289],[629645.3040075672,5220195.095907247],[629643.9301149718,5220194.129128477],[629642.5395898697,5220194.138480889],[629641.083779404,5220193.254790018],[629639.614870161,5220193.1396959275],[629638.2811130546,5220192.23825696],[629636.8306126005,5220192.466621621],[629634.8232917632,5220191.6195725],[629574.1933962313,5220270.755422886]]]},"properties":{"cad_nr":"DEMO-0007","grower_id":"DEMO-G-14","rvv_code":"RVV-DEMO-V14","vineyard_id":"V14","declared_area_ha":0.68,"variety":"Merlot","planting_year":2025,"planting_scheme":"2,7 × 1,2 m","authorisation_nr":"DEMO-AUT-2025-007","status":"planted","pdo_pgi":"IGP Codru","scenario":"split","demo":true,"events":[{"type":"planting","date":"2025-04-19","result":"înregistrat","note":"autorizație DEMO-AUT-2025-007"}],"measured":{"parcel_area_ha":0.6747,"measured_area_ha":0.6411,"rows":25,"row_length_m":2364.4,"row_spacing_m":2.71,"density_nominal":3073,"density_effective":2970,"gap_length_m":79.7,"gap_share":0.034,"missing_vines":66,"bare_soil_share":0.858,"vegetation_share":0.0,"mixed_share":0.142,"status_detected":"planted","detected_vineyard_id":"V14","area_diff_ha":-0.0389,"area_diff_pct":-5.7}}},{"type":"Feature","geometry":{"type":"MultiPolygon","coordinates":[[[[629557.7353017265,5220266.526015459],[629558.8924137793,5220265.989880519],[629559.8921384524,5220266.016387948],[629561.2238314955,5220266.737312338],[629562.8225671771,5220266.790603687],[629563.869030896,5220267.445333867],[629565.5222400016,5220267.4882830735],[629566.6915275874,5220268.238418092],[629568.1935209173,5220268.467928176],[629569.3132753295,5220269.253708836],[629570.3078074732,5220268.846191959],[629571.3218136365,5220268.8779993355],[629574.1933962313,5220270.755422886],[629634.8232917632,5220191.6195725],[629632.8034936887,5220190.399178019],[629631.5967399223,5220190.659861748],[629630.6098856041,5220190.416883493],[629627.3133712544,5220187.942866046],[629625.8597554832,5220188.522550875],[629624.060328708,5220187.920534411],[629622.7785664255,5220188.016260607],[629621.1928360215,5220187.146943505],[629619.5633726318,5220186.963856069],[629618.3600336502,5220186.115131813],[629617.1146561002,5220186.193371346],[629615.4621036659,5220185.264351325],[629614.2093753726,5220185.159493668],[629612.822703131,5220184.263717502],[629611.2521168914,5220184.187832713],[629609.9304418653,5220183.31284644],[629608.372626495,5220182.884556879],[629607.394863227,5220181.574512954],[629606.2784402301,5220180.733205405],[629604.7993115799,5220180.26705577],[629603.9365020199,5220180.746003245],[629602.759564406,5220180.826430596],[629600.9827194059,5220179.838230049],[629599.8161066442,5220180.544403933],[629598.3187526345,5220180.493010027],[629593.907771811,5220178.0186263],[629592.5309935627,5220178.022773595],[629591.1300581181,5220177.178391701],[629589.677891272,5220177.20190478],[629588.4406426401,5220176.4792759465],[629587.2221673948,5220176.209260641],[629585.9520551858,5220175.296066127],[629584.0843973199,5220175.371881893],[629582.9916685482,5220174.693993416],[629581.4693467936,5220174.459294412],[629580.2886812554,5220173.616618011],[629579.0423158645,5220173.63529164],[629577.5033441049,5220172.732062142],[629576.0894522105,5220172.65748853],[629574.7555135604,5220171.801099074],[629573.3563320513,5220171.871213044],[629571.8035526623,5220170.972690608],[629570.889958773,5220171.257508447],[629569.731057359,5220171.110583071],[629568.6877425439,5220170.45393889],[629567.2999525646,5220170.101441252],[629563.9290581639,5220167.386733482],[629562.1877653558,5220167.7711630305],[629560.6805747624,5220167.039023334],[629554.1729765281,5220175.904732398],[629554.9815926052,5220176.883850534],[629555.2088940737,5220178.083416434],[629554.9599537047,5220179.031595327],[629554.0932259605,5220180.25309965],[629555.1735949425,5220181.316912111],[629555.5132551906,5220182.475845363],[629555.2700111013,5220183.658777178],[629554.0826865884,5220185.331202892],[629554.9106520468,5220186.192194991],[629555.2581626301,5220187.358699689],[629555.0136384716,5220188.551052301],[629554.0852005135,5220189.870364646],[629555.0364796104,5220190.8267605165],[629555.38078685,5220192.234073489],[629555.1398735114,5220193.177470871],[629554.0818379183,5220194.677473779],[629553.68906609,5220196.51415506],[629552.779833003,5220197.3260709755],[629550.1972827323,5220198.43167178],[629549.2008880053,5220198.292246609],[629548.0818680517,5220197.596468336],[629546.5092130937,5220198.186290344],[629544.8254693034,5220197.582897474],[629543.9451004652,5220198.203546833],[629543.0187417992,5220198.399339509],[629542.0860089294,5220198.236598783],[629541.0448014272,5220197.577571042],[629539.7803521054,5220198.186792468],[629538.4994766898,5220198.063818376],[629508.4084429968,5220240.606314287],[629508.2740797463,5220241.278130539],[629509.4423916993,5220239.897430671],[629510.7685752499,5220239.410382868],[629512.147018871,5220239.720014191],[629513.4645793034,5220240.863982015],[629513.9122448916,5220242.045358297],[629513.7926852703,5220243.121696768],[629514.776714155,5220244.105388219],[629515.1180661956,5220245.518113371],[629514.7543351838,5220246.67901943],[629513.2025773254,5220248.754727475],[629515.4313003198,5220250.440968488],[629517.2170108561,5220249.7823587125],[629518.840330661,5220250.438933261],[629520.6061975773,5220249.794732764],[629522.2120580005,5220250.433729549],[629523.9445612623,5220249.686834309],[629525.8340442758,5220250.437313749],[629527.4784594809,5220249.779651996],[629529.2428235351,5220250.4385466715],[629530.1520220262,5220249.827867634],[629531.1450591533,5220249.658182492],[629532.9210573996,5220250.422486544],[629534.3692216531,5220249.976934376],[629535.8050049696,5220250.44559013],[629536.6749295788,5220249.880928198],[629537.6657796155,5220249.716193179],[629539.3666536703,5220250.432167526],[629541.0685628006,5220249.717719417],[629542.9152376043,5220250.438661208],[629544.6463813406,5220249.701120088],[629546.4950824137,5220250.42926069],[629548.0024433859,5220248.938248487],[629549.201841753,5220248.716495076],[629550.148089863,5220248.9689821955],[629553.3676714443,5220251.130478522],[629554.0807981038,5220252.816253525],[629555.0311343396,5220253.890138119],[629555.2037056232,5220255.549466677],[629554.0689312958,5220257.444845481],[629555.0518989679,5220258.525104352],[629555.2795193509,5220259.964429203],[629554.0742477956,5220262.1200631],[629555.1490915082,5220263.404061962],[629555.147241189,5220265.203102917],[629556.2625646793,5220266.040679074],[629557.7353017265,5220266.526015459]]],[[[629505.2924615527,5220240.581988625],[629505.2928709302,5220240.887116078],[629505.3760840698,5220240.47105038],[629505.2924615527,5220240.581988625]]]]},"properties":{"cad_nr":"DEMO-0008","grower_id":"DEMO-G-14","rvv_code":"RVV-DEMO-V14","vineyard_id":"V14","declared_area_ha":0.667,"variety":"Merlot","planting_year":2025,"planting_scheme":"2,6 × 1,2 m","authorisation_nr":"DEMO-AUT-2025-008","status":"planted","pdo_pgi":"IGP Codru","scenario":"split","demo":true,"events":[{"type":"inspection","date":"2023-05-25","result":"conform","note":"control ONVV (DEMO)"},{"type":"planting","date":"2025-04-14","result":"înregistrat","note":"autorizație DEMO-AUT-2025-008"}],"measured":{"parcel_area_ha":0.6616,"measured_area_ha":0.6257,"rows":31,"row_length_m":2307.7,"row_spacing_m":2.71,"density_nominal":3073,"density_effective":2644,"gap_length_m":322.4,"gap_share":0.14,"missing_vines":269,"bare_soil_share":0.967,"vegetation_share":0.0,"mixed_share":0.033,"status_detected":"planted","detected_vineyard_id":"V14","area_diff_ha":-0.0413,"area_diff_pct":-6.2}}},{"type":"Feature","geometry":{"type":"MultiPolygon","coordinates":[[[[629759.6211438626,5220149.194901486],[629758.646771835,5220148.187721582],[629758.3336416662,5220146.767708407],[629758.7210985431,5220145.613837608],[629761.0748510715,5220142.607911851],[629759.9072355167,5220141.550098824],[629759.4533043843,5220140.197266862],[629759.6985835806,5220139.028487892],[629761.0980924409,5220137.070258404],[629760.3279397098,5220136.251781884],[629759.9810593904,5220135.079857448],[629760.2311740677,5220133.88353998],[629761.0874886289,5220132.673466318],[629760.2283595464,5220131.64278546],[629760.0361097777,5220130.199903415],[629761.0884942528,5220128.338666541],[629760.2889909127,5220127.479969273],[629759.9568249292,5220126.309849426],[629760.216183035,5220125.121468987],[629761.0743564072,5220123.925784304],[629760.0810234083,5220122.918233914],[629759.747996802,5220121.757546857],[629759.9978431714,5220120.576158709],[629761.0926387473,5220119.044988088],[629760.0952311623,5220117.614706556],[629760.2425697733,5220115.935672369],[629759.1385357105,5220115.080798537],[629755.9848456365,5220114.604595802],[629754.649599261,5220113.958564424],[629753.1112958952,5220114.069976014],[629751.6353188679,5220113.2049943255],[629742.6031556731,5220110.946953527],[629740.6038669393,5220113.539661766],[629739.3481480825,5220114.266953335],[629738.1336280892,5220114.24888375],[629737.1048907215,5220113.705319489],[629735.7008917539,5220113.7660920145],[629734.2838802901,5220112.9522662265],[629732.6773794701,5220113.189885035],[629730.8855101628,5220112.158738275],[629729.5185114628,5220112.206509551],[629728.1437121901,5220111.421086797],[629726.8143023372,5220111.462864737],[629725.5922592654,5220110.801286586],[629724.0541303803,5220110.855571731],[629722.8721607631,5220110.1753297895],[629721.3545161046,5220110.1259941505],[629720.3018335396,5220109.477022233],[629719.1781093378,5220109.877059834],[629717.7977312338,5220109.620971874],[629710.783803239,5220105.472438161],[629710.0727215195,5220104.486198263],[629709.9021367792,5220103.361070176],[629708.7619141861,5220102.486643155],[629707.3234290907,5220102.127021882],[629705.9298573849,5220103.773332573],[629704.5510535514,5220104.241848637],[629702.7838490949,5220103.602645971],[629701.1809213836,5220103.574509],[629699.8566592026,5220102.716281059],[629699.0837666909,5220102.88393199],[629634.9225866531,5220186.614997006],[629655.334697256,5220193.04790459],[629656.3828144396,5220192.516705005],[629657.6016787625,5220192.5362239005],[629658.7124420659,5220193.14624133],[629660.2513379008,5220193.448296961],[629661.8614911049,5220195.104833561],[629706.0769132462,5220209.0393908415],[629709.8866162114,5220204.070360134],[629709.0213192616,5220203.161895852],[629708.6930810106,5220201.745276582],[629708.9482337221,5220200.801857057],[629710.0208052904,5220199.353710973],[629711.7625250749,5220198.569234952],[629713.5777837562,5220199.246395981],[629714.5606391432,5220198.681812013],[629715.5015265539,5220198.584955445],[629717.0040950635,5220199.242887574],[629730.4807213943,5220181.836268096],[629731.6698423524,5220180.993870829],[629732.900837588,5220180.906767915],[629734.7182072381,5220179.00478618],[629745.6451114669,5220164.796108277],[629759.6211438626,5220149.194901486]]],[[[629664.1880628435,5220199.236030835],[629664.4395579768,5220199.062769786],[629663.6215494456,5220198.804973158],[629664.1880628435,5220199.236030835]]]]},"properties":{"cad_nr":"DEMO-0009","grower_id":"DEMO-G-15","rvv_code":"RVV-DEMO-V15","vineyard_id":"V15","declared_area_ha":0.725,"variety":"Viorica","planting_year":2024,"planting_scheme":"2,6 × 1,2 m","authorisation_nr":"DEMO-AUT-2024-009","status":"planted","pdo_pgi":"IGP Codru","scenario":"split","demo":true,"events":[{"type":"planting","date":"2024-04-14","result":"înregistrat","note":"autorizație DEMO-AUT-2024-009"},{"type":"inspection","date":"2024-08-17","result":"observații","note":"control ONVV (DEMO)"}],"measured":{"parcel_area_ha":0.7738,"measured_area_ha":0.7195,"rows":27,"row_length_m":2654.6,"row_spacing_m":2.71,"density_nominal":3075,"density_effective":2909,"gap_length_m":143.3,"gap_share":0.054,"missing_vines":119,"bare_soil_share":0.858,"vegetation_share":0.0,"mixed_share":0.142,"status_detected":"planted","detected_vineyard_id":"V15","area_diff_ha":-0.0055,"area_diff_pct":-0.8}}},{"type":"Feature","geometry":{"type":"MultiPolygon","coordinates":[[[[629627.8651002622,5220078.908966106],[629627.5200768622,5220079.083854606],[629628.3844497856,5220079.299947836],[629627.8651002622,5220078.908966106]]],[[[629699.0837666909,5220102.88393199],[629696.8897172138,5220101.971703127],[629695.3985177502,5220101.759761758],[629694.0707514804,5220100.850762786],[629693.2581727998,5220099.904243648],[629693.0170800053,5220098.550434611],[629680.6770041138,5220095.465415638],[629679.068465579,5220095.875586075],[629677.4967531007,5220095.160591566],[629676.3425521029,5220095.830459698],[629675.0890079282,5220095.834667446],[629671.7182434127,5220093.719269991],[629670.8329522522,5220094.087391876],[629669.6615647083,5220094.045864049],[629667.6853716965,5220092.767685064],[629666.0125323425,5220092.557338702],[629664.4407520094,5220091.406352611],[629663.4558090275,5220091.160116866],[629661.8766537938,5220091.337893825],[629660.2035709533,5220090.347057347],[629624.6361965624,5220081.45521375],[629621.7053849711,5220080.427879082],[629606.391372866,5220102.078723782],[629605.8999233143,5220103.379807869],[629601.1922231874,5220109.429245742],[629562.6973081991,5220163.8530910695],[629634.9225866531,5220186.614997006],[629699.0837666909,5220102.88393199]]],[[[629559.8935890192,5220167.816969911],[629560.947868398,5220166.447207009],[629560.8780165281,5220166.425193087],[629559.8935890192,5220167.816969911]]],[[[629554.1355000479,5220170.707457719],[629554.1260517358,5220170.775951781],[629554.6168186662,5220170.082108879],[629554.1355000479,5220170.707457719]]]]},"properties":{"cad_nr":"DEMO-0010","grower_id":"DEMO-G-15","rvv_code":"RVV-DEMO-V15","vineyard_id":"V15","declared_area_ha":0.723,"variety":"Viorica","planting_year":2024,"planting_scheme":"2,7 × 1,2 m","authorisation_nr":"DEMO-AUT-2024-010","status":"planted","pdo_pgi":"IGP Codru","scenario":"split","demo":true,"events":[{"type":"inspection","date":"2023-06-14","result":"observații","note":"control ONVV (DEMO)"},{"type":"planting","date":"2024-04-21","result":"înregistrat","note":"autorizație DEMO-AUT-2024-010"}],"measured":{"parcel_area_ha":0.7711,"measured_area_ha":0.7306,"rows":29,"row_length_m":2695.6,"row_spacing_m":2.71,"density_nominal":3075,"density_effective":2954,"gap_length_m":105.5,"gap_share":0.039,"missing_vines":88,"bare_soil_share":1.0,"vegetation_share":0.0,"mixed_share":0.0,"status_detected":"planted","detected_vineyard_id":"V15","area_diff_ha":0.0076,"area_diff_pct":1.1}}},{"type":"Feature","geometry":{"type":"MultiPolygon","coordinates":[[[[629863.7880395695,5219993.343378604],[629865.5837829444,5219994.437266205],[629866.4798367262,5219993.795731882],[629867.4074753171,5219993.598687511],[629868.341761825,5219993.761317644],[629869.4119747942,5219994.4425650025],[629908.2634991605,5219943.272142676],[629906.0380252057,5219941.582434997],[629905.2773732722,5219942.266745638],[629904.1151077386,5219942.60756569],[629902.9290441716,5219942.362060714],[629901.8114306363,5219941.585378486],[629862.9006391929,5219993.291999637],[629863.7880395695,5219993.343378604]]],[[[629733.4009768014,5220096.915297522],[629732.7299405811,5220095.157603001],[629733.2435624395,5220093.608932385],[629761.1007395842,5220057.160749596],[629759.277257382,5220055.627590237],[629758.8121379103,5220054.007470932],[629759.182869017,5220052.84965625],[629761.0948188051,5220050.329447717],[629760.1746123614,5220049.09072901],[629760.1998936508,5220047.407471419],[629761.9901150857,5220045.276483045],[629763.4696518076,5220045.00758271],[629764.8491235784,5220045.62625006],[629766.0163043914,5220044.3696473865],[629767.4289383647,5220044.014617423],[629768.5952631654,5220044.369924314],[629770.3143691283,5220045.632694126],[629771.1075810412,5220044.987955557],[629772.3268557106,5220044.710297905],[629774.3262503751,5220045.627194094],[629775.2366863904,5220045.000537534],[629776.2292789276,5220044.821333515],[629778.0876397189,5220045.625299122],[629779.8425039983,5220044.831400241],[629780.7742571126,5220044.981585625],[629781.824777402,5220045.626196141],[629783.4948050437,5220044.919146698],[629785.3567168163,5220045.62696047],[629786.2986121805,5220045.072076744],[629787.4720512392,5220044.98326262],[629788.8146531845,5220045.628930071],[629806.0358781806,5220022.369164366],[629806.9494840306,5220021.609514842],[629808.1106022896,5220021.357428671],[629809.6518632977,5220021.941157567],[629810.9825551084,5220023.217747103],[629811.395954892,5220024.102617254],[629811.3168760975,5220025.553678245],[629810.084645222,5220027.378600232],[629810.9555271048,5220028.275744582],[629811.2778772211,5220029.199371462],[629811.0509876556,5220030.637114825],[629810.0883688908,5220031.991208477],[629810.7237211808,5220033.058121134],[629810.7746299709,5220034.265923318],[629810.3989722396,5220035.160854474],[629803.7943193776,5220043.962359299],[629806.0341171055,5220045.633033563],[629808.0558652346,5220043.108704388],[629809.9206519199,5220042.651898717],[629810.8398967797,5220042.988416502],[629814.6938672472,5220045.630055962],[629816.6105550634,5220043.286552004],[629818.2754415602,5220042.828026451],[629819.4519969476,5220043.238633519],[629822.3914404132,5220045.639958722],[629823.669603366,5220044.130852899],[629825.0368024836,5220043.653317562],[629826.4393790583,5220044.013945316],[629828.6269540157,5220045.635938129],[629863.4810056014,5219999.160536344],[629861.4896872034,5219997.649373426],[629860.8293666476,5219996.670950761],[629860.7316292233,5219995.263781246],[629861.5081567832,5219993.928546808],[629859.9094913896,5219993.574522567],[629857.464387945,5219991.594788485],[629857.182484162,5219990.184059617],[629857.5815632328,5219989.048031595],[629863.5527757847,5219981.756790097],[629892.7191768104,5219943.273753224],[629890.4921382314,5219941.585681668],[629888.7182575687,5219942.361044583],[629887.7888338781,5219942.197174258],[629886.7978973459,5219941.575104147],[629886.0519356339,5219942.237781113],[629884.8841761193,5219942.577106523],[629883.6944675836,5219942.325317687],[629882.6389754122,5219941.585753015],[629880.9139457844,5219942.30762857],[629879.0872506846,5219941.58723144],[629877.3054193191,5219942.361908311],[629876.3762588752,5219942.194817375],[629875.3834063396,5219941.566137558],[629874.5880372103,5219942.193880803],[629873.3642834751,5219942.456126347],[629871.4525510382,5219941.570135001],[629869.7133479025,5219942.3102924125],[629867.8506226375,5219941.566878969],[629866.9687406195,5219942.184008868],[629866.0415023958,5219942.376769951],[629865.1090965755,5219942.210797228],[629864.1004889826,5219941.571260391],[629862.567732588,5219942.317201282],[629861.4011922809,5219942.162512766],[629860.4671328414,5219941.576604603],[629859.5967009822,5219942.171141936],[629858.4346563539,5219942.349076442],[629856.7625604364,5219941.566045265],[629855.844324136,5219942.2181041315],[629854.9167751789,5219942.406284554],[629853.9857419807,5219942.236178341],[629852.9465867681,5219941.566553418],[629851.551607294,5219942.284757641],[629850.3007749968,5219942.162876466],[629849.3334845051,5219941.56733848],[629847.5486148051,5219942.333587951],[629845.6743899586,5219941.563268504],[629843.996225045,5219942.2215337325],[629842.2699890501,5219941.560061026],[629810.0985155089,5219982.965522387],[629811.0249281605,5219983.929009583],[629811.3523049727,5219985.096487119],[629811.0918479868,5219986.280692141],[629810.0958090717,5219987.654002193],[629811.11252047,5219988.682485071],[629811.4430813531,5219989.850531503],[629811.1844762113,5219991.036586453],[629810.1747262895,5219992.426776852],[629809.2624127604,5219993.218341908],[629808.3614339498,5219993.508737229],[629807.1902177101,5219993.371350977],[629806.2256308718,5219992.782305874],[629805.0825110255,5219994.132177882],[629803.7206348582,5219994.619024879],[629802.3170455303,5219994.27022165],[629800.2908764216,5219992.796249939],[629798.963887856,5219994.409339937],[629797.4834205956,5219994.900593196],[629780.8047763668,5220014.851881753],[629778.7476657083,5220015.929503275],[629777.5747968839,5220015.977336082],[629776.26299968,5220015.597820091],[629775.1351208729,5220017.0850443635],[629780.805238553,5220018.734460245],[629781.4891133903,5220019.819607897],[629781.1805186555,5220020.925405697],[629780.6048912794,5220021.372627605],[629779.7403576795,5220021.477357731],[629773.1856415132,5220019.655633512],[629712.0837451062,5220100.224771667],[629727.8674990871,5220104.170710162],[629733.4009768014,5220096.915297522]]],[[[629709.909011331,5220103.20245355],[629711.3122197712,5220103.431769728],[629712.7871963191,5220104.496561663],[629714.0154694003,5220104.609065526],[629715.4989026495,5220105.585172972],[629717.034067988,5220105.383203258],[629718.5073476306,5220106.167329663],[629719.7761655587,5220105.697336005],[629720.9723393288,5220105.893812288],[629724.4076518859,5220108.702470786],[629725.8867413043,5220106.767849935],[629710.1123543818,5220102.824253205],[629709.909011331,5220103.20245355]]]]},"properties":{"cad_nr":"DEMO-0011","grower_id":"DEMO-G-17","rvv_code":"RVV-DEMO-V17","vineyard_id":"V17","declared_area_ha":0.712,"variety":"Feteasca Alba","planting_year":2018,"planting_scheme":"2,5 × 1,2 m","authorisation_nr":"DEMO-AUT-2018-011","status":"planted","pdo_pgi":"IGP Codru","scenario":"split","demo":true,"events":[{"type":"planting","date":"2018-04-18","result":"înregistrat","note":"autorizație DEMO-AUT-2018-011"},{"type":"inspection","date":"2023-08-19","result":"conform","note":"control ONVV (DEMO)"}],"measured":{"parcel_area_ha":0.7351,"measured_area_ha":0.6373,"rows":23,"row_length_m":2291.2,"row_spacing_m":2.78,"density_nominal":2996,"density_effective":2704,"gap_length_m":223.3,"gap_share":0.097,"missing_vines":186,"bare_soil_share":0.705,"vegetation_share":0.0,"mixed_share":0.295,"status_detected":"planted","detected_vineyard_id":"V17","area_diff_ha":-0.0747,"area_diff_pct":-10.5}}},{"type":"Feature","geometry":{"type":"MultiPolygon","coordinates":[[[[629736.4147167283,5220006.618897726],[629737.7487709299,5220006.651644379],[629746.929101677,5219994.463058304],[629744.6974395186,5219992.7815320995],[629728.1782852098,5220014.700394447],[629736.4147167283,5220006.618897726]]],[[[629776.26299968,5220015.597820091],[629774.6557316307,5220014.194508846],[629774.1627024119,5220013.129224167],[629774.0226639179,5220011.574796884],[629774.4881387877,5220010.08510292],[629788.0080058256,5219993.768093964],[629786.9221300002,5219993.660751223],[629785.5390222305,5219992.809158524],[629774.4079398026,5220008.262381565],[629772.6692853655,5220009.105267137],[629770.9799077682,5220008.573280979],[629766.446973985,5220014.660445232],[629775.1351208729,5220017.0850443635],[629776.26299968,5220015.597820091]]],[[[629655.1623239142,5220085.670107475],[629657.0142816223,5220086.457405796],[629667.2769778752,5220088.797323262],[629668.6207316447,5220089.359018302],[629669.5567933898,5220088.875957185],[629670.8108694616,5220088.865030413],[629673.2891510802,5220090.5261231605],[629712.0837451062,5220100.224771667],[629773.1856415132,5220019.655633512],[629764.521852573,5220017.237831947],[629763.4219809106,5220018.01164338],[629761.963226646,5220018.073109061],[629758.8625488407,5220015.96474362],[629757.7064686096,5220016.48800823],[629756.4556619712,5220016.381014315],[629754.426078144,5220015.421139725],[629752.9104556415,5220014.291175969],[629751.4782813654,5220014.370142497],[629750.1522519158,5220013.634611134],[629748.5842687767,5220013.708666177],[629747.1269097492,5220012.829217219],[629745.8141655374,5220012.57369521],[629744.5301548565,5220011.658753514],[629743.3763502149,5220012.321434591],[629741.8765326971,5220012.266582074],[629739.6859827606,5220011.331747617],[629737.440949671,5220009.680370672],[629715.2103789336,5220031.910941409],[629707.7188059172,5220041.853492387],[629706.960437385,5220043.302750554],[629705.9050698869,5220043.917867809],[629704.8068037992,5220043.9857955715],[629702.7942729248,5220046.606677538],[629701.8002623331,5220047.2630023975],[629700.3790762665,5220047.340358164],[629698.8755959164,5220046.286723169],[629692.5665581636,5220044.884714779],[629689.3505802223,5220048.987415107],[629687.5378953113,5220049.600416763],[629686.595923518,5220049.346818682],[629685.2884341518,5220048.42182187],[629684.6267292285,5220047.131447099],[629684.7971506665,5220045.680478198],[629682.5793213528,5220043.97912075],[629680.9416016409,5220044.607217469],[629679.2483796863,5220043.979975231],[629678.3421333167,5220044.571539039],[629677.3457843768,5220044.730305756],[629675.609595302,5220043.968762224],[629673.9159271703,5220044.647019611],[629672.1660233025,5220043.971958871],[629671.3783981283,5220044.58677548],[629670.1650135601,5220044.846434723],[629668.2813070358,5220043.990565617],[629666.490411435,5220044.669043784],[629664.817029112,5220043.987959864],[629663.0056614308,5220044.7126761],[629661.2561699931,5220044.00129949],[629659.5788012674,5220044.704680112],[629657.7203329914,5220043.983572833],[629655.9781106915,5220044.594796096],[629654.4104589965,5220043.974201264],[629652.8326743812,5220044.557242027],[629651.2059189803,5220043.985695646],[629650.3547628965,5220044.528734529],[629649.360131642,5220044.690908414],[629647.693654742,5220043.991602946],[629625.3822172374,5220075.229598981],[629626.6950675116,5220076.2242351435],[629628.2513322443,5220076.310943387],[629631.7870410036,5220078.365798736],[629633.0019718447,5220077.769568808],[629634.2165825653,5220077.845220666],[629637.4479067175,5220080.156789739],[629638.5746036365,5220080.052056744],[629640.2720356659,5220080.929644583],[629641.9482030916,5220080.926519806],[629645.7032378869,5220083.106928671],[629647.498732692,5220082.929051448],[629648.7826718146,5220083.675784305],[629650.377881726,5220083.74533997],[629653.9688090016,5220085.696037641],[629655.1623239142,5220085.670107475]]],[[[629699.1509770498,5220100.083908872],[629698.008886547,5220099.798386246],[629698.5005211888,5220100.172706578],[629699.1509770498,5220100.083908872]]],[[[629701.4528015284,5220100.915227042],[629702.7236696163,5220101.022827116],[629704.0259235689,5220101.863610028],[629705.5797359142,5220101.809171828],[629707.0184942959,5220102.694753989],[629708.4450113266,5220102.482716528],[629709.8545757721,5220103.164160829],[629710.1123543818,5220102.824253205],[629700.3466817552,5220100.382835048],[629701.4528015284,5220100.915227042]]]]},"properties":{"cad_nr":"DEMO-0012","grower_id":"DEMO-G-17","rvv_code":"RVV-DEMO-V17","vineyard_id":"V17","declared_area_ha":0.598,"variety":"Feteasca Alba","planting_year":2018,"planting_scheme":"2,6 × 1,2 m","authorisation_nr":"DEMO-AUT-2018-012","status":"planted","pdo_pgi":"IGP Codru","scenario":"split","demo":true,"events":[{"type":"planting","date":"2018-04-17","result":"înregistrat","note":"autorizație DEMO-AUT-2018-012"},{"type":"inspection","date":"2022-06-27","result":"conform","note":"control ONVV (DEMO)"}],"measured":{"parcel_area_ha":0.6175,"measured_area_ha":0.6019,"rows":31,"row_length_m":2163.9,"row_spacing_m":2.78,"density_nominal":2996,"density_effective":2943,"gap_length_m":38.2,"gap_share":0.018,"missing_vines":32,"bare_soil_share":0.94,"vegetation_share":0.0,"mixed_share":0.06,"status_detected":"planted","detected_vineyard_id":"V17","area_diff_ha":0.0039,"area_diff_pct":0.7}}},{"type":"Feature","geometry":{"type":"MultiPolygon","coordinates":[[[[629998.960217331,5219749.77998375],[629999.3767704362,5219752.030461262],[629998.7042803767,5219753.854269547],[629969.8252784703,5219788.431634751],[629971.4010790371,5219789.657206676],[629973.185914758,5219788.90559557],[629975.0184091564,5219789.657425339],[629975.9179448498,5219789.038974684],[629976.8458201993,5219788.857439176],[629978.7432363821,5219789.657647632],[629979.6947322971,5219788.979692984],[629980.6231217865,5219788.798546526],[629981.5523600305,5219788.975287493],[629982.5947514735,5219789.658493762],[630005.5712104148,5219760.283021017],[630004.250051263,5219758.674135799],[630004.1552341287,5219757.66941496],[630004.4623640025,5219756.714853513],[630003.5454344,5219755.928753865],[630002.996619234,5219754.774308815],[629998.960217331,5219749.77998375]]],[[[629886.3569911382,5219892.027792707],[629887.3820585274,5219891.1300342735],[629888.549682479,5219890.809246408],[629889.7310941783,5219891.074796674],[629891.0644977817,5219892.048522563],[629892.849948688,5219891.293907322],[629894.6991477007,5219892.05647407],[629895.6336800337,5219891.40208874],[629896.5689589718,5219891.222978153],[629897.5033631967,5219891.40659743],[629898.4966937106,5219892.063740452],[629899.2571053499,5219891.470996236],[629900.4037486208,5219891.2020755615],[629901.330758857,5219891.387721974],[629902.3515899595,5219892.068871113],[629903.1949216013,5219891.410903664],[629904.1588695322,5219891.166942715],[629905.1416660546,5219891.3180173775],[629906.276406749,5219892.041607872],[629911.4318672777,5219885.486120464],[629913.0602054703,5219885.024196886],[629914.7428560333,5219885.715954103],[629949.0833982286,5219841.576689174],[629952.0975459423,5219839.883110108],[629953.3049406498,5219840.027849584],[629954.5506638031,5219840.854094494],[629957.7819829339,5219836.8666416],[629959.1476478534,5219836.404874065],[629960.5412245429,5219836.77394579],[629961.4993164385,5219837.851131869],[629962.0697990523,5219839.908095161],[629961.7521716319,5219841.8253930025],[629923.9070272467,5219890.289761417],[629926.1135365166,5219892.013512222],[629965.8847534248,5219841.099115378],[629965.508964926,5219839.924841385],[629965.8500633906,5219838.505580686],[629963.6957424737,5219836.723512005],[629962.3174748428,5219836.897723029],[629961.1921801025,5219836.419053177],[629960.5418828402,5219835.683363987],[629960.2049698,5219834.507820418],[629960.586816254,5219833.097750382],[629965.8771408127,5219826.253635825],[629964.7400985622,5219825.231939923],[629964.2804788109,5219823.856632979],[629964.5417077739,5219822.671314977],[629965.8709293805,5219820.8694792595],[629964.7573481833,5219819.7599573815],[629964.4318972165,5219818.578786344],[629964.706743353,5219817.38482531],[629965.8716931104,5219815.836880727],[629964.8116294481,5219814.750362118],[629964.4953043533,5219813.586008978],[629964.761155907,5219812.409105096],[629965.878724252,5219810.889811024],[629964.9262818202,5219809.903230242],[629964.6013699095,5219808.728969443],[629964.8700724985,5219807.540586047],[629965.8847620824,5219806.164861707],[629964.8610407175,5219805.115536256],[629964.540495728,5219803.942994243],[629964.8108584448,5219802.7578749],[629965.8740011342,5219801.323326259],[629965.0403241554,5219800.421760855],[629964.7208511292,5219799.2488108985],[629964.9924059152,5219798.063849881],[629965.8706119459,5219796.86695116],[629964.864604073,5219795.828356031],[629964.5524202574,5219794.748623303],[629884.5435527064,5219890.600830964],[629886.3569911382,5219892.027792707]]]]},"properties":{"cad_nr":"DEMO-0013","grower_id":"DEMO-G-18","rvv_code":"RVV-DEMO-V18","vineyard_id":"V18","declared_area_ha":0.383,"variety":"Merlot","planting_year":2025,"planting_scheme":"2,7 × 1,2 m","authorisation_nr":"DEMO-AUT-2025-013","status":"planted","pdo_pgi":"IGP Codru","scenario":"whole","demo":true,"events":[{"type":"planting","date":"2025-04-11","result":"înregistrat","note":"autorizație DEMO-AUT-2025-013"}],"measured":{"parcel_area_ha":0.2713,"measured_area_ha":0.2578,"rows":11,"row_length_m":889.5,"row_spacing_m":2.9,"density_nominal":2875,"density_effective":2580,"gap_length_m":91.2,"gap_share":0.103,"missing_vines":76,"bare_soil_share":0.969,"vegetation_share":0.0,"mixed_share":0.031,"status_detected":"planted","detected_vineyard_id":"V18","area_diff_ha":-0.1252,"area_diff_pct":-32.7}}},{"type":"Feature","geometry":{"type":"Polygon","coordinates":[[[630242.4078084042,5219660.022981621],[630236.7483989075,5219635.468582245],[630235.6124784276,5219636.384247914],[630234.1914926275,5219636.515210772],[630230.6149557534,5219634.518007629],[630219.5978744249,5219653.208056216],[630223.2564725872,5219655.1777742375],[630223.9855965993,5219656.172636936],[630224.166608198,5219657.146405645],[630223.8437017093,5219658.336827844],[630219.58491397,5219665.882908971],[630220.7124016904,5219666.861226855],[630221.1021933958,5219668.257512497],[630220.8914540599,5219669.208702647],[630219.5835707338,5219671.565281193],[630220.8005909959,5219672.737307949],[630221.0521252984,5219674.168479902],[630219.5848633402,5219677.16049819],[630220.9007482964,5219678.245214212],[630221.2905003631,5219679.641800706],[630221.0795491611,5219680.593139231],[630219.5828513803,5219683.284258899],[630219.3282302932,5219684.604222325],[630218.5433595714,5219685.5255751265],[630216.8501398306,5219686.303079955],[630214.9206999879,5219685.757084613],[630213.43230189,5219686.177521598],[630212.1064058312,5219685.75170643],[630210.4138100243,5219686.324486727],[630208.8048649878,5219685.739382338],[630180.1201752851,5219736.91436862],[630182.5584625824,5219738.281029535],[630184.1695586503,5219737.691635152],[630185.8810941692,5219738.280793569],[630187.1527392383,5219737.768335498],[630189.0041247347,5219738.27032917],[630190.6369584525,5219737.742903598],[630192.1632381917,5219738.27693366],[630193.8776761652,5219737.680731184],[630195.4993229323,5219738.269484787],[630197.0230364832,5219737.747039076],[630198.641886818,5219738.279369898],[630200.3250391963,5219737.715277645],[630201.899469854,5219738.281808715],[630221.9966546613,5219702.509319687],[630220.7284855071,5219701.455951724],[630220.3353378191,5219700.060965234],[630220.5435613255,5219699.109462136],[630222.0032552069,5219696.466476682],[630220.909904981,5219695.514099219],[630220.5146007729,5219694.117457063],[630220.7227981599,5219693.164423935],[630221.9861885263,5219690.873088155],[630221.6232872787,5219689.64690616],[630221.8838596225,5219688.458915617],[630222.8811528187,5219687.402217172],[630224.949966105,5219686.598706766],[630226.1192296093,5219686.590374814],[630227.1942581799,5219687.077187175],[630242.4078084042,5219660.022981621]]]},"properties":{"cad_nr":"DEMO-0014","grower_id":"DEMO-G-24","rvv_code":"RVV-DEMO-V24","vineyard_id":"V24","declared_area_ha":0.176,"variety":"Viorica","planting_year":2012,"planting_scheme":"2,7 × 1,2 m","authorisation_nr":"DEMO-AUT-2012-014","status":"planted","pdo_pgi":"IGP Codru","scenario":"whole","demo":true,"events":[{"type":"planting","date":"2012-04-17","result":"înregistrat","note":"autorizație DEMO-AUT-2012-014"}],"measured":{"parcel_area_ha":0.1841,"measured_area_ha":0.1706,"rows":8,"row_length_m":614.2,"row_spacing_m":2.78,"density_nominal":3000,"density_effective":2960,"gap_length_m":8.1,"gap_share":0.013,"missing_vines":7,"bare_soil_share":0.521,"vegetation_share":0.0,"mixed_share":0.479,"status_detected":"planted","detected_vineyard_id":"V24","area_diff_ha":-0.0054,"area_diff_pct":-3.1}}},{"type":"Feature","geometry":{"type":"Polygon","coordinates":[[[630028.1308967823,5219553.8414076995],[630037.0481293442,5219546.645232227],[630029.2983199133,5219536.189686125],[630029.1865508063,5219534.941363563],[630029.5474875724,5219534.001768288],[630031.8816569608,5219531.893126193],[630017.5558590044,5219514.787154063],[630017.0201080019,5219513.77644993],[629990.0185426199,5219480.748010635],[629988.5412338271,5219481.371504181],[629987.541377826,5219481.24420429],[629986.6815555487,5219480.7397926785],[629985.4173211934,5219481.366505186],[629984.2668296798,5219481.3027419085],[629970.0695125833,5219492.994062773],[630003.3137677507,5219533.68175635],[630004.9447322858,5219532.414347561],[630006.1179637823,5219532.120645187],[630007.501673636,5219532.536860043],[630008.5976545458,5219533.687048549],[630009.4275092359,5219533.134133425],[630010.5889870481,5219532.936056052],[630013.6974988177,5219534.057477561],[630014.5632675785,5219534.960427985],[630014.8833296269,5219536.192000466],[630016.2168828284,5219538.466655033],[630016.0103391332,5219539.905273018],[630014.8825255679,5219541.121082579],[630022.7640852039,5219551.668978338],[630024.0378254021,5219550.957718166],[630025.4858641205,5219551.022281555],[630026.4981925262,5219551.690999619],[630028.1308967823,5219553.8414076995]]]},"properties":{"cad_nr":"DEMO-0015","grower_id":"DEMO-G-32","rvv_code":"RVV-DEMO-V32","vineyard_id":"V32","declared_area_ha":0.171,"variety":"Feteasca Neagra","planting_year":2025,"planting_scheme":"2,6 × 1,2 m","authorisation_nr":"DEMO-AUT-2025-015","status":"abandoned","pdo_pgi":"IGP Codru","scenario":"abandoned_declared","demo":true,"events":[{"type":"inspection","date":"2022-07-20","result":"conform","note":"control ONVV (DEMO)"},{"type":"inspection","date":"2024-07-15","result":"abandonată","note":"declarație exploatant (DEMO)"},{"type":"planting","date":"2025-04-26","result":"înregistrat","note":"autorizație DEMO-AUT-2025-015"}],"measured":{"parcel_area_ha":0.1702,"measured_area_ha":0.1643,"rows":9,"row_length_m":585.9,"row_spacing_m":2.8,"density_nominal":2972,"density_effective":2929,"gap_length_m":8.5,"gap_share":0.015,"missing_vines":7,"bare_soil_share":0.379,"vegetation_share":0.0,"mixed_share":0.621,"status_detected":"planted","detected_vineyard_id":"V32"}}},{"type":"Feature","geometry":{"type":"MultiPolygon","coordinates":[[[[630348.2437006644,5219467.601257316],[630347.5174879057,5219465.890493606],[630348.0281275718,5219464.324165625],[630347.9198361809,5219462.622248783],[630350.1255413876,5219459.646123851],[630350.2097640375,5219458.36998702],[630350.9673397937,5219457.1905893665],[630350.9648911745,5219455.462426912],[630352.4032194973,5219453.51913492],[630352.5621073965,5219451.831807662],[630332.4675703895,5219435.103752372],[630331.7942745019,5219433.842698067],[630331.8435196024,5219432.647292515],[630332.9733666715,5219431.140171766],[630334.3514724799,5219430.553944918],[630335.3529852728,5219430.659277998],[630336.4160131479,5219431.306877056],[630337.4121419871,5219430.667567079],[630338.5881204288,5219430.557744856],[630340.0618825528,5219431.311650033],[630340.8791733964,5219430.721006906],[630342.0367024861,5219430.503479711],[630343.7842307633,5219431.3168246],[630346.7533244175,5219427.939599842],[630348.2989978038,5219427.266412909],[630349.2671184989,5219427.392679799],[630350.2896148706,5219428.050779716],[630352.2698414351,5219431.135824016],[630355.0152786603,5219429.55687925],[630356.2283697953,5219429.535637063],[630357.2077277598,5219430.008307959],[630358.173894409,5219425.988476661],[630354.9763221474,5219420.852792878],[630354.7797389888,5219419.179266969],[630355.3326688022,5219418.097002882],[630361.8698021056,5219410.611289459],[630362.6690779466,5219407.28582377],[630362.6047686875,5219405.9421632225],[630363.4420448572,5219404.069818973],[630362.577135324,5219402.758594679],[630362.617548474,5219401.311789313],[630364.7734545572,5219398.530358066],[630372.9732642196,5219379.390625134],[630372.6035040758,5219378.258271127],[630372.8076642278,5219377.067099972],[630375.4197763689,5219373.81199447],[630374.7374912156,5219372.973877504],[630374.4680119831,5219371.782891136],[630374.6834756572,5219370.8263986595],[630375.4305823076,5219369.79564351],[630374.8040390599,5219368.996651485],[630374.5408450419,5219367.812641443],[630374.7555644559,5219366.862766445],[630375.44549048,5219365.895374075],[630373.330752721,5219364.068975823],[630353.3260692277,5219387.71441638],[630322.2421226572,5219419.707812511],[630322.1787794144,5219420.8547503995],[630321.5383615808,5219421.920703546],[630319.7079559118,5219422.673148016],[630317.6199746963,5219424.465194602],[630318.6825212614,5219425.973120721],[630321.3523687422,5219424.156450227],[630322.9764498343,5219424.009533513],[630324.3983755934,5219424.897709857],[630325.0448336244,5219426.199388869],[630324.8579985029,5219427.640696912],[630323.3974483887,5219429.47844722],[630323.7925808702,5219430.587359393],[630323.6127173052,5219431.8146664845],[630322.3049980685,5219433.555964461],[630322.9315942388,5219435.173947631],[630322.3105364464,5219436.866413104],[630322.9090352983,5219438.4498951435],[630322.3149187606,5219440.113265286],[630322.775491502,5219441.457247697],[630322.3084589719,5219443.02098591],[630323.0119734234,5219444.839003253],[630322.3072478754,5219446.520336249],[630322.8756380626,5219448.007278293],[630322.3093392293,5219449.703926142],[630349.8174184889,5219472.560252971],[630350.7110571282,5219471.489236527],[630350.8702766391,5219469.798387681],[630348.2437006644,5219467.601257316]]],[[[630375.4011549384,5219386.244845358],[630374.4403225653,5219384.363452553],[630374.650393504,5219383.166274127],[630375.4390651662,5219382.087014982],[630375.1703408472,5219381.850397387],[630371.0242231917,5219391.304533594],[630375.4011549384,5219386.244845358]]],[[[630360.4149580951,5219429.687713934],[630360.4027349963,5219429.552424715],[630360.362303666,5219429.720643238],[630360.4149580951,5219429.687713934]]]]},"properties":{"cad_nr":"DEMO-0016","grower_id":"DEMO-G-36","rvv_code":"RVV-DEMO-V36","vineyard_id":"V36","declared_area_ha":0.194,"variety":"Aligote","planting_year":1985,"planting_scheme":"2,7 × 1,2 m","authorisation_nr":"DEMO-AUT-1985-016","status":"planted","pdo_pgi":"IGP Codru","scenario":"whole","demo":true,"events":[{"type":"planting","date":"1985-04-10","result":"înregistrat","note":"autorizație DEMO-AUT-1985-016"},{"type":"replanting","date":"2015-04-28","result":"parțial","note":"înlocuire butuci lipsă"},{"type":"inspection","date":"2024-07-10","result":"conform","note":"control ONVV (DEMO)"}],"measured":{"parcel_area_ha":0.2036,"measured_area_ha":0.1874,"rows":19,"row_length_m":742.6,"row_spacing_m":2.52,"density_nominal":3302,"density_effective":2807,"gap_length_m":111.3,"gap_share":0.15,"missing_vines":93,"bare_soil_share":0.892,"vegetation_share":0.0,"mixed_share":0.108,"status_detected":"planted","detected_vineyard_id":"V36","area_diff_ha":-0.0066,"area_diff_pct":-3.4}}},{"type":"Feature","geometry":{"type":"MultiPolygon","coordinates":[[[[630307.269150275,5219430.813708555],[630320.1611393834,5219417.544527516],[630320.2749309298,5219416.504357924],[630320.9310049824,5219415.477257206],[630323.6781839492,5219413.9245817745],[630326.4774041636,5219411.043462385],[630325.055640888,5219408.526899529],[630325.4744083727,5219406.626767612],[630348.9530136804,5219379.50019935],[630350.4491230677,5219378.462507257],[630324.3199123583,5219335.898928321],[630318.6871788036,5219327.301598158],[630317.190256085,5219327.991431564],[630315.7764567327,5219327.861273821],[630314.4221794388,5219326.827554044],[630313.1146037977,5219324.879490511],[630306.2570325135,5219329.708782522],[630303.0452671406,5219333.2607091395],[630301.8915324974,5219334.033100489],[630297.4166162581,5219338.465802497],[630321.9929176894,5219378.177709885],[630324.2796591751,5219376.822872246],[630325.4900183842,5219376.687698117],[630326.9882534137,5219377.466372008],[630328.5550424906,5219379.9230212495],[630329.7543280519,5219379.60179151],[630331.0150758071,5219379.925219834],[630332.6383813791,5219379.388370034],[630334.155139428,5219379.929950081],[630335.8413032746,5219379.267724936],[630337.6450820456,5219379.928530833],[630338.8423590958,5219379.325838888],[630339.849737959,5219379.278671475],[630341.5615606181,5219380.233944673],[630342.3136874544,5219381.690746023],[630342.2677952066,5219382.638362887],[630341.724219245,5219383.687790789],[630326.407578758,5219401.273212592],[630325.4406343567,5219401.956501048],[630324.5063587166,5219402.131190708],[630323.5744004119,5219401.944532819],[630322.6162990916,5219401.248898973],[630306.7108145552,5219378.424171168],[630305.3016204658,5219378.915955139],[630303.7519794661,5219378.446373749],[630301.8797445423,5219379.174385499],[630300.1118878073,5219378.417350912],[630297.0236340782,5219380.779230588],[630295.835348181,5219381.143818239],[630294.1924252607,5219380.626149689],[630292.4974070623,5219378.414276783],[630290.658501985,5219379.220265725],[630289.5052533946,5219378.993136129],[630288.7128443391,5219378.416952486],[630286.821038678,5219379.192230622],[630285.8329448719,5219378.991898937],[630285.0060953584,5219378.419237382],[630283.2050428913,5219379.20307068],[630282.0509897026,5219378.9778775945],[630281.2714580478,5219378.417534383],[630279.5044109732,5219378.64984215],[630278.0740342682,5219377.706901782],[630273.2010119454,5219369.576179184],[630270.8019347829,5219371.008755581],[630271.7734805138,5219372.663632554],[630272.0129485393,5219373.822747926],[630271.6924074711,5219374.9621103825],[630270.7988587408,5219375.881878299],[630272.0239011411,5219377.998227385],[630272.2553621468,5219379.151175514],[630271.9299984262,5219381.559561472],[630270.8575650117,5219382.791746324],[630271.8837223696,5219384.281741141],[630272.2051780097,5219385.45230753],[630271.8162572801,5219386.849426398],[630270.8586254646,5219387.758250594],[630271.6430712924,5219388.968486343],[630271.8500080176,5219389.954519564],[630271.5400698883,5219391.170155113],[630270.8586411083,5219391.958272754],[630271.694182009,5219393.328277494],[630271.798747198,5219394.503085947],[630270.856747265,5219396.108083455],[630272.7580707937,5219398.852596544],[630273.0783900362,5219400.022705044],[630272.5476947707,5219401.618878434],[630270.8585945413,5219402.940706789],[630274.1294101588,5219407.621669089],[630274.4496840079,5219408.826564501],[630274.2568544089,5219409.809028925],[630273.6939965447,5219410.6370450035],[630270.8646655203,5219412.660741974],[630272.0836935453,5219414.404940777],[630272.4115178355,5219415.578224515],[630272.0247202604,5219416.981236717],[630270.8586237938,5219418.038248228],[630274.0275155691,5219422.551769075],[630274.4612069454,5219423.666098587],[630274.4002656481,5219424.624126226],[630273.8288735304,5219425.674521161],[630270.8456786908,5219427.758411965],[630273.1148810757,5219431.129249427],[630275.9151253544,5219429.272103053],[630277.0992542458,5219428.917663956],[630278.731440188,5219429.438116457],[630280.1103187093,5219431.201045936],[630282.1203082831,5219430.342392239],[630283.1093220946,5219430.543171524],[630284.0215099467,5219431.205945684],[630286.7433908416,5219429.298917486],[630287.8935704359,5219429.022132778],[630289.4422749068,5219429.564968174],[630290.7202896262,5219431.201004377],[630292.2345224461,5219430.199180165],[630293.1879778579,5219429.9866317045],[630294.3744676139,5219430.25581159],[630295.3984531582,5219431.198373465],[630296.9296253046,5219430.68543694],[630298.4347296302,5219431.191453679],[630300.8453047501,5219429.515358092],[630302.017566883,5219429.192483299],[630303.6173956294,5219429.724043837],[630304.7867661142,5219431.199539689],[630305.8673788409,5219430.695872058],[630307.269150275,5219430.813708555]]],[[[630302.6729600548,5219328.717406437],[630302.7502691315,5219328.959788188],[630303.5254069553,5219328.191962645],[630302.6729600548,5219328.717406437]]]]},"properties":{"cad_nr":"DEMO-0017","grower_id":"DEMO-G-41","rvv_code":"RVV-DEMO-V41","vineyard_id":"V41","declared_area_ha":0.33,"variety":"Rara Neagra","planting_year":2024,"planting_scheme":"2,7 × 1,2 m","authorisation_nr":"DEMO-AUT-2024-017","status":"planted","pdo_pgi":"IGP Codru","scenario":"whole","demo":true,"events":[{"type":"planting","date":"2024-04-25","result":"înregistrat","note":"autorizație DEMO-AUT-2024-017"}],"measured":{"parcel_area_ha":0.3834,"measured_area_ha":0.3381,"rows":30,"row_length_m":1259.8,"row_spacing_m":2.68,"density_nominal":3105,"density_effective":2865,"gap_length_m":97.3,"gap_share":0.077,"missing_vines":81,"bare_soil_share":0.645,"vegetation_share":0.006,"mixed_share":0.348,"status_detected":"planted","detected_vineyard_id":"V41","area_diff_ha":0.0081,"area_diff_pct":2.5}}},{"type":"Feature","geometry":{"type":"Polygon","coordinates":[[[630249.6630792576,5219375.220325559],[630260.2778699225,5219371.031522994],[630271.8878006657,5219359.531114813],[630272.0132448851,5219357.880029064],[630273.1513921305,5219356.651294882],[630271.9953816844,5219354.811275202],[630271.7246505903,5219353.633043767],[630272.1671887457,5219352.258148073],[630273.1504236255,5219351.392059381],[630272.1167623374,5219349.77179981],[630271.8373541259,5219348.59007294],[630272.1477139469,5219347.416095034],[630273.1473278062,5219346.411146117],[630272.2127390825,5219344.884490986],[630272.0295952405,5219343.95192405],[630272.3068345751,5219342.80094657],[630273.1435580738,5219341.863273737],[630264.497145175,5219328.314436839],[630264.0895038464,5219327.194923205],[630231.619333704,5219276.334348335],[630220.783951798,5219285.327210889],[630220.7205346182,5219287.148754562],[630219.6275757201,5219288.357362592],[630220.531501136,5219289.84705801],[630220.6677482079,5219291.24954543],[630219.6251756649,5219292.843211215],[630219.487941585,5219293.99924254],[630218.8192273126,5219294.988731107],[630217.2920736537,5219295.630161874],[630215.9024808886,5219295.30562377],[630215.1765214234,5219294.6793587245],[630213.295615655,5219291.768991776],[630211.031962155,5219293.420908301],[630212.0125689352,5219295.470557758],[630211.4801589533,5219297.256380187],[630208.3486022735,5219299.403018991],[630207.4954338584,5219300.695395828],[630203.8057488324,5219302.970644435],[630249.6630792576,5219375.220325559]]]},"properties":{"cad_nr":"DEMO-0018","grower_id":"DEMO-G-42","rvv_code":"RVV-DEMO-V42","vineyard_id":"V42","declared_area_ha":0.32,"variety":"Viorica","planting_year":2025,"planting_scheme":"2,6 × 1,2 m","authorisation_nr":"DEMO-AUT-2025-018","status":"planted","pdo_pgi":"IGP Codru","scenario":"whole","demo":true,"events":[{"type":"planting","date":"2025-04-10","result":"înregistrat","note":"autorizație DEMO-AUT-2025-018"}],"measured":{"parcel_area_ha":0.328,"measured_area_ha":0.3074,"rows":14,"row_length_m":1167.7,"row_spacing_m":2.63,"density_nominal":3165,"density_effective":1978,"gap_length_m":438.0,"gap_share":0.375,"missing_vines":365,"bare_soil_share":0.766,"vegetation_share":0.0,"mixed_share":0.234,"status_detected":"planted","detected_vineyard_id":"V42","area_diff_ha":-0.0126,"area_diff_pct":-3.9}}},{"type":"Feature","geometry":{"type":"Polygon","coordinates":[[[630168.7382265651,5219288.594681432],[630180.1336195333,5219303.817153504],[630214.7919032682,5219276.82333651],[630216.1846064057,5219276.444513838],[630217.3484728737,5219276.768216867],[630218.4780235923,5219277.898841252],[630220.0111595655,5219278.636652794],[630221.3938264862,5219280.695132387],[630223.7503715848,5219278.966579197],[630224.2820900228,5219277.504685813],[630226.2572281464,5219276.0001058495],[630225.3705669731,5219274.624452466],[630225.1699500306,5219273.641565683],[630225.371858435,5219272.658943385],[630226.1349201114,5219271.669966132],[630255.1687178883,5219249.09830522],[630256.9978971689,5219248.756982333],[630258.6267398485,5219249.869502046],[630259.8432812303,5219249.011144451],[630246.4027745187,5219231.401761892],[630243.4052349743,5219233.656563244],[630241.7316149018,5219233.855367152],[630239.6646301437,5219232.423066828],[630236.4295385445,5219228.984897239],[630235.3111049642,5219229.377102234],[630233.918317711,5219229.107585707],[630169.3835621104,5219279.788130179],[630168.7468035101,5219281.435517546],[630169.3992377231,5219282.467748778],[630169.5301379921,5219283.705186659],[630168.7380202104,5219285.191582109],[630169.294726294,5219286.185004031],[630169.3892161667,5219287.126796874],[630168.7382265651,5219288.594681432]]]},"properties":{"cad_nr":"DEMO-0019","grower_id":"DEMO-G-46","rvv_code":"RVV-DEMO-V46","vineyard_id":"V46","declared_area_ha":0.249,"variety":"Muscat Ottonel","planting_year":2024,"planting_scheme":"2,5 × 1,2 m","authorisation_nr":"DEMO-AUT-2024-019","status":"planted","pdo_pgi":"IGP Codru","scenario":"split_unauthorised","demo":true,"events":[{"type":"inspection","date":"2023-06-18","result":"conform","note":"control ONVV (DEMO)"},{"type":"planting","date":"2024-04-20","result":"înregistrat","note":"autorizație DEMO-AUT-2024-019"}],"measured":{"parcel_area_ha":0.2588,"measured_area_ha":0.2401,"rows":12,"row_length_m":900.9,"row_spacing_m":2.67,"density_nominal":3126,"density_effective":2882,"gap_length_m":70.4,"gap_share":0.078,"missing_vines":59,"bare_soil_share":0.47,"vegetation_share":0.033,"mixed_share":0.497,"status_detected":"planted","detected_vineyard_id":"V46","area_diff_ha":-0.0089,"area_diff_pct":-3.6}}},{"type":"Feature","geometry":{"type":"MultiPolygon","coordinates":[[[[630233.8624142284,5219229.080429721],[630230.8156833305,5219225.883094634],[630229.3598916968,5219225.733399866],[630228.0176914218,5219224.531273838],[630226.8373776937,5219225.315443411],[630225.6620972638,5219225.473912405],[630222.3961704136,5219223.830384212],[630221.0254844844,5219221.094266531],[630221.1244096447,5219219.856984687],[630221.6738685317,5219218.948240561],[630220.8815391051,5219217.5423891945],[630220.9879594869,5219216.13487185],[630215.3241542187,5219209.797481133],[630214.2583016048,5219210.397296429],[630213.2870318949,5219210.477510138],[630212.150589477,5219210.0510658],[630211.4225952022,5219209.313725644],[630210.2989966422,5219210.144505589],[630209.1308671634,5219210.424917597],[630207.9668029941,5219210.12808097],[630206.9756794565,5219209.224534534],[630205.9993370912,5219209.8878496885],[630205.0447502888,5219210.081468435],[630203.8666782005,5219209.791904751],[630203.0581785524,5219209.119113305],[630201.3440004693,5219209.753207937],[630199.659060768,5219209.062574763],[630189.7680739968,5219217.336717562],[630190.1437301158,5219218.709935497],[630189.5758257168,5219220.242997355],[630182.3298111357,5219226.333775702],[630184.3276336974,5219229.332114499],[630184.3502192976,5219230.5114273615],[630183.8295817658,5219231.569834418],[630169.8081389867,5219243.086369889],[630170.1559082741,5219244.02184559],[630170.0572905015,5219245.200928934],[630168.7291067112,5219246.780019003],[630169.3147156418,5219248.378015337],[630168.7448291006,5219249.983980614],[630169.5335928893,5219251.669541345],[630168.9590333591,5219253.473892371],[630167.2989520193,5219254.81445174],[630165.627430518,5219255.048004317],[630164.3515859445,5219254.349986243],[630162.6778704893,5219252.2900195755],[630160.211160278,5219254.267548149],[630162.1401227048,5219257.0698761],[630162.2264875366,5219258.039518591],[630161.8084042427,5219259.177620973],[630151.563848947,5219267.601731108],[630160.2907388281,5219277.89459179],[630162.3185456396,5219276.827708082],[630163.5111606403,5219277.02180536],[630164.5852291206,5219277.8869965235],[630165.8744801256,5219277.083438219],[630167.0502961989,5219277.0140668135],[630168.7580204542,5219278.105921872],[630169.3835621104,5219279.788130179],[630233.8624142284,5219229.080429721]]],[[[630154.3349469022,5219275.644812488],[630154.3857735146,5219275.679908029],[630153.8072862687,5219274.990024351],[630154.3349469022,5219275.644812488]]]]},"properties":{"cad_nr":"DEMO-0020","grower_id":"DEMO-G-46","rvv_code":null,"vineyard_id":"V46","declared_area_ha":0.234,"variety":"Muscat Ottonel","planting_year":2024,"planting_scheme":"2,7 × 1,2 m","authorisation_nr":null,"status":"planted","pdo_pgi":"IGP Codru","scenario":"split_unauthorised","demo":true,"events":[{"type":"inspection","date":"2022-09-12","result":"conform","note":"control ONVV (DEMO)"},{"type":"planting","date":"2024-04-13","result":"înregistrat","note":"autorizație —"}],"measured":{"parcel_area_ha":0.2434,"measured_area_ha":0.2396,"rows":14,"row_length_m":898.9,"row_spacing_m":2.67,"density_nominal":3126,"density_effective":2464,"gap_length_m":190.4,"gap_share":0.212,"missing_vines":159,"bare_soil_share":0.849,"vegetation_share":0.0,"mixed_share":0.151,"status_detected":"planted","detected_vineyard_id":"V46","area_diff_ha":0.0056,"area_diff_pct":2.4}}},{"type":"Feature","geometry":{"type":"Polygon","coordinates":[[[630332.3747687866,5219782.267932886],[630402.3747687866,5219782.267932886],[630402.3747687866,5219826.267932886],[630332.3747687866,5219826.267932886],[630332.3747687866,5219782.267932886]]]},"properties":{"cad_nr":"DEMO-0021","grower_id":"DEMO-G-91","rvv_code":null,"vineyard_id":null,"declared_area_ha":0.293,"variety":"Fetească Neagră","planting_year":2016,"planting_scheme":"2,5 × 1,2 m","authorisation_nr":"DEMO-AUT-2016-021","status":"planted","pdo_pgi":"IGP Codru","scenario":"no_vines","demo":true,"events":[{"type":"planting","date":"2016-04-19","result":"înregistrat","note":"autorizație DEMO-AUT-2016-021"}],"measured":{"parcel_area_ha":0.308,"measured_area_ha":0.0,"rows":0,"row_length_m":0.0,"row_spacing_m":2.63,"density_nominal":0,"density_effective":0,"gap_length_m":0,"gap_share":0.0,"missing_vines":0,"bare_soil_share":0.0,"vegetation_share":0.0,"mixed_share":0.0,"status_detected":"no_vines","detected_vineyard_id":null}}},{"type":"Feature","geometry":{"type":"Polygon","coordinates":[[[630601.1693695092,5219723.212745821],[630671.1693695092,5219723.212745821],[630671.1693695092,5219767.212745821],[630601.1693695092,5219767.212745821],[630601.1693695092,5219723.212745821]]]},"properties":{"cad_nr":"DEMO-0022","grower_id":"DEMO-G-92","rvv_code":null,"vineyard_id":null,"declared_area_ha":0.293,"variety":"Fetească Neagră","planting_year":2016,"planting_scheme":"2,5 × 1,2 m","authorisation_nr":"DEMO-AUT-2016-022","status":"planted","pdo_pgi":"IGP Codru","scenario":"no_vines","demo":true,"events":[{"type":"planting","date":"2016-04-17","result":"înregistrat","note":"autorizație DEMO-AUT-2016-022"}],"measured":{"parcel_area_ha":0.308,"measured_area_ha":0.0,"rows":0,"row_length_m":0.0,"row_spacing_m":2.63,"density_nominal":0,"density_effective":0,"gap_length_m":0,"gap_share":0.0,"missing_vines":0,"bare_soil_share":0.0,"vegetation_share":0.0,"mixed_share":0.0,"status_detected":"no_vines","detected_vineyard_id":null}}}]}