{"type": "FeatureCollection", "crs": {"type": "name", "properties": {"name": "urn:ogc:def:crs:EPSG::32635"}}, "features": [{"type": "Feature", "geometry": {"type": "Point", "coordinates": [629533.62, 5220443.4]}, "properties": {"type": "waste", "vineyard_id": "", "row_id": "", "reachable": true, "id": "W002", "x": 629533.62, "y": 5220443.4, "order": null, "visited": false}}, {"type": "Feature", "geometry": {"type": "Point", "coordinates": [629588.85, 5220304.12]}, "properties": {"type": "waste", "vineyard_id": "", "row_id": "", "reachable": true, "id": "W003", "x": 629588.85, "y": 5220304.12, "order": null, "visited": false}}, {"type": "Feature", "geometry": {"type": "Point", "coordinates": [629786.58, 5220162.2]}, "properties": {"type": "waste", "vineyard_id": "", "row_id": "", "reachable": true, "id": "W004", "x": 629786.58, "y": 5220162.2, "order": null, "visited": false}}, {"type": "Feature", "geometry": {"type": "Point", "coordinates": [629849.69, 5220135.33]}, "properties": {"type": "waste", "vineyard_id": "V15", "row_id": "", "reachable": true, "id": "W005", "x": 629849.69, "y": 5220135.33, "order": 1, "visited": true}}, {"type": "Feature", "geometry": {"type": "Point", "coordinates": [629837.83, 5220046.28]}, "properties": {"type": "waste", "vineyard_id": "V16", "row_id": "", "reachable": true, "id": "W006", "x": 629837.83, "y": 5220046.28, "order": null, "visited": false}}, {"type": "Feature", "geometry": {"type": "Point", "coordinates": [629876.47, 5220047.1]}, "properties": {"type": "waste", "vineyard_id": "", "row_id": "", "reachable": true, "id": "W008", "x": 629876.47, "y": 5220047.1, "order": null, "visited": false}}]}