{"type":"FeatureCollection","crs":{"type":"name","properties":{"name":"urn:ogc:def:crs:EPSG::32635"}},"features":[{"type":"Feature","properties":{"vineyard_id":"V09","status":"red"},"geometry":{"type":"Polygon","coordinates":[[[629452.5,5220550.9],[629463.3,5220553.7],[629464.5,5220554.7],[629464.9,5220556.2],[629473.2,5220558.2],[629474.1,5220557.3],[629475.3,5220556.9],[629480.3,5220558.2],[629482.3,5220557.4],[629485.6,5220558.2],[629486.4,5220556.1],[629488.2,5220555.3],[629499.9,5220558.2],[629501.4,5220556.9],[629503.6,5220557.1],[629504.3,5220554.4],[629504.0,5220542.4],[629504.3,5220532.0],[629453.1,5220519.1],[629452.5,5220521.8],[629452.8,5220532.1],[629452.5,5220546.2],[629452.9,5220547.8],[629452.5,5220550.9]]]}},{"type":"Feature","properties":{"vineyard_id":"V21","status":"red"},"geometry":{"type":"MultiPolygon","coordinates":[[[[629993.6,5219743.2],[629993.6,5219743.2],[629993.9,5219743.5],[629993.6,5219743.2]]],[[[629996.6,5219747.8],[629997.9,5219748.5],[629996.8,5219747.1],[629996.6,5219747.8]]],[[[630014.8,5219764.6],[630016.7,5219766.7],[630016.9,5219768.3],[630026.8,5219788.7],[630038.0,5219743.0],[630036.7,5219742.4],[630036.0,5219741.4],[630036.4,5219738.0],[630033.7,5219737.3],[630029.3,5219737.6],[630024.6,5219737.3],[630023.2,5219737.7],[630018.9,5219737.3],[630017.4,5219743.2],[630016.7,5219744.3],[630014.3,5219744.8],[630011.7,5219742.9],[630008.8,5219746.6],[630007.1,5219747.3],[630005.5,5219746.9],[630000.3,5219742.3],[629999.8,5219740.5],[630000.9,5219738.5],[629998.7,5219736.8],[629995.5,5219740.7],[630001.0,5219747.5],[630002.6,5219747.4],[630004.6,5219748.6],[630005.3,5219749.6],[630005.4,5219751.0],[630007.6,5219752.7],[630011.9,5219747.6],[630013.5,5219747.3],[630015.0,5219748.1],[630015.6,5219749.9],[630014.6,5219753.7],[630016.1,5219754.5],[630016.8,5219756.0],[630014.8,5219764.6]]]]}},{"type":"Feature","properties":{"vineyard_id":"V36","status":"red"},"geometry":{"type":"MultiPolygon","coordinates":[[[[630375.4,5219386.2],[630374.4,5219384.4],[630375.4,5219382.1],[630375.2,5219381.9],[630371.0,5219391.3],[630375.4,5219386.2]]],[[[630348.2,5219467.6],[630347.5,5219465.9],[630348.0,5219464.3],[630347.9,5219462.6],[630350.1,5219459.6],[630350.2,5219458.4],[630351.0,5219457.2],[630351.0,5219455.5],[630352.4,5219453.5],[630352.6,5219451.8],[630332.5,5219435.1],[630331.8,5219433.8],[630331.8,5219432.6],[630333.0,5219431.1],[630334.4,5219430.6],[630336.4,5219431.3],[630338.6,5219430.6],[630340.1,5219431.3],[630342.0,5219430.5],[630343.8,5219431.3],[630346.8,5219427.9],[630348.3,5219427.3],[630350.3,5219428.1],[630352.3,5219431.1],[630355.0,5219429.6],[630357.2,5219430.0],[630358.2,5219426.0],[630355.0,5219420.9],[630354.8,5219419.2],[630361.9,5219410.6],[630362.6,5219405.9],[630363.4,5219404.1],[630362.6,5219402.8],[630362.6,5219401.3],[630364.8,5219398.5],[630373.0,5219379.4],[630372.8,5219377.1],[630375.4,5219373.8],[630374.5,5219371.8],[630375.4,5219369.8],[630374.5,5219367.8],[630375.4,5219365.9],[630373.3,5219364.1],[630353.3,5219387.7],[630322.2,5219419.7],[630321.5,5219421.9],[630319.7,5219422.7],[630317.6,5219424.5],[630318.7,5219426.0],[630321.4,5219424.2],[630323.0,5219424.0],[630324.4,5219424.9],[630325.0,5219426.2],[630324.9,5219427.6],[630323.4,5219429.5],[630323.6,5219431.8],[630322.3,5219433.6],[630322.9,5219435.2],[630322.3,5219436.9],[630322.9,5219438.4],[630322.3,5219440.1],[630322.8,5219441.5],[630322.3,5219443.0],[630323.0,5219444.8],[630322.3,5219446.5],[630322.9,5219448.0],[630322.3,5219449.7],[630349.8,5219472.6],[630350.7,5219471.5],[630350.9,5219469.8],[630348.2,5219467.6]]],[[[630360.4,5219429.7],[630360.4,5219429.6],[630360.4,5219429.7],[630360.4,5219429.7]]]]}},{"type":"Feature","properties":{"vineyard_id":"V19","status":"red"},"geometry":{"type":"MultiPolygon","coordinates":[[[[629964.6,5219782.2],[629992.3,5219749.0],[629994.1,5219747.8],[629994.0,5219747.2],[629991.8,5219745.4],[629963.7,5219781.0],[629964.6,5219782.2]]],[[[629958.2,5219789.5],[629956.0,5219787.9],[629943.0,5219804.1],[629941.9,5219804.5],[629940.5,5219804.1],[629939.3,5219802.2],[629937.1,5219800.5],[629912.5,5219831.5],[629914.7,5219833.2],[629916.4,5219833.5],[629917.4,5219834.6],[629917.5,5219836.6],[629915.7,5219839.2],[629916.5,5219839.8],[629958.2,5219789.5]]]]}},{"type":"Feature","properties":{"vineyard_id":"V13","status":"red"},"geometry":{"type":"Polygon","coordinates":[[[629505.3,5220240.2],[629534.7,5220198.2],[629533.9,5220197.6],[629532.4,5220198.1],[629530.8,5220197.6],[629529.6,5220198.9],[629528.3,5220199.4],[629527.1,5220199.2],[629524.9,5220197.6],[629505.3,5220223.5],[629505.3,5220228.3],[629507.5,5220228.9],[629508.3,5220230.9],[629507.9,5220232.0],[629505.3,5220235.6],[629505.3,5220240.2]]]}},{"type":"Feature","properties":{"vineyard_id":"V28","status":"red"},"geometry":{"type":"Polygon","coordinates":[[[629984.2,5219593.5],[629970.0,5219604.8],[629996.8,5219636.1],[629998.5,5219635.5],[630000.1,5219636.1],[630001.9,5219635.4],[630003.6,5219636.1],[630005.2,5219635.5],[630007.0,5219636.1],[630009.2,5219634.2],[630010.6,5219633.8],[630012.2,5219634.3],[630013.8,5219636.1],[630015.7,5219634.5],[630017.1,5219634.0],[630018.5,5219634.4],[630020.1,5219636.1],[630021.7,5219635.4],[630023.6,5219636.1],[630027.8,5219635.6],[630029.1,5219636.1],[630031.3,5219634.3],[630017.1,5219617.5],[630014.9,5219619.3],[630015.4,5219620.8],[630014.5,5219624.3],[630012.8,5219625.2],[630011.0,5219624.7],[629984.2,5219593.5]]]}},{"type":"Feature","properties":{"vineyard_id":"V34","status":"red"},"geometry":{"type":"Polygon","coordinates":[[[630134.8,5219463.9],[630144.2,5219457.7],[630092.9,5219391.6],[630090.6,5219393.3],[630089.9,5219394.6],[630088.5,5219395.2],[630079.6,5219402.5],[630102.3,5219431.3],[630103.7,5219430.8],[630105.3,5219431.3],[630107.4,5219430.3],[630109.4,5219431.3],[630111.6,5219430.2],[630113.5,5219431.3],[630115.5,5219430.6],[630117.2,5219431.5],[630118.6,5219433.7],[630118.4,5219435.2],[630117.3,5219436.4],[630118.4,5219437.9],[630118.6,5219439.1],[630118.3,5219440.2],[630117.3,5219441.2],[630118.5,5219443.0],[630118.6,5219444.4],[630117.3,5219446.1],[630129.8,5219462.3],[630132.0,5219461.5],[630133.4,5219462.1],[630134.8,5219463.9]]]}},{"type":"Feature","properties":{"vineyard_id":"V11","status":"red"},"geometry":{"type":"Polygon","coordinates":[[[629453.1,5220508.8],[629503.6,5220521.4],[629504.3,5220518.7],[629504.3,5220514.1],[629503.9,5220512.7],[629504.3,5220507.9],[629489.9,5220504.3],[629488.9,5220505.6],[629487.6,5220506.0],[629480.4,5220504.3],[629479.6,5220506.4],[629477.8,5220507.2],[629465.8,5220504.3],[629464.7,5220505.6],[629463.3,5220506.0],[629456.3,5220504.3],[629455.2,5220505.7],[629453.3,5220506.0],[629453.1,5220508.8]]]}},{"type":"Feature","properties":{"vineyard_id":"V06","status":"red"},"geometry":{"type":"Polygon","coordinates":[[[629355.8,5220608.5],[629371.7,5220659.6],[629376.5,5220659.2],[629377.8,5220659.6],[629380.0,5220659.0],[629381.6,5220659.6],[629384.7,5220658.8],[629386.7,5220659.6],[629389.6,5220658.8],[629391.4,5220659.6],[629393.7,5220659.6],[629396.4,5220658.8],[629396.3,5220657.0],[629397.5,5220655.5],[629400.2,5220654.6],[629401.8,5220654.8],[629402.6,5220653.9],[629401.6,5220652.7],[629401.4,5220651.2],[629402.6,5220649.2],[629401.4,5220648.0],[629401.1,5220646.6],[629402.6,5220644.1],[629400.5,5220642.2],[629399.4,5220643.3],[629398.0,5220643.6],[629396.6,5220643.1],[629395.8,5220642.1],[629385.2,5220607.6],[629382.4,5220608.4],[629380.6,5220607.6],[629378.3,5220607.6],[629375.5,5220608.4],[629373.7,5220607.6],[629370.3,5220608.5],[629368.4,5220607.6],[629366.1,5220608.2],[629364.5,5220607.6],[629362.9,5220608.0],[629358.5,5220607.6],[629355.8,5220608.5]]]}},{"type":"Feature","properties":{"vineyard_id":"V29","status":"red"},"geometry":{"type":"Polygon","coordinates":[[[630064.7,5219618.5],[630068.3,5219615.2],[630066.9,5219613.4],[630066.7,5219612.3],[630067.1,5219610.9],[630068.2,5219609.8],[630067.4,5219607.9],[630068.2,5219605.9],[630067.3,5219603.9],[630068.2,5219601.9],[630067.5,5219600.0],[630068.3,5219598.2],[630067.8,5219596.6],[630068.3,5219595.2],[630065.8,5219592.2],[630065.4,5219590.8],[630065.9,5219589.2],[630068.3,5219587.2],[630064.9,5219583.1],[630061.6,5219585.3],[630060.0,5219584.9],[630058.4,5219583.1],[630057.0,5219583.5],[630055.7,5219583.1],[630054.1,5219583.6],[630052.7,5219583.1],[630051.0,5219583.7],[630049.6,5219583.1],[630047.8,5219583.8],[630046.2,5219583.1],[630044.6,5219583.7],[630043.0,5219583.2],[630041.0,5219583.7],[630039.8,5219583.2],[630037.6,5219584.9],[630064.7,5219618.5]]]}},{"type":"Feature","properties":{"vineyard_id":"V08","status":"red"},"geometry":{"type":"MultiPolygon","coordinates":[[[[629224.8,5220562.6],[629233.5,5220558.1],[629234.9,5220556.9],[629236.6,5220556.9],[629238.0,5220558.0],[629244.2,5220554.6],[629243.1,5220552.3],[629243.5,5220550.4],[629248.6,5220547.3],[629248.1,5220545.8],[629248.7,5220544.2],[629248.6,5220542.3],[629247.3,5220539.8],[629228.8,5220549.8],[629229.9,5220551.9],[629229.9,5220553.4],[629229.1,5220554.6],[629227.3,5220555.6],[629227.5,5220556.9],[629226.9,5220558.2],[629223.6,5220560.2],[629224.8,5220562.6]]],[[[629213.5,5220608.3],[629220.6,5220579.7],[629218.6,5220579.2],[629211.6,5220607.8],[629213.5,5220608.3]]]]}},{"type":"Feature","properties":{"vineyard_id":"V22","status":"red"},"geometry":{"type":"Polygon","coordinates":[[[630055.2,5219738.4],[630061.6,5219749.1],[630061.6,5219751.2],[630060.0,5219752.6],[630066.0,5219763.1],[630068.4,5219761.8],[630066.4,5219757.6],[630066.9,5219756.0],[630068.4,5219754.9],[630066.7,5219751.6],[630067.1,5219750.1],[630068.4,5219749.1],[630063.7,5219740.8],[630062.1,5219741.5],[630060.5,5219741.2],[630057.6,5219736.9],[630055.2,5219738.4]]]}},{"type":"Feature","properties":{"vineyard_id":"V20","status":"red"},"geometry":{"type":"Polygon","coordinates":[[[630002.9,5219788.0],[630005.1,5219789.6],[630006.8,5219787.6],[630008.6,5219787.1],[630012.3,5219789.6],[630015.0,5219787.0],[630016.7,5219787.0],[630018.1,5219788.5],[630020.8,5219789.1],[630021.3,5219787.1],[630017.9,5219786.0],[630017.1,5219784.7],[630017.1,5219783.5],[630013.8,5219781.0],[630013.3,5219779.1],[630014.6,5219776.9],[630012.4,5219775.2],[630002.9,5219788.0]]]}},{"type":"Feature","properties":{"vineyard_id":"V05","status":"red"},"geometry":{"type":"Polygon","coordinates":[[[629236.7,5220726.3],[629243.9,5220730.1],[629246.7,5220723.1],[629243.1,5220721.8],[629242.0,5220720.7],[629239.4,5220719.6],[629236.7,5220726.3]]]}},{"type":"Feature","properties":{"vineyard_id":"V39","status":"red"},"geometry":{"type":"Polygon","coordinates":[[[630219.6,5219364.7],[630221.4,5219368.4],[630220.9,5219369.7],[630219.6,5219370.8],[630225.5,5219379.9],[630227.2,5219379.3],[630228.8,5219379.9],[630232.5,5219378.1],[630233.9,5219378.6],[630235.0,5219379.9],[630237.4,5219378.5],[630222.0,5219353.6],[630219.6,5219355.0],[630222.7,5219360.1],[630222.9,5219361.8],[630222.1,5219363.0],[630219.6,5219364.7]]]}},{"type":"Feature","properties":{"vineyard_id":"V40","status":"red"},"geometry":{"type":"Polygon","coordinates":[[[630262.3,5219373.4],[630254.2,5219377.0],[630256.0,5219379.9],[630257.9,5219379.3],[630259.5,5219379.9],[630261.6,5219379.2],[630263.2,5219379.9],[630265.6,5219378.4],[630262.3,5219373.4]]]}},{"type":"Feature","properties":{"vineyard_id":"V42","status":"yellow"},"geometry":{"type":"Polygon","coordinates":[[[630249.7,5219375.2],[630260.3,5219371.0],[630271.9,5219359.5],[630272.0,5219357.9],[630273.2,5219356.7],[630271.7,5219353.6],[630272.2,5219352.3],[630273.2,5219351.4],[630271.8,5219348.6],[630272.1,5219347.4],[630273.1,5219346.4],[630272.0,5219344.0],[630273.1,5219341.9],[630231.6,5219276.3],[630220.8,5219285.3],[630220.7,5219287.1],[630219.6,5219288.4],[630220.5,5219289.8],[630220.7,5219291.2],[630218.8,5219295.0],[630217.3,5219295.6],[630215.9,5219295.3],[630213.3,5219291.8],[630211.0,5219293.4],[630212.0,5219295.5],[630211.5,5219297.3],[630208.3,5219299.4],[630207.5,5219300.7],[630203.8,5219303.0],[630249.7,5219375.2]]]}},{"type":"Feature","properties":{"vineyard_id":"V17","status":"yellow"},"geometry":{"type":"MultiPolygon","coordinates":[[[[629862.9,5219993.3],[629865.6,5219994.4],[629867.4,5219993.6],[629869.4,5219994.4],[629908.3,5219943.3],[629906.0,5219941.6],[629904.1,5219942.6],[629901.8,5219941.6],[629862.9,5219993.3]]],[[[629736.2,5220006.8],[629737.7,5220006.7],[629746.9,5219994.5],[629744.7,5219992.8],[629728.2,5220014.7],[629736.2,5220006.8]]],[[[629654.7,5220085.7],[629668.6,5220089.4],[629670.8,5220088.9],[629673.3,5220090.5],[629727.9,5220104.2],[629733.4,5220096.9],[629732.7,5220095.2],[629733.2,5220093.6],[629761.1,5220057.2],[629759.3,5220055.6],[629758.8,5220054.0],[629761.1,5220050.3],[629760.2,5220049.1],[629760.2,5220047.4],[629762.0,5220045.3],[629763.5,5220045.0],[629764.8,5220045.6],[629766.0,5220044.4],[629767.4,5220044.0],[629770.3,5220045.6],[629772.3,5220044.7],[629774.3,5220045.6],[629776.2,5220044.8],[629778.1,5220045.6],[629779.8,5220044.8],[629781.8,5220045.6],[629783.5,5220044.9],[629785.4,5220045.6],[629787.5,5220045.0],[629788.8,5220045.6],[629806.0,5220022.4],[629808.1,5220021.4],[629809.7,5220021.9],[629811.4,5220024.1],[629811.3,5220025.6],[629810.1,5220027.4],[629811.3,5220029.2],[629811.1,5220030.6],[629810.1,5220032.0],[629810.7,5220033.1],[629810.8,5220034.3],[629803.8,5220044.0],[629806.0,5220045.6],[629808.1,5220043.1],[629809.9,5220042.7],[629814.7,5220045.6],[629816.6,5220043.3],[629818.3,5220042.8],[629819.5,5220043.2],[629822.4,5220045.6],[629823.7,5220044.1],[629825.0,5220043.7],[629826.4,5220044.0],[629828.6,5220045.6],[629863.5,5219999.2],[629860.8,5219996.7],[629860.7,5219995.3],[629861.5,5219993.9],[629859.9,5219993.6],[629857.5,5219991.6],[629857.2,5219990.2],[629857.6,5219989.0],[629892.7,5219943.3],[629890.5,5219941.6],[629888.7,5219942.4],[629886.8,5219941.6],[629884.9,5219942.6],[629882.6,5219941.6],[629880.9,5219942.3],[629879.1,5219941.6],[629877.3,5219942.4],[629875.4,5219941.6],[629873.4,5219942.5],[629871.5,5219941.6],[629869.7,5219942.3],[629867.9,5219941.6],[629866.0,5219942.4],[629864.1,5219941.6],[629862.6,5219942.3],[629860.5,5219941.6],[629858.4,5219942.3],[629856.8,5219941.6],[629854.9,5219942.4],[629852.9,5219941.6],[629851.6,5219942.3],[629849.3,5219941.6],[629847.5,5219942.3],[629845.7,5219941.6],[629844.0,5219942.2],[629842.3,5219941.6],[629810.1,5219983.0],[629811.0,5219983.9],[629811.4,5219985.1],[629810.1,5219987.7],[629811.1,5219988.7],[629811.4,5219989.9],[629811.2,5219991.0],[629810.0,5219992.6],[629808.1,5219993.5],[629806.2,5219992.8],[629805.1,5219994.1],[629803.7,5219994.6],[629802.3,5219994.3],[629800.3,5219992.8],[629799.0,5219994.4],[629797.5,5219994.9],[629780.8,5220014.9],[629778.7,5220015.9],[629776.4,5220015.7],[629775.1,5220014.8],[629774.3,5220013.5],[629774.0,5220012.0],[629774.3,5220010.4],[629788.0,5219993.8],[629785.5,5219992.8],[629774.4,5220008.3],[629772.7,5220009.1],[629771.0,5220008.6],[629766.4,5220014.7],[629780.7,5220018.7],[629781.5,5220020.0],[629780.6,5220021.4],[629779.6,5220021.4],[629764.5,5220017.2],[629763.4,5220018.0],[629762.0,5220018.1],[629758.9,5220016.0],[629757.7,5220016.5],[629756.5,5220016.4],[629752.9,5220014.3],[629748.6,5220013.7],[629744.5,5220011.7],[629743.4,5220012.3],[629741.9,5220012.3],[629737.4,5220009.7],[629715.2,5220031.9],[629707.0,5220043.3],[629704.8,5220044.0],[629701.8,5220047.3],[629700.4,5220047.3],[629698.9,5220046.3],[629692.6,5220044.9],[629689.4,5220049.0],[629687.5,5220049.6],[629685.3,5220048.4],[629684.6,5220047.1],[629684.8,5220045.7],[629682.6,5220044.0],[629680.9,5220044.6],[629679.2,5220044.0],[629677.3,5220044.7],[629675.6,5220044.0],[629673.9,5220044.6],[629672.2,5220044.0],[629670.2,5220044.8],[629668.3,5220044.0],[629666.5,5220044.7],[629664.8,5220044.0],[629663.0,5220044.7],[629661.3,5220044.0],[629659.6,5220044.7],[629657.7,5220044.0],[629656.0,5220044.6],[629654.4,5220044.0],[629652.8,5220044.6],[629651.2,5220044.0],[629649.4,5220044.7],[629647.7,5220044.0],[629625.4,5220075.2],[629626.7,5220076.2],[629628.3,5220076.3],[629631.8,5220078.4],[629633.0,5220077.8],[629634.2,5220077.8],[629637.4,5220080.2],[629641.9,5220080.9],[629645.7,5220083.1],[629647.0,5220082.8],[629648.8,5220083.7],[629650.2,5220083.7],[629654.7,5220085.7]]],[[[629698.0,5220099.8],[629698.9,5220100.1],[629699.2,5220100.1],[629698.0,5220099.8]]],[[[629701.1,5220100.9],[629702.7,5220101.0],[629704.0,5220101.9],[629705.6,5220101.8],[629707.0,5220102.7],[629708.9,5220102.6],[629715.5,5220105.6],[629717.0,5220105.4],[629718.5,5220106.2],[629720.7,5220105.8],[629724.4,5220108.7],[629725.9,5220106.8],[629700.3,5220100.4],[629701.1,5220100.9]]]]}},{"type":"Feature","properties":{"vineyard_id":"V04","status":"yellow"},"geometry":{"type":"MultiPolygon","coordinates":[[[[629103.2,5220658.5],[629102.9,5220658.7],[629104.3,5220659.2],[629103.2,5220658.5]]],[[[629022.2,5220737.9],[629040.2,5220751.2],[629043.0,5220752.6],[629043.9,5220754.0],[629054.1,5220761.6],[629055.4,5220761.6],[629057.4,5220762.7],[629058.2,5220763.6],[629058.5,5220764.9],[629064.1,5220769.0],[629067.6,5220770.6],[629068.5,5220771.9],[629071.0,5220773.8],[629073.3,5220775.3],[629075.2,5220774.6],[629077.3,5220775.6],[629078.3,5220777.0],[629078.1,5220778.7],[629083.1,5220781.8],[629089.1,5220773.0],[629090.7,5220772.3],[629092.4,5220772.8],[629093.9,5220774.5],[629094.3,5220775.6],[629093.1,5220779.2],[629094.6,5220780.1],[629095.2,5220781.7],[629093.1,5220787.4],[629095.5,5220788.4],[629099.2,5220791.1],[629109.4,5220800.8],[629130.8,5220770.1],[629132.7,5220764.9],[629131.9,5220763.5],[629132.0,5220762.1],[629135.9,5220756.0],[629147.3,5220725.0],[629154.1,5220710.4],[629152.9,5220709.9],[629151.7,5220710.9],[629150.3,5220711.1],[629147.2,5220709.8],[629146.2,5220708.5],[629146.1,5220707.3],[629146.8,5220705.9],[629145.8,5220704.9],[629145.5,5220703.5],[629146.8,5220700.9],[629145.6,5220699.8],[629145.3,5220698.4],[629146.7,5220695.7],[629145.7,5220694.8],[629145.2,5220693.4],[629146.7,5220690.3],[629145.6,5220689.3],[629145.1,5220688.0],[629146.3,5220685.5],[629143.8,5220684.1],[629142.7,5220685.3],[629141.3,5220685.6],[629139.5,5220684.8],[629138.2,5220685.1],[629136.4,5220684.5],[629134.8,5220684.7],[629132.5,5220683.7],[629128.1,5220680.5],[629126.9,5220680.5],[629124.7,5220679.3],[629103.4,5220667.5],[629102.7,5220666.6],[629102.4,5220665.2],[629104.0,5220662.3],[629094.4,5220659.0],[629092.3,5220658.5],[629090.2,5220659.2],[629088.5,5220658.5],[629086.6,5220659.2],[629085.0,5220658.5],[629083.3,5220659.1],[629081.6,5220658.4],[629079.8,5220659.1],[629078.1,5220658.5],[629076.1,5220659.2],[629074.4,5220658.5],[629072.6,5220659.2],[629070.8,5220658.5],[629069.0,5220659.3],[629066.9,5220658.4],[629065.1,5220659.2],[629063.3,5220658.4],[629061.8,5220659.2],[629059.6,5220658.5],[629057.8,5220659.2],[629056.0,5220658.4],[629054.3,5220659.0],[629052.7,5220658.4],[629037.4,5220681.0],[629035.9,5220681.7],[629034.0,5220681.2],[629029.6,5220688.0],[629028.5,5220688.9],[629026.6,5220689.0],[629023.5,5220686.9],[629022.4,5220688.6],[629023.7,5220690.1],[629023.6,5220692.2],[629004.4,5220721.6],[629005.3,5220722.6],[629005.5,5220723.7],[629004.3,5220726.3],[629019.3,5220736.1],[629021.2,5220736.6],[629022.2,5220737.9]],[[629127.4,5220768.1],[629124.4,5220766.5],[629123.9,5220765.3],[629124.1,5220764.1],[629125.1,5220762.7],[629127.1,5220762.1],[629129.8,5220763.1],[629130.4,5220765.2],[629129.1,5220767.4],[629127.4,5220768.1]]]]}},{"type":"Feature","properties":{"vineyard_id":"V10","status":"yellow"},"geometry":{"type":"Polygon","coordinates":[[[629235.1,5220492.9],[629233.2,5220490.7],[629232.8,5220489.0],[629233.7,5220487.4],[629236.3,5220486.0],[629236.4,5220484.3],[629235.8,5220482.2],[629236.8,5220480.4],[629237.3,5220475.6],[629236.7,5220473.6],[629237.7,5220471.8],[629237.9,5220470.1],[629237.3,5220468.1],[629238.3,5220466.4],[629238.5,5220464.7],[629237.8,5220463.5],[629196.1,5220485.9],[629197.4,5220488.8],[629197.0,5220490.2],[629196.1,5220491.0],[629197.5,5220494.2],[629197.1,5220495.6],[629196.1,5220496.5],[629196.5,5220497.8],[629196.1,5220499.3],[629197.5,5220502.3],[629196.1,5220506.1],[629191.9,5220508.7],[629190.3,5220509.0],[629188.7,5220508.0],[629186.9,5220504.4],[629175.8,5220510.3],[629177.9,5220514.0],[629178.0,5220515.2],[629177.5,5220516.3],[629166.6,5220522.5],[629167.0,5220524.6],[629165.9,5220526.2],[629166.0,5220527.6],[629165.3,5220528.9],[629154.8,5220534.7],[629154.6,5220536.8],[629152.8,5220538.2],[629154.1,5220541.0],[629153.6,5220543.0],[629144.9,5220547.9],[629145.4,5220551.9],[629144.8,5220553.5],[629146.9,5220558.0],[629197.4,5220530.7],[629196.1,5220527.3],[629196.6,5220526.0],[629197.8,5220525.0],[629231.2,5220506.8],[629229.9,5220504.4],[629228.6,5220503.3],[629228.3,5220501.3],[629229.1,5220500.1],[629231.6,5220498.7],[629231.8,5220496.7],[629234.7,5220494.7],[629235.1,5220492.9]]]}},{"type":"Feature","properties":{"vineyard_id":"V35","status":"yellow"},"geometry":{"type":"Polygon","coordinates":[[[630151.6,5219453.2],[630162.2,5219446.3],[630152.8,5219434.0],[630152.6,5219432.4],[630153.6,5219430.8],[630155.7,5219430.3],[630157.9,5219431.6],[630159.3,5219430.8],[630160.7,5219431.0],[630168.5,5219440.5],[630170.7,5219438.8],[630163.5,5219429.6],[630162.0,5219430.4],[630160.5,5219430.2],[630142.9,5219417.9],[630141.2,5219418.2],[630139.6,5219417.3],[630119.5,5219391.8],[630116.7,5219388.8],[630116.8,5219386.4],[630119.5,5219384.1],[630118.2,5219382.0],[630118.4,5219380.5],[630119.5,5219379.3],[630118.8,5219378.4],[630116.9,5219379.2],[630115.1,5219378.4],[630112.7,5219380.2],[630111.3,5219380.6],[630109.9,5219380.1],[630108.5,5219378.5],[630104.5,5219381.8],[630104.7,5219383.3],[630103.8,5219384.7],[630102.5,5219385.2],[630100.9,5219384.9],[630098.7,5219386.6],[630117.2,5219410.3],[630134.1,5219431.2],[630135.2,5219432.1],[630151.6,5219453.2]]]}},{"type":"Feature","properties":{"vineyard_id":"V41","status":"yellow"},"geometry":{"type":"MultiPolygon","coordinates":[[[[630302.7,5219328.7],[630302.8,5219329.0],[630303.5,5219328.2],[630302.7,5219328.7]]],[[[630307.3,5219430.8],[630320.2,5219417.5],[630320.9,5219415.5],[630323.7,5219413.9],[630326.5,5219411.0],[630325.1,5219408.5],[630325.5,5219406.6],[630349.0,5219379.5],[630350.4,5219378.5],[630318.7,5219327.3],[630317.2,5219328.0],[630315.8,5219327.9],[630314.4,5219326.8],[630313.1,5219324.9],[630306.3,5219329.7],[630297.4,5219338.5],[630322.0,5219378.2],[630324.3,5219376.8],[630325.5,5219376.7],[630327.0,5219377.5],[630328.6,5219379.9],[630329.8,5219379.6],[630331.0,5219379.9],[630332.6,5219379.4],[630334.2,5219379.9],[630335.8,5219379.3],[630337.6,5219379.9],[630339.8,5219379.3],[630341.6,5219380.2],[630342.3,5219381.7],[630341.7,5219383.7],[630326.4,5219401.3],[630324.5,5219402.1],[630322.6,5219401.2],[630306.7,5219378.4],[630305.3,5219378.9],[630303.8,5219378.4],[630301.9,5219379.2],[630300.1,5219378.4],[630297.0,5219380.8],[630295.8,5219381.1],[630294.2,5219380.6],[630292.5,5219378.4],[630290.7,5219379.2],[630288.7,5219378.4],[630286.8,5219379.2],[630285.0,5219378.4],[630283.2,5219379.2],[630281.3,5219378.4],[630279.5,5219378.6],[630278.1,5219377.7],[630273.2,5219369.6],[630270.8,5219371.0],[630272.0,5219373.8],[630271.7,5219375.0],[630270.8,5219375.9],[630272.3,5219379.2],[630271.9,5219381.6],[630270.9,5219382.8],[630272.2,5219385.5],[630271.8,5219386.8],[630270.9,5219387.8],[630271.9,5219390.0],[630270.9,5219392.0],[630271.7,5219393.3],[630271.8,5219394.5],[630270.9,5219396.1],[630273.1,5219400.0],[630272.5,5219401.6],[630270.9,5219402.9],[630274.1,5219407.6],[630274.4,5219408.8],[630273.7,5219410.6],[630270.9,5219412.7],[630272.4,5219415.6],[630272.0,5219417.0],[630270.9,5219418.0],[630274.5,5219423.7],[630273.8,5219425.7],[630270.8,5219427.8],[630273.1,5219431.1],[630277.1,5219428.9],[630278.7,5219429.4],[630280.1,5219431.2],[630282.1,5219430.3],[630284.0,5219431.2],[630286.7,5219429.3],[630287.9,5219429.0],[630289.4,5219429.6],[630290.7,5219431.2],[630293.2,5219430.0],[630294.4,5219430.3],[630295.4,5219431.2],[630296.9,5219430.7],[630298.4,5219431.2],[630302.0,5219429.2],[630303.6,5219429.7],[630304.8,5219431.2],[630305.9,5219430.7],[630307.3,5219430.8]]]]}},{"type":"Feature","properties":{"vineyard_id":"V33","status":"yellow"},"geometry":{"type":"Polygon","coordinates":[[[630169.1,5219531.4],[630127.9,5219480.7],[630125.4,5219482.7],[630123.8,5219482.9],[630122.3,5219482.1],[630120.5,5219479.0],[630118.3,5219481.2],[630118.2,5219482.5],[630118.8,5219483.6],[630118.9,5219484.8],[630117.3,5219486.8],[630135.9,5219509.9],[630136.5,5219511.4],[630136.1,5219512.8],[630134.9,5219513.8],[630133.4,5219514.1],[630132.3,5219513.7],[630119.5,5219497.9],[630117.3,5219499.7],[630118.8,5219502.1],[630118.5,5219503.6],[630117.3,5219504.7],[630118.6,5219507.0],[630118.3,5219508.4],[630117.3,5219509.4],[630118.4,5219511.0],[630118.5,5219512.4],[630117.3,5219514.2],[630118.4,5219515.6],[630118.7,5219517.1],[630117.3,5219519.1],[630118.5,5219520.6],[630118.7,5219522.0],[630117.3,5219524.1],[630118.5,5219525.7],[630118.6,5219527.2],[630117.3,5219528.9],[630117.4,5219530.5],[630116.6,5219531.7],[630114.5,5219532.8],[630112.5,5219532.0],[630110.3,5219533.7],[630117.3,5219542.5],[630119.5,5219540.8],[630118.3,5219539.0],[630118.4,5219537.3],[630119.5,5219536.1],[630120.0,5219534.4],[630121.9,5219532.9],[630123.6,5219532.7],[630125.1,5219533.7],[630126.3,5219532.8],[630127.5,5219532.7],[630129.2,5219533.7],[630131.3,5219532.9],[630132.9,5219533.7],[630135.0,5219532.8],[630136.8,5219533.7],[630138.9,5219532.7],[630140.8,5219533.7],[630142.7,5219532.8],[630144.6,5219533.7],[630146.8,5219531.9],[630145.5,5219530.0],[630145.6,5219528.3],[630146.3,5219527.3],[630147.8,5219526.6],[630150.0,5219527.3],[630155.2,5219533.7],[630157.5,5219532.6],[630159.6,5219533.7],[630162.4,5219531.3],[630163.8,5219530.8],[630165.4,5219531.4],[630166.9,5219533.2],[630169.1,5219531.4]],[[630143.9,5219525.4],[630141.7,5219525.3],[630140.2,5219523.4],[630140.5,5219521.3],[630142.2,5219520.1],[630144.1,5219520.3],[630145.7,5219522.2],[630145.5,5219524.1],[630143.9,5219525.4]]]}},{"type":"Feature","properties":{"vineyard_id":"V38","status":"yellow"},"geometry":{"type":"Polygon","coordinates":[[[630131.8,5219380.1],[630168.4,5219426.7],[630170.6,5219425.1],[630169.3,5219422.4],[630169.7,5219421.2],[630170.7,5219420.2],[630169.9,5219418.3],[630170.7,5219416.5],[630170.0,5219414.2],[630170.7,5219412.9],[630169.5,5219410.4],[630169.8,5219409.2],[630170.7,5219408.3],[630167.5,5219404.3],[630167.2,5219402.8],[630167.6,5219401.4],[630168.8,5219400.6],[630170.3,5219398.3],[630170.0,5219396.6],[630170.7,5219395.3],[630169.9,5219393.3],[630170.7,5219391.7],[630169.6,5219389.4],[630170.7,5219387.3],[630163.6,5219378.4],[630161.7,5219379.0],[630160.1,5219378.4],[630158.8,5219378.8],[630157.3,5219378.4],[630155.1,5219380.1],[630161.6,5219388.5],[630161.7,5219389.7],[630161.3,5219390.9],[630159.3,5219392.0],[630157.4,5219391.2],[630147.4,5219378.4],[630145.7,5219379.0],[630144.0,5219378.4],[630142.2,5219379.0],[630140.6,5219378.3],[630138.9,5219378.9],[630137.5,5219378.3],[630135.7,5219379.1],[630134.0,5219378.4],[630131.8,5219380.1]]]}},{"type":"Feature","properties":{"vineyard_id":"V32","status":"yellow"},"geometry":{"type":"Polygon","coordinates":[[[630028.1,5219553.8],[630037.0,5219546.6],[630029.3,5219536.2],[630029.5,5219534.0],[630031.9,5219531.9],[629990.0,5219480.7],[629988.5,5219481.4],[629986.7,5219480.7],[629985.4,5219481.4],[629984.3,5219481.3],[629970.1,5219493.0],[630003.3,5219533.7],[630004.9,5219532.4],[630006.1,5219532.1],[630007.5,5219532.5],[630008.6,5219533.7],[630010.6,5219532.9],[630013.7,5219534.1],[630014.6,5219535.0],[630016.2,5219538.5],[630016.0,5219539.9],[630014.9,5219541.1],[630022.8,5219551.7],[630024.0,5219551.0],[630025.5,5219551.0],[630028.1,5219553.8]]]}},{"type":"Feature","properties":{"vineyard_id":"V12","status":"yellow"},"geometry":{"type":"Polygon","coordinates":[[[629207.7,5220469.1],[629209.0,5220471.5],[629238.5,5220455.6],[629237.1,5220453.2],[629234.8,5220454.1],[629232.9,5220453.2],[629229.7,5220454.6],[629228.3,5220454.2],[629227.5,5220453.2],[629224.7,5220454.3],[629222.7,5220453.2],[629219.5,5220454.9],[629219.2,5220457.2],[629216.9,5220458.8],[629217.4,5220460.5],[629216.7,5220462.0],[629209.7,5220466.0],[629209.3,5220467.9],[629207.7,5220469.1]]]}},{"type":"Feature","properties":{"vineyard_id":"V01","status":"yellow"},"geometry":{"type":"Polygon","coordinates":[[[629109.9,5220805.8],[629105.4,5220811.8],[629102.4,5220813.6],[629100.2,5220813.0],[629099.4,5220811.8],[629099.5,5220810.1],[629105.5,5220801.4],[629103.3,5220799.6],[629097.0,5220808.6],[629095.2,5220809.3],[629093.2,5220808.5],[629090.8,5220812.0],[629093.2,5220813.6],[629095.1,5220813.8],[629096.3,5220815.6],[629096.1,5220817.0],[629093.1,5220823.8],[629096.1,5220825.2],[629096.9,5220826.1],[629097.2,5220827.8],[629095.6,5220831.6],[629098.5,5220833.0],[629099.6,5220834.6],[629099.4,5220836.0],[629094.6,5220847.6],[629097.2,5220848.7],[629111.9,5220813.4],[629112.0,5220811.6],[629113.5,5220809.4],[629109.9,5220805.8]]]}},{"type":"Feature","properties":{"vineyard_id":"V37","status":"yellow"},"geometry":{"type":"MultiPolygon","coordinates":[[[[630358.6,5219418.6],[630359.6,5219420.2],[630360.2,5219417.6],[630358.6,5219418.6]]],[[[630357.0,5219424.8],[630358.0,5219426.6],[630358.7,5219423.8],[630357.0,5219424.8]]],[[[630357.1,5219430.5],[630355.8,5219430.7],[630354.0,5219432.8],[630356.1,5219434.6],[630357.1,5219430.5]]],[[[630373.5,5219448.9],[630375.3,5219446.8],[630361.0,5219435.0],[630360.2,5219433.7],[630360.5,5219431.6],[630363.2,5219429.8],[630365.1,5219429.8],[630366.4,5219431.1],[630367.9,5219430.7],[630369.3,5219431.1],[630371.7,5219429.7],[630364.3,5219417.7],[630363.2,5219418.1],[630358.7,5219436.7],[630373.5,5219448.9]]]]}},{"type":"Feature","properties":{"vineyard_id":"V43","status":"yellow"},"geometry":{"type":"Polygon","coordinates":[[[630342.5,5219302.6],[630335.9,5219308.6],[630329.9,5219313.0],[630342.8,5219328.9],[630344.2,5219328.4],[630345.8,5219328.9],[630347.0,5219328.5],[630348.3,5219328.9],[630350.0,5219328.3],[630351.5,5219328.9],[630353.0,5219328.5],[630354.2,5219328.9],[630356.4,5219327.1],[630357.7,5219325.3],[630350.3,5219316.1],[630350.1,5219314.5],[630351.1,5219312.9],[630347.0,5219307.9],[630346.7,5219306.5],[630347.2,5219305.2],[630345.6,5219303.2],[630344.0,5219303.4],[630342.5,5219302.6]]]}},{"type":"Feature","properties":{"vineyard_id":"V02","status":"green"},"geometry":{"type":"MultiPolygon","coordinates":[[[[629289.3,5220784.8],[629295.4,5220770.6],[629283.5,5220761.5],[629282.5,5220761.1],[629276.4,5220761.5],[629274.9,5220761.1],[629273.6,5220761.5],[629269.2,5220761.1],[629267.9,5220761.5],[629263.9,5220761.1],[629262.7,5220761.5],[629261.1,5220761.1],[629259.9,5220763.6],[629257.9,5220764.4],[629256.4,5220763.7],[629255.6,5220762.1],[629253.0,5220761.1],[629251.0,5220761.4],[629249.3,5220760.4],[629248.7,5220758.9],[629249.3,5220756.9],[629248.1,5220755.9],[629247.7,5220754.5],[629249.3,5220750.2],[629248.2,5220749.4],[629247.7,5220748.1],[629249.3,5220743.2],[629248.1,5220742.4],[629247.6,5220741.3],[629248.4,5220738.1],[629211.8,5220719.3],[629210.0,5220719.6],[629207.1,5220718.5],[629206.1,5220717.5],[629205.8,5220716.2],[629193.9,5220710.1],[629191.7,5220709.9],[629190.1,5220710.3],[629188.8,5220709.9],[629187.4,5220710.3],[629186.0,5220709.9],[629184.7,5220710.3],[629183.3,5220709.9],[629182.0,5220710.3],[629180.6,5220709.9],[629179.3,5220710.3],[629177.8,5220709.9],[629176.5,5220710.3],[629175.0,5220709.9],[629173.7,5220710.3],[629172.1,5220709.9],[629171.1,5220710.8],[629170.0,5220711.1],[629166.6,5220709.9],[629162.6,5220710.3],[629161.1,5220709.9],[629159.7,5220710.3],[629158.2,5220709.9],[629144.3,5220743.6],[629145.2,5220745.0],[629145.0,5220746.7],[629139.4,5220755.3],[629138.5,5220757.6],[629138.6,5220759.6],[629137.3,5220761.1],[629132.6,5220773.9],[629119.9,5220811.1],[629129.9,5220817.9],[629181.7,5220835.3],[629204.5,5220852.7],[629232.2,5220858.2],[629248.0,5220865.6],[629248.0,5220867.5],[629249.2,5220864.6],[629248.1,5220863.5],[629247.8,5220861.8],[629249.3,5220858.0],[629248.1,5220857.1],[629247.7,5220855.7],[629249.3,5220851.4],[629248.1,5220850.4],[629247.7,5220849.1],[629249.3,5220844.8],[629248.0,5220843.8],[629247.6,5220842.4],[629249.3,5220837.9],[629248.1,5220836.9],[629247.7,5220835.6],[629249.3,5220831.1],[629248.3,5220830.3],[629247.8,5220829.0],[629249.3,5220824.6],[629248.3,5220823.8],[629247.7,5220822.5],[629249.3,5220817.9],[629248.2,5220816.4],[629248.4,5220814.7],[629249.5,5220813.5],[629252.2,5220812.9],[629253.9,5220813.3],[629255.2,5220812.9],[629259.2,5220813.3],[629260.5,5220812.9],[629264.2,5220813.3],[629265.7,5220812.9],[629267.2,5220813.3],[629268.6,5220812.9],[629270.0,5220813.3],[629274.0,5220812.9],[629275.4,5220813.3],[629276.7,5220812.9],[629278.3,5220813.3],[629288.9,5220786.7],[629289.3,5220784.8]]],[[[629203.5,5220855.5],[629180.4,5220838.0],[629128.8,5220820.6],[629118.6,5220813.9],[629101.5,5220852.1],[629107.4,5220856.6],[629108.0,5220857.9],[629107.7,5220859.6],[629108.8,5220860.6],[629109.2,5220862.3],[629110.5,5220863.1],[629111.2,5220864.7],[629112.5,5220865.9],[629112.6,5220867.8],[629110.7,5220871.9],[629113.3,5220873.1],[629114.9,5220872.2],[629117.4,5220872.6],[629123.4,5220875.7],[629125.2,5220875.4],[629127.6,5220876.4],[629135.8,5220880.6],[629136.8,5220881.7],[629140.5,5220883.6],[629146.8,5220887.7],[629147.6,5220888.7],[629151.0,5220890.1],[629152.2,5220891.8],[629157.6,5220895.4],[629161.3,5220898.8],[629162.0,5220900.1],[629161.8,5220901.7],[629163.0,5220902.4],[629163.7,5220903.9],[629166.9,5220906.7],[629167.5,5220908.1],[629168.8,5220908.9],[629171.2,5220912.5],[629176.2,5220914.5],[629177.4,5220914.1],[629180.2,5220914.3],[629183.8,5220915.7],[629185.1,5220915.3],[629186.6,5220915.7],[629187.8,5220915.4],[629189.4,5220915.7],[629193.1,5220915.4],[629194.8,5220915.9],[629195.9,5220917.5],[629195.5,5220919.5],[629198.3,5220920.8],[629199.2,5220922.5],[629196.0,5220930.8],[629197.4,5220931.5],[629198.2,5220932.5],[629200.7,5220933.5],[629201.7,5220931.4],[629202.6,5220930.6],[629204.3,5220930.4],[629207.2,5220931.6],[629208.1,5220929.7],[629209.6,5220928.8],[629210.8,5220928.9],[629214.5,5220930.6],[629220.4,5220935.2],[629221.1,5220936.5],[629220.9,5220938.1],[629224.6,5220941.9],[629227.2,5220943.0],[629229.0,5220942.9],[629231.6,5220944.1],[629233.5,5220946.9],[629232.7,5220949.9],[629240.4,5220954.1],[629241.0,5220955.7],[629240.4,5220957.6],[629241.4,5220958.5],[629241.8,5220959.7],[629241.3,5220961.4],[629243.9,5220962.5],[629245.2,5220961.5],[629247.0,5220961.6],[629249.3,5220956.1],[629248.2,5220955.2],[629247.8,5220953.8],[629249.3,5220949.7],[629248.2,5220948.8],[629247.7,5220947.4],[629249.3,5220943.1],[629248.1,5220942.2],[629247.7,5220940.8],[629249.3,5220936.5],[629248.0,5220935.5],[629247.6,5220934.1],[629249.3,5220929.7],[629248.2,5220928.7],[629247.8,5220927.3],[629249.3,5220923.3],[629248.2,5220922.3],[629247.9,5220921.1],[629249.3,5220917.3],[629248.1,5220916.3],[629247.7,5220914.9],[629249.3,5220910.8],[629248.3,5220910.0],[629247.8,5220908.6],[629249.3,5220904.6],[629248.1,5220903.7],[629247.7,5220902.3],[629249.3,5220898.2],[629248.0,5220897.2],[629247.6,5220895.8],[629249.3,5220891.3],[629248.0,5220890.3],[629247.6,5220888.9],[629249.3,5220884.5],[629248.1,5220883.6],[629247.6,5220882.2],[629249.3,5220877.8],[629248.2,5220876.9],[629247.9,5220875.5],[629249.3,5220871.8],[629247.7,5220870.5],[629247.5,5220868.7],[629231.3,5220861.0],[629203.5,5220855.5]]]]}},{"type":"Feature","properties":{"vineyard_id":"V14","status":"green"},"geometry":{"type":"MultiPolygon","coordinates":[[[[629557.8,5220266.5],[629559.6,5220266.0],[629563.9,5220267.4],[629565.5,5220267.5],[629569.3,5220269.3],[629571.6,5220269.0],[629574.9,5220271.2],[629577.1,5220271.3],[629579.8,5220273.4],[629581.3,5220272.8],[629583.2,5220273.6],[629585.3,5220273.2],[629589.2,5220275.2],[629593.6,5220276.2],[629597.1,5220278.6],[629598.6,5220277.9],[629600.4,5220278.5],[629602.2,5220276.2],[629604.2,5220275.8],[629605.7,5220276.7],[629606.4,5220277.7],[629606.3,5220279.4],[629605.3,5220280.9],[629606.4,5220281.8],[629607.9,5220282.1],[629609.1,5220281.2],[629610.6,5220281.2],[629614.0,5220283.3],[629615.4,5220283.2],[629616.9,5220284.1],[629618.7,5220283.9],[629622.7,5220285.5],[629624.1,5220285.6],[629625.4,5220286.4],[629631.7,5220288.0],[629633.1,5220287.9],[629634.4,5220288.6],[629645.7,5220291.4],[629653.6,5220278.8],[629661.4,5220268.4],[629693.1,5220229.7],[629692.3,5220228.2],[629692.6,5220226.6],[629702.4,5220213.8],[629700.2,5220212.1],[629698.2,5220212.0],[629695.1,5220209.7],[629693.5,5220210.4],[629691.5,5220209.7],[629689.4,5220210.3],[629683.5,5220206.6],[629682.1,5220206.8],[629680.4,5220205.9],[629678.9,5220206.1],[629677.4,5220205.3],[629675.8,5220205.4],[629674.5,5220204.6],[629672.7,5220204.6],[629668.6,5220202.4],[629667.9,5220201.4],[629667.8,5220200.1],[629659.2,5220197.6],[629657.3,5220198.2],[629655.7,5220197.6],[629654.0,5220198.4],[629652.0,5220197.6],[629649.8,5220197.9],[629646.4,5220195.3],[629643.9,5220194.1],[629642.3,5220194.1],[629638.3,5220192.2],[629636.3,5220192.3],[629632.8,5220190.4],[629630.8,5220190.5],[629627.3,5220187.9],[629625.4,5220188.5],[629619.8,5220187.1],[629618.4,5220186.1],[629616.7,5220186.1],[629612.8,5220184.3],[629611.5,5220184.3],[629608.6,5220183.0],[629606.3,5220180.7],[629604.8,5220180.3],[629603.0,5220180.9],[629601.0,5220179.8],[629599.8,5220180.5],[629598.3,5220180.5],[629593.9,5220178.0],[629589.7,5220177.2],[629586.0,5220175.3],[629584.1,5220175.4],[629580.3,5220173.6],[629576.1,5220172.7],[629574.8,5220171.8],[629573.4,5220171.9],[629571.8,5220171.0],[629569.7,5220171.1],[629567.3,5220170.1],[629563.9,5220167.4],[629562.2,5220167.8],[629560.7,5220167.0],[629554.2,5220175.9],[629555.0,5220176.9],[629555.2,5220178.1],[629554.1,5220180.3],[629555.2,5220181.3],[629555.5,5220182.5],[629555.3,5220183.7],[629554.1,5220185.3],[629555.3,5220187.4],[629554.1,5220189.9],[629555.0,5220190.8],[629555.4,5220192.2],[629554.1,5220194.7],[629553.7,5220196.5],[629550.2,5220198.4],[629548.1,5220197.6],[629546.5,5220198.2],[629544.8,5220197.6],[629543.0,5220198.4],[629541.0,5220197.6],[629539.8,5220198.2],[629538.5,5220198.1],[629508.3,5220241.3],[629509.4,5220239.9],[629510.8,5220239.4],[629512.1,5220239.7],[629513.5,5220240.9],[629513.8,5220243.1],[629514.8,5220244.1],[629515.1,5220245.5],[629513.2,5220248.8],[629515.4,5220250.4],[629517.2,5220249.8],[629518.8,5220250.4],[629520.6,5220249.8],[629522.2,5220250.4],[629523.9,5220249.7],[629525.8,5220250.4],[629527.5,5220249.8],[629529.2,5220250.4],[629531.1,5220249.7],[629532.9,5220250.4],[629534.4,5220250.0],[629535.8,5220250.4],[629537.7,5220249.7],[629539.4,5220250.4],[629541.1,5220249.7],[629542.9,5220250.4],[629544.6,5220249.7],[629546.5,5220250.4],[629548.0,5220248.9],[629550.1,5220249.0],[629553.4,5220251.1],[629555.0,5220253.9],[629555.2,5220255.5],[629554.1,5220257.4],[629555.1,5220258.5],[629555.3,5220260.0],[629554.1,5220262.1],[629555.1,5220263.4],[629555.1,5220265.2],[629557.8,5220266.5]]],[[[629505.4,5220240.5],[629505.3,5220240.6],[629505.3,5220240.9],[629505.4,5220240.5]]]]}},{"type":"Feature","properties":{"vineyard_id":"V15","status":"green"},"geometry":{"type":"MultiPolygon","coordinates":[[[[629627.9,5220078.9],[629627.5,5220079.1],[629628.4,5220079.3],[629627.9,5220078.9]]],[[[629745.6,5220164.8],[629759.6,5220149.2],[629758.6,5220148.2],[629758.3,5220146.8],[629758.7,5220145.6],[629761.1,5220142.6],[629759.9,5220141.6],[629759.5,5220140.2],[629759.7,5220139.0],[629761.1,5220137.1],[629760.0,5220135.1],[629761.1,5220132.7],[629760.2,5220131.6],[629760.0,5220130.2],[629761.1,5220128.3],[629760.0,5220126.3],[629761.1,5220123.9],[629760.1,5220122.9],[629759.7,5220121.8],[629760.0,5220120.6],[629761.1,5220119.0],[629760.1,5220117.6],[629760.2,5220115.9],[629759.1,5220115.1],[629756.0,5220114.6],[629754.6,5220114.0],[629753.1,5220114.1],[629751.6,5220113.2],[629742.6,5220110.9],[629740.4,5220113.7],[629738.6,5220114.3],[629737.1,5220113.7],[629735.5,5220113.7],[629734.3,5220113.0],[629732.4,5220113.1],[629730.9,5220112.2],[629729.5,5220112.2],[629725.6,5220110.8],[629724.1,5220110.9],[629720.3,5220109.5],[629718.2,5220109.8],[629710.8,5220105.5],[629709.9,5220103.4],[629708.8,5220102.5],[629707.3,5220102.1],[629706.1,5220103.6],[629704.8,5220104.2],[629701.4,5220103.6],[629699.9,5220102.7],[629698.5,5220102.8],[629695.2,5220101.6],[629693.5,5220100.3],[629693.0,5220098.6],[629680.7,5220095.5],[629679.1,5220095.9],[629677.5,5220095.2],[629676.3,5220095.8],[629675.1,5220095.8],[629671.7,5220093.7],[629669.7,5220094.0],[629667.7,5220092.8],[629666.0,5220092.6],[629664.4,5220091.4],[629661.9,5220091.3],[629660.2,5220090.3],[629621.7,5220080.4],[629606.4,5220102.1],[629605.9,5220103.4],[629601.2,5220109.4],[629562.7,5220163.9],[629655.3,5220193.0],[629657.6,5220192.5],[629660.3,5220193.4],[629661.9,5220195.1],[629706.1,5220209.0],[629709.9,5220204.1],[629709.0,5220203.2],[629708.7,5220201.7],[629710.0,5220199.4],[629711.8,5220198.6],[629713.6,5220199.2],[629715.5,5220198.6],[629717.0,5220199.2],[629730.5,5220181.8],[629731.7,5220181.0],[629732.9,5220180.9],[629734.7,5220179.0],[629745.6,5220164.8]]],[[[629560.9,5220166.4],[629560.9,5220166.4],[629559.9,5220167.8],[629560.9,5220166.4]]],[[[629554.1,5220170.8],[629554.6,5220170.1],[629554.1,5220170.7],[629554.1,5220170.8]]],[[[629664.1,5220199.2],[629664.4,5220199.1],[629663.6,5220198.8],[629664.1,5220199.2]]]]}},{"type":"Feature","properties":{"vineyard_id":"V46","status":"green"},"geometry":{"type":"MultiPolygon","coordinates":[[[[630168.7,5219288.6],[630180.1,5219303.8],[630214.8,5219276.8],[630216.2,5219276.4],[630217.3,5219276.8],[630220.0,5219278.6],[630221.4,5219280.7],[630223.8,5219279.0],[630224.3,5219277.5],[630226.3,5219276.0],[630225.2,5219273.6],[630226.1,5219271.7],[630255.2,5219249.1],[630257.0,5219248.8],[630258.6,5219249.9],[630259.8,5219249.0],[630246.4,5219231.4],[630243.4,5219233.7],[630241.5,5219233.8],[630236.4,5219229.0],[630235.1,5219229.4],[630233.9,5219229.1],[630230.8,5219225.9],[630229.4,5219225.7],[630228.0,5219224.5],[630226.8,5219225.3],[630225.4,5219225.4],[630222.4,5219223.8],[630221.0,5219221.1],[630221.7,5219218.9],[630220.9,5219217.5],[630221.0,5219216.1],[630215.3,5219209.8],[630213.3,5219210.5],[630211.4,5219209.3],[630209.1,5219210.4],[630208.0,5219210.1],[630207.0,5219209.2],[630205.0,5219210.1],[630203.1,5219209.1],[630201.3,5219209.8],[630199.7,5219209.1],[630189.8,5219217.3],[630190.1,5219218.7],[630189.6,5219220.2],[630182.3,5219226.3],[630184.3,5219229.3],[630183.8,5219231.6],[630169.8,5219243.1],[630170.1,5219245.2],[630168.7,5219246.8],[630169.3,5219248.4],[630168.7,5219250.0],[630169.5,5219251.7],[630169.0,5219253.5],[630167.3,5219254.8],[630165.6,5219255.0],[630164.4,5219254.3],[630162.7,5219252.3],[630160.2,5219254.3],[630162.1,5219257.1],[630161.8,5219259.2],[630151.6,5219267.6],[630160.3,5219277.9],[630162.1,5219276.9],[630163.5,5219277.0],[630164.6,5219277.9],[630166.8,5219277.0],[630168.9,5219278.3],[630169.4,5219279.9],[630168.7,5219281.4],[630169.6,5219283.5],[630168.7,5219285.2],[630169.4,5219286.9],[630168.7,5219288.6]]],[[[630154.3,5219275.6],[630154.4,5219275.7],[630153.8,5219275.0],[630154.3,5219275.6]]]]}},{"type":"Feature","properties":{"vineyard_id":"V18","status":"green"},"geometry":{"type":"MultiPolygon","coordinates":[[[[629999.0,5219749.8],[629999.4,5219752.0],[629998.7,5219753.9],[629969.8,5219788.4],[629971.4,5219789.7],[629973.2,5219788.9],[629975.0,5219789.7],[629976.8,5219788.9],[629978.7,5219789.7],[629980.6,5219788.8],[629982.6,5219789.7],[630005.6,5219760.3],[630004.3,5219758.7],[630004.5,5219756.7],[629999.0,5219749.8]]],[[[629886.4,5219892.0],[629888.5,5219890.8],[629891.1,5219892.0],[629892.8,5219891.3],[629894.7,5219892.1],[629896.6,5219891.2],[629898.5,5219892.1],[629900.4,5219891.2],[629902.4,5219892.1],[629904.2,5219891.2],[629906.3,5219892.0],[629911.4,5219885.5],[629913.1,5219885.0],[629914.7,5219885.7],[629949.1,5219841.6],[629952.1,5219839.9],[629953.3,5219840.0],[629954.6,5219840.9],[629957.8,5219836.9],[629959.1,5219836.4],[629960.5,5219836.8],[629961.5,5219837.9],[629962.1,5219839.9],[629961.8,5219841.8],[629923.9,5219890.3],[629926.1,5219892.0],[629965.9,5219841.1],[629965.5,5219839.9],[629965.9,5219838.5],[629963.7,5219836.7],[629962.3,5219836.9],[629961.2,5219836.4],[629960.2,5219834.5],[629960.6,5219833.1],[629965.9,5219826.3],[629964.7,5219825.2],[629964.3,5219823.9],[629964.5,5219822.7],[629965.9,5219820.9],[629964.8,5219819.8],[629964.4,5219818.6],[629964.7,5219817.4],[629965.9,5219815.8],[629964.8,5219814.8],[629964.5,5219813.6],[629964.8,5219812.4],[629965.9,5219810.9],[629964.9,5219809.9],[629964.6,5219808.7],[629965.9,5219806.2],[629964.9,5219805.1],[629964.5,5219803.9],[629965.9,5219801.3],[629964.7,5219799.2],[629965.9,5219796.9],[629964.9,5219795.8],[629964.6,5219794.7],[629884.5,5219890.6],[629886.4,5219892.0]]]]}},{"type":"Feature","properties":{"vineyard_id":"V24","status":"green"},"geometry":{"type":"Polygon","coordinates":[[[630242.4,5219660.0],[630236.7,5219635.5],[630235.6,5219636.4],[630234.2,5219636.5],[630230.6,5219634.5],[630219.6,5219653.2],[630223.3,5219655.2],[630224.2,5219657.1],[630219.6,5219665.9],[630220.7,5219666.9],[630221.1,5219668.3],[630219.6,5219671.6],[630220.8,5219672.7],[630221.1,5219674.2],[630219.6,5219677.2],[630220.9,5219678.2],[630221.3,5219679.6],[630219.3,5219684.6],[630218.5,5219685.5],[630216.9,5219686.3],[630214.9,5219685.8],[630213.4,5219686.2],[630212.1,5219685.8],[630210.4,5219686.3],[630208.8,5219685.7],[630180.1,5219736.9],[630182.6,5219738.3],[630184.2,5219737.7],[630185.9,5219738.3],[630187.2,5219737.8],[630189.0,5219738.3],[630190.6,5219737.7],[630192.2,5219738.3],[630193.9,5219737.7],[630195.5,5219738.3],[630197.0,5219737.7],[630198.6,5219738.3],[630200.3,5219737.7],[630201.9,5219738.3],[630222.0,5219702.5],[630220.7,5219701.5],[630220.3,5219700.1],[630222.0,5219696.5],[630220.9,5219695.5],[630220.5,5219694.1],[630222.0,5219690.9],[630221.6,5219689.6],[630221.9,5219688.5],[630222.9,5219687.4],[630224.9,5219686.6],[630227.2,5219687.1],[630242.4,5219660.0]]]}},{"type":"Feature","properties":{"vineyard_id":"V07","status":"green"},"geometry":{"type":"Polygon","coordinates":[[[629220.8,5220558.1],[629220.1,5220556.9],[629218.3,5220556.9],[629216.9,5220555.6],[629214.6,5220556.5],[629212.6,5220555.6],[629209.9,5220556.7],[629208.7,5220556.5],[629207.7,5220555.6],[629205.2,5220556.5],[629203.3,5220555.6],[629200.0,5220556.9],[629198.8,5220556.5],[629197.9,5220555.6],[629144.9,5220584.4],[629145.3,5220585.6],[629144.9,5220592.0],[629145.3,5220593.4],[629144.9,5220597.0],[629145.4,5220598.4],[629144.9,5220602.3],[629146.3,5220605.0],[629146.0,5220606.8],[629147.3,5220609.2],[629149.9,5220608.1],[629151.1,5220608.3],[629152.2,5220609.2],[629154.5,5220608.2],[629155.9,5220608.5],[629156.8,5220609.2],[629159.4,5220608.2],[629161.5,5220609.2],[629164.3,5220608.1],[629166.3,5220609.2],[629172.7,5220606.2],[629174.5,5220606.9],[629175.8,5220609.2],[629186.9,5220603.8],[629188.1,5220604.1],[629189.0,5220604.9],[629189.3,5220606.8],[629190.6,5220609.2],[629193.8,5220607.9],[629195.2,5220608.3],[629196.1,5220609.2],[629198.6,5220608.0],[629200.7,5220608.3],[629202.6,5220607.1],[629207.2,5220608.3],[629208.5,5220608.1],[629220.8,5220558.1]]]}},{"type":"Feature","properties":{"vineyard_id":"V45","status":"green"},"geometry":{"type":"MultiPolygon","coordinates":[[[[630263.2,5219246.3],[630262.3,5219245.0],[630261.1,5219245.7],[630262.2,5219247.1],[630263.2,5219246.3]]],[[[630303.3,5219328.4],[630311.4,5219322.3],[630283.0,5219279.3],[630282.6,5219278.2],[630282.8,5219277.0],[630283.9,5219275.7],[630285.4,5219275.4],[630286.8,5219275.9],[630288.1,5219277.6],[630289.4,5219277.1],[630291.0,5219277.6],[630292.5,5219277.1],[630294.0,5219277.6],[630295.6,5219277.0],[630297.4,5219277.6],[630298.9,5219277.2],[630300.2,5219277.6],[630302.5,5219276.0],[630299.4,5219271.6],[630299.2,5219269.9],[630300.2,5219268.3],[630301.8,5219267.9],[630303.5,5219268.7],[630309.9,5219277.6],[630311.4,5219276.7],[630312.6,5219276.6],[630315.5,5219278.3],[630322.0,5219288.2],[630324.3,5219286.6],[630322.0,5219282.7],[630322.1,5219281.3],[630323.2,5219280.0],[630320.4,5219276.0],[630319.0,5219275.0],[630315.0,5219269.3],[630313.6,5219269.9],[630312.0,5219269.6],[630308.4,5219264.9],[630306.5,5219265.9],[630304.9,5219265.5],[630301.2,5219260.7],[630298.9,5219262.4],[630298.9,5219263.8],[630297.9,5219265.1],[630296.3,5219265.6],[630295.0,5219265.0],[630282.1,5219246.7],[630280.2,5219247.0],[630278.8,5219246.1],[630275.3,5219248.1],[630273.1,5219247.0],[630270.9,5219248.6],[630270.7,5219250.9],[630268.9,5219252.1],[630267.0,5219251.6],[630264.9,5219248.7],[630253.7,5219258.0],[630267.2,5219277.6],[630269.3,5219277.3],[630271.1,5219278.9],[630303.3,5219328.4]]]]}},{"type":"Feature","properties":{"vineyard_id":"V30","status":"green"},"geometry":{"type":"Polygon","coordinates":[[[629912.9,5219560.0],[629933.1,5219584.9],[629935.0,5219584.2],[629936.6,5219584.9],[629938.3,5219584.2],[629940.1,5219584.9],[629941.4,5219584.3],[629943.3,5219584.9],[629945.0,5219584.3],[629946.6,5219584.9],[629948.3,5219584.2],[629949.9,5219584.9],[629951.7,5219584.2],[629953.4,5219584.9],[629955.5,5219583.1],[629924.6,5219545.3],[629920.3,5219548.5],[629919.6,5219549.9],[629917.1,5219552.0],[629916.9,5219553.8],[629915.7,5219555.1],[629915.4,5219556.4],[629912.9,5219560.0]]]}},{"type":"Feature","properties":{"vineyard_id":"V26","status":"green"},"geometry":{"type":"Polygon","coordinates":[[[630066.2,5219691.5],[630066.7,5219693.1],[630066.1,5219694.6],[630066.9,5219695.6],[630067.2,5219696.8],[630066.1,5219699.0],[630067.1,5219700.0],[630067.5,5219701.4],[630066.1,5219704.1],[630067.0,5219705.2],[630067.3,5219706.4],[630066.1,5219708.8],[630068.3,5219710.5],[630119.5,5219638.6],[630118.4,5219637.5],[630118.0,5219636.0],[630115.7,5219634.4],[630113.8,5219635.2],[630111.9,5219634.4],[630110.2,5219635.0],[630108.8,5219634.4],[630073.0,5219684.7],[630071.6,5219685.7],[630070.0,5219685.6],[630066.2,5219691.5]]]}},{"type":"Feature","properties":{"vineyard_id":"V27","status":"green"},"geometry":{"type":"Polygon","coordinates":[[[629889.0,5219663.6],[629894.4,5219661.3],[629869.5,5219634.3],[629868.1,5219634.9],[629866.0,5219634.3],[629864.8,5219635.0],[629863.4,5219634.9],[629861.4,5219636.8],[629887.5,5219664.8],[629889.0,5219663.6]]]}},{"type":"Feature","properties":{"vineyard_id":"V23","status":"green"},"geometry":{"type":"Polygon","coordinates":[[[629784.0,5219728.1],[629785.7,5219727.1],[629787.6,5219727.5],[629789.7,5219729.8],[629789.8,5219732.0],[629797.7,5219737.7],[629799.3,5219737.6],[629800.6,5219738.4],[629801.5,5219737.6],[629802.9,5219737.3],[629805.0,5219738.4],[629807.0,5219737.5],[629809.0,5219738.4],[629810.0,5219737.5],[629811.1,5219737.3],[629813.5,5219738.4],[629843.1,5219696.1],[629836.0,5219691.3],[629835.3,5219689.7],[629835.6,5219688.3],[629832.6,5219686.1],[629830.7,5219685.3],[629820.7,5219672.4],[629818.5,5219674.1],[629824.5,5219681.8],[629824.8,5219683.0],[629824.5,5219684.4],[629823.2,5219685.5],[629820.9,5219686.2],[629819.7,5219686.1],[629818.7,5219685.5],[629815.4,5219681.2],[629813.2,5219682.9],[629813.3,5219684.5],[629812.5,5219685.7],[629811.4,5219686.3],[629810.0,5219686.2],[629781.7,5219726.6],[629784.0,5219728.1]]]}},{"type":"Feature","properties":{"vineyard_id":"V31","status":"green"},"geometry":{"type":"Polygon","coordinates":[[[630088.3,5219533.7],[630117.3,5219571.0],[630119.5,5219569.3],[630118.7,5219567.3],[630119.5,5219565.5],[630118.3,5219562.9],[630118.6,5219561.8],[630119.5,5219560.8],[630118.4,5219558.5],[630119.5,5219556.5],[630100.5,5219532.0],[630098.9,5219532.6],[630097.0,5219532.0],[630095.2,5219532.7],[630093.5,5219532.0],[630092.0,5219532.5],[630090.5,5219532.0],[630088.3,5219533.7]]]}},{"type":"Feature","properties":{"vineyard_id":"V47","status":"green"},"geometry":{"type":"Polygon","coordinates":[[[630248.8,5219229.6],[630258.7,5219242.6],[630266.5,5219236.5],[630264.7,5219234.3],[630261.3,5219232.0],[630258.3,5219229.1],[630256.9,5219228.4],[630254.0,5219225.5],[630248.8,5219229.6]]]}},{"type":"Feature","properties":{"vineyard_id":"V03","status":"green"},"geometry":{"type":"Polygon","coordinates":[[[629099.2,5220795.3],[629094.4,5220791.8],[629093.2,5220791.7],[629079.6,5220812.0],[629082.0,5220813.6],[629091.5,5220799.7],[629093.4,5220799.3],[629095.6,5220800.6],[629099.2,5220795.3]]]}},{"type":"Feature","properties":{"vineyard_id":"V16","status":"green"},"geometry":{"type":"Polygon","coordinates":[[[629753.4,5220110.5],[629761.1,5220100.3],[629760.1,5220098.7],[629760.5,5220096.9],[629758.7,5220095.4],[629758.3,5220094.0],[629758.6,5220092.6],[629761.1,5220089.4],[629758.9,5220087.7],[629753.1,5220095.1],[629755.2,5220097.1],[629755.1,5220099.2],[629748.0,5220108.6],[629749.1,5220109.5],[629753.4,5220110.5]]]}},{"type":"Feature","properties":{"vineyard_id":"V25","status":"green"},"geometry":{"type":"Polygon","coordinates":[[[629869.2,5219680.6],[629871.1,5219678.8],[629863.2,5219670.2],[629862.7,5219669.1],[629862.8,5219667.7],[629863.5,5219666.7],[629862.7,5219664.6],[629863.5,5219663.0],[629862.5,5219661.6],[629862.4,5219660.4],[629863.5,5219658.6],[629848.9,5219639.7],[629846.7,5219641.4],[629847.1,5219643.0],[629846.5,5219644.3],[629845.1,5219645.3],[629843.6,5219645.3],[629841.4,5219647.1],[629841.1,5219648.6],[629838.3,5219652.8],[629831.5,5219659.0],[629852.5,5219687.2],[629854.5,5219686.3],[629856.6,5219687.2],[629858.5,5219686.6],[629860.1,5219687.3],[629862.2,5219687.3],[629864.2,5219685.5],[629862.3,5219680.6],[629862.9,5219679.0],[629864.4,5219677.9],[629866.5,5219678.1],[629869.2,5219680.6]]]}},{"type":"Feature","properties":{"vineyard_id":"V44","status":"green"},"geometry":{"type":"Polygon","coordinates":[[[630251.0,5219277.6],[630271.6,5219309.9],[630271.7,5219311.5],[630270.8,5219312.8],[630272.2,5219315.0],[630272.5,5219316.4],[630271.9,5219317.7],[630270.8,5219318.6],[630271.7,5219320.7],[630270.8,5219322.5],[630275.0,5219328.8],[630276.1,5219328.4],[630277.5,5219328.8],[630279.4,5219328.0],[630281.2,5219328.8],[630282.8,5219328.3],[630284.2,5219328.8],[630285.6,5219328.3],[630287.0,5219328.8],[630289.0,5219328.1],[630290.6,5219328.8],[630292.9,5219327.2],[630259.3,5219276.1],[630257.9,5219276.5],[630256.4,5219276.1],[630254.9,5219276.6],[630253.4,5219276.1],[630251.0,5219277.6]]]}}]}