{"type":"FeatureCollection","crs":{"type":"name","properties":{"name":"urn:ogc:def:crs:EPSG::32635"}},"demo":true,"generated":"2026-09-27","thresholds":{"min_rows":3,"min_area_ha":0.15,"a_min_ha":0.05,"a_min_share":0.1,"b_max_cover":0.1,"confidence":"Semnal, nu verdict: rândurile și conturul blocurilor vin din pre-adnotări AI (corectate parțial în Marcaj), iar parcelele și registrul sunt DEMO. Doar controlul pe teren confirmă."},"below_threshold":[{"vineyard_id":"V01","rows":7,"area_ha":0.044},{"vineyard_id":"V03","rows":3,"area_ha":0.009},{"vineyard_id":"V05","rows":3,"area_ha":0.005},{"vineyard_id":"V06","rows":11,"area_ha":0.137},{"vineyard_id":"V08","rows":6,"area_ha":0.023},{"vineyard_id":"V09","rows":15,"area_ha":0.134},{"vineyard_id":"V11","rows":5,"area_ha":0.043},{"vineyard_id":"V12","rows":4,"area_ha":0.016},{"vineyard_id":"V13","rows":3,"area_ha":0.031},{"vineyard_id":"V16","rows":3,"area_ha":0.01},{"vineyard_id":"V19","rows":4,"area_ha":0.094},{"vineyard_id":"V20","rows":3,"area_ha":0.007},{"vineyard_id":"V21","rows":11,"area_ha":0.098},{"vineyard_id":"V22","rows":3,"area_ha":0.013},{"vineyard_id":"V25","rows":11,"area_ha":0.085},{"vineyard_id":"V26","rows":5,"area_ha":0.088},{"vineyard_id":"V27","rows":3,"area_ha":0.027},{"vineyard_id":"V28","rows":11,"area_ha":0.099},{"vineyard_id":"V29","rows":8,"area_ha":0.049},{"vineyard_id":"V30","rows":7,"area_ha":0.074},{"vineyard_id":"V31","rows":4,"area_ha":0.04},{"vineyard_id":"V33","rows":17,"area_ha":0.121},{"vineyard_id":"V34","rows":6,"area_ha":0.107},{"vineyard_id":"V35","rows":10,"area_ha":0.098},{"vineyard_id":"V37","rows":4,"area_ha":0.016},{"vineyard_id":"V38","rows":9,"area_ha":0.073},{"vineyard_id":"V39","rows":3,"area_ha":0.018},{"vineyard_id":"V40","rows":3,"area_ha":0.004},{"vineyard_id":"V43","rows":8,"area_ha":0.033},{"vineyard_id":"V44","rows":6,"area_ha":0.053},{"vineyard_id":"V45","rows":16,"area_ha":0.145},{"vineyard_id":"V47","rows":6,"area_ha":0.013}],"features":[{"type":"Feature","geometry":{"type":"Polygon","coordinates":[[[629005.5296189015,5220723.726562582],[629004.6055970368,5220726.504842385],[629006.0876416815,5220727.5999439955],[629019.1835120432,5220736.023204289],[629021.2193196164,5220736.558610447],[629022.2744879457,5220737.992606146],[629040.2098033999,5220751.2499588365],[629043.0387142741,5220752.552548003],[629044.0965078599,5220754.147320455],[629053.9462948507,5220761.487851915],[629056.6996398813,5220762.115958866],[629114.1294772692,5220673.565491462],[629103.076388509,5220667.160548408],[629102.4088985384,5220665.2023918135],[629103.6927765567,5220662.71274292],[629103.5204411275,5220662.115092347],[629094.4593994058,5220658.98127363],[629092.3326990805,5220658.585387023],[629090.2130665324,5220659.234449816],[629088.555867678,5220658.579675394],[629086.6204364735,5220659.15061623],[629084.9957281903,5220658.570897763],[629083.2754339308,5220659.084330785],[629081.626032599,5220658.560864848],[629079.8099982735,5220659.137308931],[629078.1269347256,5220658.587974479],[629076.3512027527,5220659.213180364],[629074.4246175372,5220658.577097212],[629072.5943346081,5220659.167928628],[629070.8587763715,5220658.5884053],[629068.9875747395,5220659.295952379],[629066.965351136,5220658.569871009],[629065.1101743578,5220659.158927197],[629063.2847707295,5220658.569664061],[629061.5636931172,5220659.194963864],[629059.7211165392,5220658.592392093],[629057.8540590908,5220659.192370438],[629056.0461832249,5220658.550129074],[629054.5445832836,5220659.022566517],[629052.6668783495,5220658.659111039],[629037.404950872,5220681.011471177],[629035.90931146,5220681.734867682],[629033.872614482,5220681.493196612],[629029.575785976,5220688.000271639],[629028.496444164,5220688.911461859],[629026.8183543065,5220689.031810318],[629023.852953025,5220687.14216315],[629023.2433609162,5220687.317811378],[629022.5465838904,5220688.529808456],[629023.8060212578,5220690.30046621],[629023.623461513,5220692.158206384],[629004.6088478185,5220721.272798054],[629005.5296189015,5220723.726562582]]]},"properties":{"id":"A01","type":"A","label":"Posibilă plantare neautorizată","legal":"Reg. (UE) 1308/2013 art. 62 și 71: plantarea viței de vie pentru vin se face doar cu autorizație, iar plantările neautorizate se defrișează. În Republica Moldova: Legea 57/2006 a viei și vinului, art. 21(1) — parcelele viticole > 0,15 ha se înregistrează în Registrul vitivinicol.","confidence":"Semnal, nu verdict: rândurile și conturul blocurilor vin din pre-adnotări AI (corectate parțial în Marcaj), iar parcelele și registrul sunt DEMO. Doar controlul pe teren confirmă.","visit":[629051.18,5220710.34],"visit_snap_m":0.0,"demo":true,"vineyard_id":"V04","cad_nr":["DEMO-0003","DEMO-0004"],"area_ha":0.6268,"area_m2":6268,"share_pct":49.7,"share_of":"bloc","reason":"parcelă fără autorizație / cod RVV","block_area_ha":1.211}},{"type":"Feature","geometry":{"type":"Polygon","coordinates":[[[630151.9486276845,5219267.286948593],[630151.8741618778,5219267.990123425],[630160.0872079645,5219277.60681433],[630162.3064448215,5219276.829309293],[630164.6058630556,5219277.697703008],[630167.0385059746,5219277.012509612],[630169.9736464528,5219279.312569878],[630233.3858895929,5219229.525713066],[630233.5304302631,5219228.921603715],[630230.8058384997,5219225.961226339],[630229.3483965462,5219225.727841647],[630227.992468229,5219224.732743657],[630225.4139260664,5219225.434399943],[630222.3878515206,5219223.821638531],[630221.028237828,5219221.106506774],[630221.531301494,5219218.94860644],[630220.8846160824,5219217.554007491],[630220.8760177866,5219216.001435903],[630215.4849309871,5219210.052916374],[630213.2749309264,5219210.475522331],[630211.2994249832,5219209.509370545],[630209.1187516719,5219210.424243648],[630206.9837944746,5219209.425339164],[630205.0325065465,5219210.080917609],[630203.0705687073,5219209.286507248],[630201.356670166,5219209.752782888],[630199.4667597723,5219209.247537064],[630190.0364052526,5219217.111647351],[630190.1253250435,5219218.95894196],[630189.5829341994,5219220.233455479],[630182.6236007379,5219226.139023684],[630184.3301125609,5219229.343763453],[630183.8215253905,5219231.578605821],[630170.0203895194,5219242.937221375],[630170.0605298867,5219245.189428889],[630168.9055213798,5219246.811931009],[630169.3142196122,5219248.389950733],[630168.872559493,5219250.0557508925],[630169.5408733072,5219251.89995147],[630168.9663626277,5219253.464213946],[630166.3490509567,5219255.091061458],[630164.7182153804,5219254.657936626],[630162.704296995,5219252.499574532],[630160.5531402678,5219253.992876348],[630160.4228215994,5219254.6137401685],[630162.1429843114,5219257.081786332],[630161.8147857954,5219259.167165428],[630151.9486276845,5219267.286948593]]]},"properties":{"id":"A02","type":"A","label":"Posibilă plantare neautorizată","legal":"Reg. (UE) 1308/2013 art. 62 și 71: plantarea viței de vie pentru vin se face doar cu autorizație, iar plantările neautorizate se defrișează. În Republica Moldova: Legea 57/2006 a viei și vinului, art. 21(1) — parcelele viticole > 0,15 ha se înregistrează în Registrul vitivinicol.","confidence":"Semnal, nu verdict: rândurile și conturul blocurilor vin din pre-adnotări AI (corectate parțial în Marcaj), iar parcelele și registrul sunt DEMO. Doar controlul pe teren confirmă.","visit":[630192.33,5219244.38],"visit_snap_m":0.0,"demo":true,"vineyard_id":"V46","cad_nr":["DEMO-0019","DEMO-0020"],"area_ha":0.2429,"area_m2":2429,"share_pct":48.4,"share_of":"bloc","reason":"parcelă fără autorizație / cod RVV","block_area_ha":0.481}},{"type":"Feature","geometry":{"type":"Polygon","coordinates":[[[629781.9543602626,5219726.1660822965],[629782.001771524,5219726.798701464],[629783.7390187916,5219727.9636501055],[629785.6915731878,5219727.062701544],[629787.5641236955,5219727.533699944],[629789.7067439746,5219729.8233581595],[629790.0237466159,5219732.120808714],[629797.6888996107,5219737.557902071],[629800.5152610069,5219738.223815802],[629802.9130989559,5219737.327665823],[629804.9050594316,5219738.2446101345],[629807.0175590975,5219737.494798473],[629808.9300570202,5219738.225241832],[629811.1576409658,5219737.276721082],[629813.5925129309,5219738.1527191335],[629842.8389018594,5219696.032328648],[629835.9447390502,5219691.263612197],[629835.2970966098,5219689.989570735],[629835.3126552626,5219688.176801979],[629830.7363985529,5219685.3160588015],[629821.0493068004,5219672.757030269],[629820.4312442675,5219672.61401438],[629818.7592966867,5219674.337162052],[629824.589109308,5219682.0218591895],[629824.847939008,5219683.253025069],[629824.3622542784,5219684.6194092715],[629823.1761622485,5219685.4944832325],[629820.1633154058,5219686.237350986],[629818.7224225795,5219685.479204476],[629815.5513576774,5219681.424276151],[629813.4191134997,5219682.671958066],[629812.8411969718,5219685.364987015],[629811.6612894401,5219686.199209506],[629809.8396856436,5219686.473102837],[629781.9543602626,5219726.1660822965]]]},"properties":{"id":"A03","type":"A","label":"Posibilă plantare neautorizată","legal":"Reg. (UE) 1308/2013 art. 62 și 71: plantarea viței de vie pentru vin se face doar cu autorizație, iar plantările neautorizate se defrișează. În Republica Moldova: Legea 57/2006 a viei și vinului, art. 21(1) — parcelele viticole > 0,15 ha se înregistrează în Registrul vitivinicol.","confidence":"Semnal, nu verdict: rândurile și conturul blocurilor vin din pre-adnotări AI (corectate parțial în Marcaj), iar parcelele și registrul sunt DEMO. Doar controlul pe teren confirmă.","visit":[629812.39,5219711.36],"visit_snap_m":0.0,"demo":true,"vineyard_id":"V23","cad_nr":[],"area_ha":0.1894,"area_m2":1894,"share_pct":100.0,"share_of":"bloc","reason":"nicio parcelă înregistrată","block_area_ha":0.182}},{"type":"Feature","geometry":{"type":"Polygon","coordinates":[[[629970.4519197987,5219492.679155003],[629970.3825712731,5219493.381485131],[630003.0298763055,5219533.335035617],[630006.373985558,5219532.134105589],[630008.5177839721,5219533.470864756],[630010.836801691,5219532.96620836],[630014.2641823917,5219534.538235768],[630016.2181487845,5219538.478880932],[630016.0987181687,5219539.689268415],[630015.1247095673,5219541.432865596],[630022.5665901726,5219551.374608968],[630025.4972117707,5219551.026915509],[630028.4012031525,5219553.615188457],[630036.7432472841,5219546.882032083],[630036.7582683708,5219546.260549002],[630029.2946724683,5219536.177551469],[630029.4167805951,5219534.233285863],[630031.5710240456,5219532.144557161],[630031.5942535897,5219531.5493109515],[629990.2461912688,5219481.038136093],[629988.2750531356,5219481.377032687],[629986.6683766958,5219480.868241331],[629984.1531339196,5219481.40828526],[629970.4519197987,5219492.679155003]]]},"properties":{"id":"A04","type":"A","label":"Posibilă plantare neautorizată","legal":"Reg. (UE) 1308/2013 art. 62 și 71: plantarea viței de vie pentru vin se face doar cu autorizație, iar plantările neautorizate se defrișează. În Republica Moldova: Legea 57/2006 a viei și vinului, art. 21(1) — parcelele viticole > 0,15 ha se înregistrează în Registrul vitivinicol.","confidence":"Semnal, nu verdict: rândurile și conturul blocurilor vin din pre-adnotări AI (corectate parțial în Marcaj), iar parcelele și registrul sunt DEMO. Doar controlul pe teren confirmă.","visit":[630009.63,5219523.15],"visit_snap_m":0.0,"demo":true,"vineyard_id":"V32","cad_nr":["DEMO-0015"],"area_ha":0.1699,"area_m2":1699,"share_pct":100.0,"share_of":"bloc","reason":"parcelă cu alt status în registru","block_area_ha":0.165}},{"type":"Feature","geometry":{"type":"Polygon","coordinates":[[[630332.3747687866,5219782.267932886],[630332.3747687866,5219826.267932886],[630402.3747687866,5219826.267932886],[630402.3747687866,5219782.267932886],[630332.3747687866,5219782.267932886]]]},"properties":{"id":"B01","type":"B","label":"Posibil defrișată / abandonată (registru de actualizat)","legal":"Reg. delegat (UE) 2018/273 art. 7 și art. 37(3): registrul viticol conține suprafețele plantate, defrișate și abandonate și se corectează după verificare; viță abandonată = necultivată regulat de peste 5 ani viticoli (art. 2).","confidence":"Semnal, nu verdict: rândurile și conturul blocurilor vin din pre-adnotări AI (corectate parțial în Marcaj), iar parcelele și registrul sunt DEMO. Doar controlul pe teren confirmă.","visit":[630277.14,5219772.76],"visit_snap_m":95.6,"demo":true,"cad_nr":["DEMO-0021"],"vineyard_id":null,"area_ha":0.308,"area_m2":3080,"share_pct":0.0,"share_of":"parcelă acoperită de vie detectată","reason":"fără vie pe imagine"}},{"type":"Feature","geometry":{"type":"Polygon","coordinates":[[[630601.1693695092,5219723.212745821],[630601.1693695092,5219767.212745821],[630671.1693695092,5219767.212745821],[630671.1693695092,5219723.212745821],[630601.1693695092,5219723.212745821]]]},"properties":{"id":"B02","type":"B","label":"Posibil defrișată / abandonată (registru de actualizat)","legal":"Reg. delegat (UE) 2018/273 art. 7 și art. 37(3): registrul viticol conține suprafețele plantate, defrișate și abandonate și se corectează după verificare; viță abandonată = necultivată regulat de peste 5 ani viticoli (art. 2).","confidence":"Semnal, nu verdict: rândurile și conturul blocurilor vin din pre-adnotări AI (corectate parțial în Marcaj), iar parcelele și registrul sunt DEMO. Doar controlul pe teren confirmă.","visit":[630646.11,5219718.89],"visit_snap_m":28.1,"demo":true,"cad_nr":["DEMO-0022"],"vineyard_id":null,"area_ha":0.308,"area_m2":3080,"share_pct":0.0,"share_of":"parcelă acoperită de vie detectată","reason":"fără vie pe imagine"}}]}